[
  {
    "zip_code": 6300000,
    "pref": "奈良県",
    "city": "奈良市",
    "sname": ""
  },
  {
    "zip_code": 6310053,
    "pref": "奈良県",
    "city": "奈良市",
    "sname": "青垣台"
  },
  {
    "zip_code": 6310841,
    "pref": "奈良県",
    "city": "奈良市",
    "sname": "青野町"
  },
  {
    "zip_code": 6308101,
    "pref": "奈良県",
    "city": "奈良市",
    "sname": "青山"
  },
  {
    "zip_code": 6308035,
    "pref": "奈良県",
    "city": "奈良市",
    "sname": "赤膚町"
  },
  {
    "zip_code": 6310812,
    "pref": "奈良県",
    "city": "奈良市",
    "sname": "秋篠早月町"
  },
  {
    "zip_code": 6310814,
    "pref": "奈良県",
    "city": "奈良市",
    "sname": "秋篠三和町"
  },
  {
    "zip_code": 6310813,
    "pref": "奈良県",
    "city": "奈良市",
    "sname": "秋篠新町"
  },
  {
    "zip_code": 6310811,
    "pref": "奈良県",
    "city": "奈良市",
    "sname": "秋篠町"
  },
  {
    "zip_code": 6310014,
    "pref": "奈良県",
    "city": "奈良市",
    "sname": "朝日町"
  },
  {
    "zip_code": 6308346,
    "pref": "奈良県",
    "city": "奈良市",
    "sname": "阿字万字町"
  },
  {
    "zip_code": 6308246,
    "pref": "奈良県",
    "city": "奈良市",
    "sname": "油阪地方町"
  },
  {
    "zip_code": 6308247,
    "pref": "奈良県",
    "city": "奈良市",
    "sname": "油阪町"
  },
  {
    "zip_code": 6308024,
    "pref": "奈良県",
    "city": "奈良市",
    "sname": "尼辻中町"
  },
  {
    "zip_code": 6308023,
    "pref": "奈良県",
    "city": "奈良市",
    "sname": "尼辻西町"
  },
  {
    "zip_code": 6308022,
    "pref": "奈良県",
    "city": "奈良市",
    "sname": "尼辻南町"
  },
  {
    "zip_code": 6308025,
    "pref": "奈良県",
    "city": "奈良市",
    "sname": "尼辻北町"
  },
  {
    "zip_code": 6308021,
    "pref": "奈良県",
    "city": "奈良市",
    "sname": "尼辻町"
  },
  {
    "zip_code": 6310033,
    "pref": "奈良県",
    "city": "奈良市",
    "sname": "あやめ池南"
  },
  {
    "zip_code": 6310032,
    "pref": "奈良県",
    "city": "奈良市",
    "sname": "あやめ池北"
  },
  {
    "zip_code": 6320245,
    "pref": "奈良県",
    "city": "奈良市",
    "sname": "藺生町"
  },
  {
    "zip_code": 6308445,
    "pref": "奈良県",
    "city": "奈良市",
    "sname": "池田町"
  },
  {
    "zip_code": 6308361,
    "pref": "奈良県",
    "city": "奈良市",
    "sname": "池之町"
  },
  {
    "zip_code": 6310054,
    "pref": "奈良県",
    "city": "奈良市",
    "sname": "石木町"
  },
  {
    "zip_code": 6308317,
    "pref": "奈良県",
    "city": "奈良市",
    "sname": "井上町"
  },
  {
    "zip_code": 6308444,
    "pref": "奈良県",
    "city": "奈良市",
    "sname": "今市町"
  },
  {
    "zip_code": 6308207,
    "pref": "奈良県",
    "city": "奈良市",
    "sname": "今小路町"
  },
  {
    "zip_code": 6308205,
    "pref": "奈良県",
    "city": "奈良市",
    "sname": "今在家町"
  },
  {
    "zip_code": 6308243,
    "pref": "奈良県",
    "city": "奈良市",
    "sname": "今辻子町"
  },
  {
    "zip_code": 6308374,
    "pref": "奈良県",
    "city": "奈良市",
    "sname": "今御門町"
  },
  {
    "zip_code": 6308338,
    "pref": "奈良県",
    "city": "奈良市",
    "sname": "陰陽町"
  },
  {
    "zip_code": 6310805,
    "pref": "奈良県",
    "city": "奈良市",
    "sname": "右京"
  },
  {
    "zip_code": 6310802,
    "pref": "奈良県",
    "city": "奈良市",
    "sname": "歌姫町"
  },
  {
    "zip_code": 6320103,
    "pref": "奈良県",
    "city": "奈良市",
    "sname": "荻町"
  },
  {
    "zip_code": 6301233,
    "pref": "奈良県",
    "city": "奈良市",
    "sname": "邑地町"
  },
  {
    "zip_code": 6302161,
    "pref": "奈良県",
    "city": "奈良市",
    "sname": "大野町"
  },
  {
    "zip_code": 6310005,
    "pref": "奈良県",
    "city": "奈良市",
    "sname": "大渕町"
  },
  {
    "zip_code": 6301236,
    "pref": "奈良県",
    "city": "奈良市",
    "sname": "大保町"
  },
  {
    "zip_code": 6308115,
    "pref": "奈良県",
    "city": "奈良市",
    "sname": "大宮町"
  },
  {
    "zip_code": 6308131,
    "pref": "奈良県",
    "city": "奈良市",
    "sname": "大森町"
  },
  {
    "zip_code": 6308132,
    "pref": "奈良県",
    "city": "奈良市",
    "sname": "大森西町"
  },
  {
    "zip_code": 6301242,
    "pref": "奈良県",
    "city": "奈良市",
    "sname": "大柳生町"
  },
  {
    "zip_code": 6310042,
    "pref": "奈良県",
    "city": "奈良市",
    "sname": "大倭町"
  },
  {
    "zip_code": 6310055,
    "pref": "奈良県",
    "city": "奈良市",
    "sname": "大和田町"
  },
  {
    "zip_code": 6308233,
    "pref": "奈良県",
    "city": "奈良市",
    "sname": "小川町"
  },
  {
    "zip_code": 6301232,
    "pref": "奈良県",
    "city": "奈良市",
    "sname": "興ヶ原町"
  },
  {
    "zip_code": 6308235,
    "pref": "奈良県",
    "city": "奈良市",
    "sname": "奥子守町"
  },
  {
    "zip_code": 6308256,
    "pref": "奈良県",
    "city": "奈良市",
    "sname": "奥芝町"
  },
  {
    "zip_code": 6320111,
    "pref": "奈良県",
    "city": "奈良市",
    "sname": "小倉町"
  },
  {
    "zip_code": 6308273,
    "pref": "奈良県",
    "city": "奈良市",
    "sname": "押上町"
  },
  {
    "zip_code": 6310011,
    "pref": "奈良県",
    "city": "奈良市",
    "sname": "押熊町"
  },
  {
    "zip_code": 6308294,
    "pref": "奈良県",
    "city": "奈良市",
    "sname": "押小路町"
  },
  {
    "zip_code": 6301243,
    "pref": "奈良県",
    "city": "奈良市",
    "sname": "大平尾町"
  },
  {
    "zip_code": 6308142,
    "pref": "奈良県",
    "city": "奈良市",
    "sname": "肘塚町"
  },
  {
    "zip_code": 6308391,
    "pref": "奈良県",
    "city": "奈良市",
    "sname": "鵲町"
  },
  {
    "zip_code": 6308031,
    "pref": "奈良県",
    "city": "奈良市",
    "sname": "柏木町"
  },
  {
    "zip_code": 6308212,
    "pref": "奈良県",
    "city": "奈良市",
    "sname": "春日野町"
  },
  {
    "zip_code": 6308143,
    "pref": "奈良県",
    "city": "奈良市",
    "sname": "桂木町"
  },
  {
    "zip_code": 6308228,
    "pref": "奈良県",
    "city": "奈良市",
    "sname": "上三条町"
  },
  {
    "zip_code": 6320102,
    "pref": "奈良県",
    "city": "奈良市",
    "sname": "上深川町"
  },
  {
    "zip_code": 6308454,
    "pref": "奈良県",
    "city": "奈良市",
    "sname": "杏町"
  },
  {
    "zip_code": 6308202,
    "pref": "奈良県",
    "city": "奈良市",
    "sname": "川上町"
  },
  {
    "zip_code": 6308293,
    "pref": "奈良県",
    "city": "奈良市",
    "sname": "川久保町"
  },
  {
    "zip_code": 6308313,
    "pref": "奈良県",
    "city": "奈良市",
    "sname": "川之上町"
  },
  {
    "zip_code": 6308314,
    "pref": "奈良県",
    "city": "奈良市",
    "sname": "川之上突抜町"
  },
  {
    "zip_code": 6308326,
    "pref": "奈良県",
    "city": "奈良市",
    "sname": "瓦堂町"
  },
  {
    "zip_code": 6308242,
    "pref": "奈良県",
    "city": "奈良市",
    "sname": "漢国町"
  },
  {
    "zip_code": 6310027,
    "pref": "奈良県",
    "city": "奈良市",
    "sname": "学園赤松町"
  },
  {
    "zip_code": 6310016,
    "pref": "奈良県",
    "city": "奈良市",
    "sname": "学園朝日町"
  },
  {
    "zip_code": 6310015,
    "pref": "奈良県",
    "city": "奈良市",
    "sname": "学園朝日元町"
  },
  {
    "zip_code": 6310025,
    "pref": "奈良県",
    "city": "奈良市",
    "sname": "学園新田町"
  },
  {
    "zip_code": 6310041,
    "pref": "奈良県",
    "city": "奈良市",
    "sname": "学園大和町"
  },
  {
    "zip_code": 6310035,
    "pref": "奈良県",
    "city": "奈良市",
    "sname": "学園中"
  },
  {
    "zip_code": 6310026,
    "pref": "奈良県",
    "city": "奈良市",
    "sname": "学園緑ヶ丘"
  },
  {
    "zip_code": 6310034,
    "pref": "奈良県",
    "city": "奈良市",
    "sname": "学園南"
  },
  {
    "zip_code": 6310036,
    "pref": "奈良県",
    "city": "奈良市",
    "sname": "学園北"
  },
  {
    "zip_code": 6308332,
    "pref": "奈良県",
    "city": "奈良市",
    "sname": "元興寺町"
  },
  {
    "zip_code": 6308221,
    "pref": "奈良県",
    "city": "奈良市",
    "sname": "元林院町"
  },
  {
    "zip_code": 6308261,
    "pref": "奈良県",
    "city": "奈良市",
    "sname": "北市町"
  },
  {
    "zip_code": 6308285,
    "pref": "奈良県",
    "city": "奈良市",
    "sname": "北魚屋東町"
  },
  {
    "zip_code": 6308263,
    "pref": "奈良県",
    "city": "奈良市",
    "sname": "北魚屋西町"
  },
  {
    "zip_code": 6308297,
    "pref": "奈良県",
    "city": "奈良市",
    "sname": "北川端町"
  },
  {
    "zip_code": 6308322,
    "pref": "奈良県",
    "city": "奈良市",
    "sname": "北京終町"
  },
  {
    "zip_code": 6308252,
    "pref": "奈良県",
    "city": "奈良市",
    "sname": "北小路町"
  },
  {
    "zip_code": 6308011,
    "pref": "奈良県",
    "city": "奈良市",
    "sname": "北新町"
  },
  {
    "zip_code": 6308405,
    "pref": "奈良県",
    "city": "奈良市",
    "sname": "北椿尾町"
  },
  {
    "zip_code": 6310001,
    "pref": "奈良県",
    "city": "奈良市",
    "sname": "北登美ヶ丘"
  },
  {
    "zip_code": 6308442,
    "pref": "奈良県",
    "city": "奈良市",
    "sname": "北永井町"
  },
  {
    "zip_code": 6308451,
    "pref": "奈良県",
    "city": "奈良市",
    "sname": "北之庄町"
  },
  {
    "zip_code": 6308452,
    "pref": "奈良県",
    "city": "奈良市",
    "sname": "北之庄西町"
  },
  {
    "zip_code": 6301234,
    "pref": "奈良県",
    "city": "奈良市",
    "sname": "北野山町"
  },
  {
    "zip_code": 6308275,
    "pref": "奈良県",
    "city": "奈良市",
    "sname": "北半田中町"
  },
  {
    "zip_code": 6308274,
    "pref": "奈良県",
    "city": "奈良市",
    "sname": "北半田東町"
  },
  {
    "zip_code": 6308276,
    "pref": "奈良県",
    "city": "奈良市",
    "sname": "北半田西町"
  },
  {
    "zip_code": 6308262,
    "pref": "奈良県",
    "city": "奈良市",
    "sname": "北袋町"
  },
  {
    "zip_code": 6308352,
    "pref": "奈良県",
    "city": "奈良市",
    "sname": "北風呂町"
  },
  {
    "zip_code": 6308204,
    "pref": "奈良県",
    "city": "奈良市",
    "sname": "北御門町"
  },
  {
    "zip_code": 6308232,
    "pref": "奈良県",
    "city": "奈良市",
    "sname": "北向町"
  },
  {
    "zip_code": 6301113,
    "pref": "奈良県",
    "city": "奈良市",
    "sname": "北村町"
  },
  {
    "zip_code": 6308364,
    "pref": "奈良県",
    "city": "奈良市",
    "sname": "北室町"
  },
  {
    "zip_code": 6308306,
    "pref": "奈良県",
    "city": "奈良市",
    "sname": "紀寺町"
  },
  {
    "zip_code": 6308323,
    "pref": "奈良県",
    "city": "奈良市",
    "sname": "京終地方東側町"
  },
  {
    "zip_code": 6308324,
    "pref": "奈良県",
    "city": "奈良市",
    "sname": "京終地方西側町"
  },
  {
    "zip_code": 6302172,
    "pref": "奈良県",
    "city": "奈良市",
    "sname": "沓掛町"
  },
  {
    "zip_code": 6308382,
    "pref": "奈良県",
    "city": "奈良市",
    "sname": "公納堂町"
  },
  {
    "zip_code": 6308431,
    "pref": "奈良県",
    "city": "奈良市",
    "sname": "窪之庄町"
  },
  {
    "zip_code": 6308136,
    "pref": "奈良県",
    "city": "奈良市",
    "sname": "恋の窪"
  },
  {
    "zip_code": 6308137,
    "pref": "奈良県",
    "city": "奈良市",
    "sname": "恋の窪東町"
  },
  {
    "zip_code": 6308103,
    "pref": "奈良県",
    "city": "奈良市",
    "sname": "興善院町"
  },
  {
    "zip_code": 6308371,
    "pref": "奈良県",
    "city": "奈良市",
    "sname": "光明院町"
  },
  {
    "zip_code": 6308403,
    "pref": "奈良県",
    "city": "奈良市",
    "sname": "興隆寺町"
  },
  {
    "zip_code": 6308412,
    "pref": "奈良県",
    "city": "奈良市",
    "sname": "虚空蔵町"
  },
  {
    "zip_code": 6308348,
    "pref": "奈良県",
    "city": "奈良市",
    "sname": "小太郎町"
  },
  {
    "zip_code": 6308296,
    "pref": "奈良県",
    "city": "奈良市",
    "sname": "後藤町"
  },
  {
    "zip_code": 6308441,
    "pref": "奈良県",
    "city": "奈良市",
    "sname": "神殿町"
  },
  {
    "zip_code": 6308226,
    "pref": "奈良県",
    "city": "奈良市",
    "sname": "小西町"
  },
  {
    "zip_code": 6302177,
    "pref": "奈良県",
    "city": "奈良市",
    "sname": "此瀬町"
  },
  {
    "zip_code": 6308033,
    "pref": "奈良県",
    "city": "奈良市",
    "sname": "五条"
  },
  {
    "zip_code": 6308032,
    "pref": "奈良県",
    "city": "奈良市",
    "sname": "五条町"
  },
  {
    "zip_code": 6308036,
    "pref": "奈良県",
    "city": "奈良市",
    "sname": "五条畑"
  },
  {
    "zip_code": 6308034,
    "pref": "奈良県",
    "city": "奈良市",
    "sname": "五条西"
  },
  {
    "zip_code": 6308453,
    "pref": "奈良県",
    "city": "奈良市",
    "sname": "西九条町"
  },
  {
    "zip_code": 6310818,
    "pref": "奈良県",
    "city": "奈良市",
    "sname": "西大寺赤田町"
  },
  {
    "zip_code": 6310823,
    "pref": "奈良県",
    "city": "奈良市",
    "sname": "西大寺国見町"
  },
  {
    "zip_code": 6310827,
    "pref": "奈良県",
    "city": "奈良市",
    "sname": "西大寺小坊町"
  },
  {
    "zip_code": 6310822,
    "pref": "奈良県",
    "city": "奈良市",
    "sname": "西大寺栄町"
  },
  {
    "zip_code": 6310825,
    "pref": "奈良県",
    "city": "奈良市",
    "sname": "西大寺芝町"
  },
  {
    "zip_code": 6310834,
    "pref": "奈良県",
    "city": "奈良市",
    "sname": "西大寺新池町"
  },
  {
    "zip_code": 6310832,
    "pref": "奈良県",
    "city": "奈良市",
    "sname": "西大寺新田町"
  },
  {
    "zip_code": 6310815,
    "pref": "奈良県",
    "city": "奈良市",
    "sname": "西大寺新町"
  },
  {
    "zip_code": 6310835,
    "pref": "奈良県",
    "city": "奈良市",
    "sname": "西大寺高塚町"
  },
  {
    "zip_code": 6310831,
    "pref": "奈良県",
    "city": "奈良市",
    "sname": "西大寺宝ヶ丘"
  },
  {
    "zip_code": 6310833,
    "pref": "奈良県",
    "city": "奈良市",
    "sname": "西大寺野神町"
  },
  {
    "zip_code": 6310816,
    "pref": "奈良県",
    "city": "奈良市",
    "sname": "西大寺本町"
  },
  {
    "zip_code": 6310821,
    "pref": "奈良県",
    "city": "奈良市",
    "sname": "西大寺東町"
  },
  {
    "zip_code": 6310824,
    "pref": "奈良県",
    "city": "奈良市",
    "sname": "西大寺南町"
  },
  {
    "zip_code": 6310817,
    "pref": "奈良県",
    "city": "奈良市",
    "sname": "西大寺北町"
  },
  {
    "zip_code": 6310836,
    "pref": "奈良県",
    "city": "奈良市",
    "sname": "西大寺竜王町"
  },
  {
    "zip_code": 6310826,
    "pref": "奈良県",
    "city": "奈良市",
    "sname": "西大寺町"
  },
  {
    "zip_code": 6308255,
    "pref": "奈良県",
    "city": "奈良市",
    "sname": "阪新屋町"
  },
  {
    "zip_code": 6301241,
    "pref": "奈良県",
    "city": "奈良市",
    "sname": "阪原町"
  },
  {
    "zip_code": 6301103,
    "pref": "奈良県",
    "city": "奈良市",
    "sname": "狭川東町"
  },
  {
    "zip_code": 6301104,
    "pref": "奈良県",
    "city": "奈良市",
    "sname": "狭川両町"
  },
  {
    "zip_code": 6308003,
    "pref": "奈良県",
    "city": "奈良市",
    "sname": "佐紀町"
  },
  {
    "zip_code": 6310801,
    "pref": "奈良県",
    "city": "奈良市",
    "sname": "左京"
  },
  {
    "zip_code": 6308105,
    "pref": "奈良県",
    "city": "奈良市",
    "sname": "佐保台"
  },
  {
    "zip_code": 6308106,
    "pref": "奈良県",
    "city": "奈良市",
    "sname": "佐保台西町"
  },
  {
    "zip_code": 6308013,
    "pref": "奈良県",
    "city": "奈良市",
    "sname": "三条大路"
  },
  {
    "zip_code": 6308123,
    "pref": "奈良県",
    "city": "奈良市",
    "sname": "三条大宮町"
  },
  {
    "zip_code": 6308125,
    "pref": "奈良県",
    "city": "奈良市",
    "sname": "三条川西町"
  },
  {
    "zip_code": 6308126,
    "pref": "奈良県",
    "city": "奈良市",
    "sname": "三条栄町"
  },
  {
    "zip_code": 6308127,
    "pref": "奈良県",
    "city": "奈良市",
    "sname": "三条添川町"
  },
  {
    "zip_code": 6308124,
    "pref": "奈良県",
    "city": "奈良市",
    "sname": "三条桧町"
  },
  {
    "zip_code": 6308122,
    "pref": "奈良県",
    "city": "奈良市",
    "sname": "三条本町"
  },
  {
    "zip_code": 6308121,
    "pref": "奈良県",
    "city": "奈良市",
    "sname": "三条宮前町"
  },
  {
    "zip_code": 6308244,
    "pref": "奈良県",
    "city": "奈良市",
    "sname": "三条町"
  },
  {
    "zip_code": 6310031,
    "pref": "奈良県",
    "city": "奈良市",
    "sname": "敷島町"
  },
  {
    "zip_code": 6308014,
    "pref": "奈良県",
    "city": "奈良市",
    "sname": "四条大路"
  },
  {
    "zip_code": 6308015,
    "pref": "奈良県",
    "city": "奈良市",
    "sname": "四条大路南町"
  },
  {
    "zip_code": 6308053,
    "pref": "奈良県",
    "city": "奈良市",
    "sname": "七条"
  },
  {
    "zip_code": 6308051,
    "pref": "奈良県",
    "city": "奈良市",
    "sname": "七条町"
  },
  {
    "zip_code": 6308052,
    "pref": "奈良県",
    "city": "奈良市",
    "sname": "七条東町"
  },
  {
    "zip_code": 6308054,
    "pref": "奈良県",
    "city": "奈良市",
    "sname": "七条西町"
  },
  {
    "zip_code": 6308385,
    "pref": "奈良県",
    "city": "奈良市",
    "sname": "芝突抜町"
  },
  {
    "zip_code": 6308114,
    "pref": "奈良県",
    "city": "奈良市",
    "sname": "芝辻町"
  },
  {
    "zip_code": 6308384,
    "pref": "奈良県",
    "city": "奈良市",
    "sname": "芝新屋町"
  },
  {
    "zip_code": 6308433,
    "pref": "奈良県",
    "city": "奈良市",
    "sname": "柴屋町"
  },
  {
    "zip_code": 6301102,
    "pref": "奈良県",
    "city": "奈良市",
    "sname": "下狭川町"
  },
  {
    "zip_code": 6308236,
    "pref": "奈良県",
    "city": "奈良市",
    "sname": "下三条町"
  },
  {
    "zip_code": 6320101,
    "pref": "奈良県",
    "city": "奈良市",
    "sname": "下深川町"
  },
  {
    "zip_code": 6308365,
    "pref": "奈良県",
    "city": "奈良市",
    "sname": "下御門町"
  },
  {
    "zip_code": 6308265,
    "pref": "奈良県",
    "city": "奈良市",
    "sname": "宿院町"
  },
  {
    "zip_code": 6308363,
    "pref": "奈良県",
    "city": "奈良市",
    "sname": "勝南院町"
  },
  {
    "zip_code": 6308254,
    "pref": "奈良県",
    "city": "奈良市",
    "sname": "菖蒲池町"
  },
  {
    "zip_code": 6310007,
    "pref": "奈良県",
    "city": "奈良市",
    "sname": "松陽台"
  },
  {
    "zip_code": 6308312,
    "pref": "奈良県",
    "city": "奈良市",
    "sname": "十輪院町"
  },
  {
    "zip_code": 6308311,
    "pref": "奈良県",
    "city": "奈良市",
    "sname": "十輪院畑町"
  },
  {
    "zip_code": 6310804,
    "pref": "奈良県",
    "city": "奈良市",
    "sname": "神功"
  },
  {
    "zip_code": 6308208,
    "pref": "奈良県",
    "city": "奈良市",
    "sname": "水門町"
  },
  {
    "zip_code": 6310043,
    "pref": "奈良県",
    "city": "奈良市",
    "sname": "菅野台"
  },
  {
    "zip_code": 6310842,
    "pref": "奈良県",
    "city": "奈良市",
    "sname": "菅原町"
  },
  {
    "zip_code": 6310842,
    "pref": "奈良県",
    "city": "奈良市",
    "sname": "菅原東"
  },
  {
    "zip_code": 6301111,
    "pref": "奈良県",
    "city": "奈良市",
    "sname": "須川町"
  },
  {
    "zip_code": 6310806,
    "pref": "奈良県",
    "city": "奈良市",
    "sname": "朱雀"
  },
  {
    "zip_code": 6302178,
    "pref": "奈良県",
    "city": "奈良市",
    "sname": "須山町"
  },
  {
    "zip_code": 6308357,
    "pref": "奈良県",
    "city": "奈良市",
    "sname": "杉ヶ町"
  },
  {
    "zip_code": 6302171,
    "pref": "奈良県",
    "city": "奈良市",
    "sname": "誓多林町"
  },
  {
    "zip_code": 6308211,
    "pref": "奈良県",
    "city": "奈良市",
    "sname": "雑司町"
  },
  {
    "zip_code": 6301121,
    "pref": "奈良県",
    "city": "奈良市",
    "sname": "園田町"
  },
  {
    "zip_code": 6302152,
    "pref": "奈良県",
    "city": "奈良市",
    "sname": "杣ノ川町"
  },
  {
    "zip_code": 6308133,
    "pref": "奈良県",
    "city": "奈良市",
    "sname": "大安寺"
  },
  {
    "zip_code": 6308135,
    "pref": "奈良県",
    "city": "奈良市",
    "sname": "大安寺西"
  },
  {
    "zip_code": 6308134,
    "pref": "奈良県",
    "city": "奈良市",
    "sname": "大安寺町"
  },
  {
    "zip_code": 6301245,
    "pref": "奈良県",
    "city": "奈良市",
    "sname": "大慈仙町"
  },
  {
    "zip_code": 6308301,
    "pref": "奈良県",
    "city": "奈良市",
    "sname": "高畑町"
  },
  {
    "zip_code": 6308411,
    "pref": "奈良県",
    "city": "奈良市",
    "sname": "高樋町"
  },
  {
    "zip_code": 6308238,
    "pref": "奈良県",
    "city": "奈良市",
    "sname": "高天市町"
  },
  {
    "zip_code": 6308241,
    "pref": "奈良県",
    "city": "奈良市",
    "sname": "高天町"
  },
  {
    "zip_code": 6308336,
    "pref": "奈良県",
    "city": "奈良市",
    "sname": "高御門町"
  },
  {
    "zip_code": 6308432,
    "pref": "奈良県",
    "city": "奈良市",
    "sname": "田中町"
  },
  {
    "zip_code": 6308112,
    "pref": "奈良県",
    "city": "奈良市",
    "sname": "多門町"
  },
  {
    "zip_code": 6308218,
    "pref": "奈良県",
    "city": "奈良市",
    "sname": "樽井町"
  },
  {
    "zip_code": 6302167,
    "pref": "奈良県",
    "city": "奈良市",
    "sname": "田原春日野町"
  },
  {
    "zip_code": 6308392,
    "pref": "奈良県",
    "city": "奈良市",
    "sname": "中院町"
  },
  {
    "zip_code": 6310045,
    "pref": "奈良県",
    "city": "奈良市",
    "sname": "千代ヶ丘"
  },
  {
    "zip_code": 6302301,
    "pref": "奈良県",
    "city": "奈良市",
    "sname": "月ヶ瀬石打"
  },
  {
    "zip_code": 6302302,
    "pref": "奈良県",
    "city": "奈良市",
    "sname": "月ヶ瀬尾山"
  },
  {
    "zip_code": 6302304,
    "pref": "奈良県",
    "city": "奈良市",
    "sname": "月ヶ瀬嵩"
  },
  {
    "zip_code": 6302305,
    "pref": "奈良県",
    "city": "奈良市",
    "sname": "月ヶ瀬月瀬"
  },
  {
    "zip_code": 6302303,
    "pref": "奈良県",
    "city": "奈良市",
    "sname": "月ヶ瀬長引"
  },
  {
    "zip_code": 6302306,
    "pref": "奈良県",
    "city": "奈良市",
    "sname": "月ヶ瀬桃香野"
  },
  {
    "zip_code": 6320243,
    "pref": "奈良県",
    "city": "奈良市",
    "sname": "都祁小山戸町"
  },
  {
    "zip_code": 6320247,
    "pref": "奈良県",
    "city": "奈良市",
    "sname": "都祁甲岡町"
  },
  {
    "zip_code": 6320232,
    "pref": "奈良県",
    "city": "奈良市",
    "sname": "都祁こぶしが丘"
  },
  {
    "zip_code": 6320221,
    "pref": "奈良県",
    "city": "奈良市",
    "sname": "都祁白石町"
  },
  {
    "zip_code": 6320242,
    "pref": "奈良県",
    "city": "奈良市",
    "sname": "都祁相河町"
  },
  {
    "zip_code": 6320246,
    "pref": "奈良県",
    "city": "奈良市",
    "sname": "都祁友田町"
  },
  {
    "zip_code": 6320113,
    "pref": "奈良県",
    "city": "奈良市",
    "sname": "都祁馬場町"
  },
  {
    "zip_code": 6320231,
    "pref": "奈良県",
    "city": "奈良市",
    "sname": "都祁吐山町"
  },
  {
    "zip_code": 6320241,
    "pref": "奈良県",
    "city": "奈良市",
    "sname": "都祁南之庄町"
  },
  {
    "zip_code": 6308316,
    "pref": "奈良県",
    "city": "奈良市",
    "sname": "築地之内町"
  },
  {
    "zip_code": 6308223,
    "pref": "奈良県",
    "city": "奈良市",
    "sname": "角振新屋町"
  },
  {
    "zip_code": 6308224,
    "pref": "奈良県",
    "city": "奈良市",
    "sname": "角振町"
  },
  {
    "zip_code": 6308343,
    "pref": "奈良県",
    "city": "奈良市",
    "sname": "椿井町"
  },
  {
    "zip_code": 6308393,
    "pref": "奈良県",
    "city": "奈良市",
    "sname": "鶴福院町"
  },
  {
    "zip_code": 6310021,
    "pref": "奈良県",
    "city": "奈良市",
    "sname": "鶴舞東町"
  },
  {
    "zip_code": 6310022,
    "pref": "奈良県",
    "city": "奈良市",
    "sname": "鶴舞西町"
  },
  {
    "zip_code": 6308206,
    "pref": "奈良県",
    "city": "奈良市",
    "sname": "手貝町"
  },
  {
    "zip_code": 6310062,
    "pref": "奈良県",
    "city": "奈良市",
    "sname": "帝塚山"
  },
  {
    "zip_code": 6310063,
    "pref": "奈良県",
    "city": "奈良市",
    "sname": "帝塚山中町"
  },
  {
    "zip_code": 6310066,
    "pref": "奈良県",
    "city": "奈良市",
    "sname": "帝塚山西"
  },
  {
    "zip_code": 6310064,
    "pref": "奈良県",
    "city": "奈良市",
    "sname": "帝塚山南"
  },
  {
    "zip_code": 6308423,
    "pref": "奈良県",
    "city": "奈良市",
    "sname": "出屋敷町"
  },
  {
    "zip_code": 6308234,
    "pref": "奈良県",
    "city": "奈良市",
    "sname": "寺町"
  },
  {
    "zip_code": 6308144,
    "pref": "奈良県",
    "city": "奈良市",
    "sname": "東九条町"
  },
  {
    "zip_code": 6310051,
    "pref": "奈良県",
    "city": "奈良市",
    "sname": "富雄泉ヶ丘"
  },
  {
    "zip_code": 6310077,
    "pref": "奈良県",
    "city": "奈良市",
    "sname": "富雄川西"
  },
  {
    "zip_code": 6310078,
    "pref": "奈良県",
    "city": "奈良市",
    "sname": "富雄元町"
  },
  {
    "zip_code": 6310076,
    "pref": "奈良県",
    "city": "奈良市",
    "sname": "富雄北"
  },
  {
    "zip_code": 6310004,
    "pref": "奈良県",
    "city": "奈良市",
    "sname": "登美ヶ丘"
  },
  {
    "zip_code": 6310065,
    "pref": "奈良県",
    "city": "奈良市",
    "sname": "鳥見町"
  },
  {
    "zip_code": 6308237,
    "pref": "奈良県",
    "city": "奈良市",
    "sname": "中筋町"
  },
  {
    "zip_code": 6308315,
    "pref": "奈良県",
    "city": "奈良市",
    "sname": "中辻町"
  },
  {
    "zip_code": 6302162,
    "pref": "奈良県",
    "city": "奈良市",
    "sname": "中貫町"
  },
  {
    "zip_code": 6310003,
    "pref": "奈良県",
    "city": "奈良市",
    "sname": "中登美ヶ丘"
  },
  {
    "zip_code": 6301124,
    "pref": "奈良県",
    "city": "奈良市",
    "sname": "中ノ川町"
  },
  {
    "zip_code": 6308201,
    "pref": "奈良県",
    "city": "奈良市",
    "sname": "中ノ川町"
  },
  {
    "zip_code": 6302163,
    "pref": "奈良県",
    "city": "奈良市",
    "sname": "中之庄町"
  },
  {
    "zip_code": 6308333,
    "pref": "奈良県",
    "city": "奈良市",
    "sname": "中新屋町"
  },
  {
    "zip_code": 6308401,
    "pref": "奈良県",
    "city": "奈良市",
    "sname": "中畑町"
  },
  {
    "zip_code": 6308037,
    "pref": "奈良県",
    "city": "奈良市",
    "sname": "中町"
  },
  {
    "zip_code": 6310052,
    "pref": "奈良県",
    "city": "奈良市",
    "sname": "中町"
  },
  {
    "zip_code": 6308292,
    "pref": "奈良県",
    "city": "奈良市",
    "sname": "中御門町"
  },
  {
    "zip_code": 6310012,
    "pref": "奈良県",
    "city": "奈良市",
    "sname": "中山町"
  },
  {
    "zip_code": 6310013,
    "pref": "奈良県",
    "city": "奈良市",
    "sname": "中山町西"
  },
  {
    "zip_code": 6302165,
    "pref": "奈良県",
    "city": "奈良市",
    "sname": "長谷町"
  },
  {
    "zip_code": 6308253,
    "pref": "奈良県",
    "city": "奈良市",
    "sname": "内侍原町"
  },
  {
    "zip_code": 6308264,
    "pref": "奈良県",
    "city": "奈良市",
    "sname": "鍋屋町"
  },
  {
    "zip_code": 6308107,
    "pref": "奈良県",
    "city": "奈良市",
    "sname": "奈保町"
  },
  {
    "zip_code": 6308104,
    "pref": "奈良県",
    "city": "奈良市",
    "sname": "奈良阪町"
  },
  {
    "zip_code": 6308335,
    "pref": "奈良県",
    "city": "奈良市",
    "sname": "鳴川町"
  },
  {
    "zip_code": 6308287,
    "pref": "奈良県",
    "city": "奈良市",
    "sname": "西包永町"
  },
  {
    "zip_code": 6308325,
    "pref": "奈良県",
    "city": "奈良市",
    "sname": "西木辻町"
  },
  {
    "zip_code": 6308307,
    "pref": "奈良県",
    "city": "奈良市",
    "sname": "西紀寺町"
  },
  {
    "zip_code": 6301105,
    "pref": "奈良県",
    "city": "奈良市",
    "sname": "西狭川町"
  },
  {
    "zip_code": 6308291,
    "pref": "奈良県",
    "city": "奈良市",
    "sname": "西笹鉾町"
  },
  {
    "zip_code": 6308251,
    "pref": "奈良県",
    "city": "奈良市",
    "sname": "西新在家号所町"
  },
  {
    "zip_code": 6308248,
    "pref": "奈良県",
    "city": "奈良市",
    "sname": "西新在家町"
  },
  {
    "zip_code": 6308345,
    "pref": "奈良県",
    "city": "奈良市",
    "sname": "西城戸町"
  },
  {
    "zip_code": 6310046,
    "pref": "奈良県",
    "city": "奈良市",
    "sname": "西千代ヶ丘"
  },
  {
    "zip_code": 6308372,
    "pref": "奈良県",
    "city": "奈良市",
    "sname": "西寺林町"
  },
  {
    "zip_code": 6310006,
    "pref": "奈良県",
    "city": "奈良市",
    "sname": "西登美ヶ丘"
  },
  {
    "zip_code": 6308042,
    "pref": "奈良県",
    "city": "奈良市",
    "sname": "西ノ京町"
  },
  {
    "zip_code": 6308245,
    "pref": "奈良県",
    "city": "奈良市",
    "sname": "西之阪町"
  },
  {
    "zip_code": 6308334,
    "pref": "奈良県",
    "city": "奈良市",
    "sname": "西新屋町"
  },
  {
    "zip_code": 6308225,
    "pref": "奈良県",
    "city": "奈良市",
    "sname": "西御門町"
  },
  {
    "zip_code": 6308012,
    "pref": "奈良県",
    "city": "奈良市",
    "sname": "二条大路南"
  },
  {
    "zip_code": 6308002,
    "pref": "奈良県",
    "city": "奈良市",
    "sname": "二条町"
  },
  {
    "zip_code": 6310072,
    "pref": "奈良県",
    "city": "奈良市",
    "sname": "二名"
  },
  {
    "zip_code": 6310073,
    "pref": "奈良県",
    "city": "奈良市",
    "sname": "二名東町"
  },
  {
    "zip_code": 6310071,
    "pref": "奈良県",
    "city": "奈良市",
    "sname": "二名平野"
  },
  {
    "zip_code": 6310008,
    "pref": "奈良県",
    "city": "奈良市",
    "sname": "二名町"
  },
  {
    "zip_code": 6301235,
    "pref": "奈良県",
    "city": "奈良市",
    "sname": "丹生町"
  },
  {
    "zip_code": 6301244,
    "pref": "奈良県",
    "city": "奈良市",
    "sname": "忍辱山町"
  },
  {
    "zip_code": 6308318,
    "pref": "奈良県",
    "city": "奈良市",
    "sname": "納院町"
  },
  {
    "zip_code": 6308213,
    "pref": "奈良県",
    "city": "奈良市",
    "sname": "登大路町"
  },
  {
    "zip_code": 6308217,
    "pref": "奈良県",
    "city": "奈良市",
    "sname": "橋本町"
  },
  {
    "zip_code": 6308257,
    "pref": "奈良県",
    "city": "奈良市",
    "sname": "畑中町"
  },
  {
    "zip_code": 6308145,
    "pref": "奈良県",
    "city": "奈良市",
    "sname": "八条"
  },
  {
    "zip_code": 6308146,
    "pref": "奈良県",
    "city": "奈良市",
    "sname": "八条町"
  },
  {
    "zip_code": 6308414,
    "pref": "奈良県",
    "city": "奈良市",
    "sname": "鉢伏町"
  },
  {
    "zip_code": 6308266,
    "pref": "奈良県",
    "city": "奈良市",
    "sname": "花芝町"
  },
  {
    "zip_code": 6308328,
    "pref": "奈良県",
    "city": "奈良市",
    "sname": "花園町"
  },
  {
    "zip_code": 6308354,
    "pref": "奈良県",
    "city": "奈良市",
    "sname": "馬場町"
  },
  {
    "zip_code": 6308227,
    "pref": "奈良県",
    "city": "奈良市",
    "sname": "林小路町"
  },
  {
    "zip_code": 6320112,
    "pref": "奈良県",
    "city": "奈良市",
    "sname": "針ヶ別所町"
  },
  {
    "zip_code": 6320251,
    "pref": "奈良県",
    "city": "奈良市",
    "sname": "針町"
  },
  {
    "zip_code": 6308295,
    "pref": "奈良県",
    "city": "奈良市",
    "sname": "半田突抜町"
  },
  {
    "zip_code": 6308111,
    "pref": "奈良県",
    "city": "奈良市",
    "sname": "半田開町"
  },
  {
    "zip_code": 6308284,
    "pref": "奈良県",
    "city": "奈良市",
    "sname": "半田横町"
  },
  {
    "zip_code": 6308102,
    "pref": "奈良県",
    "city": "奈良市",
    "sname": "般若寺町"
  },
  {
    "zip_code": 6302173,
    "pref": "奈良県",
    "city": "奈良市",
    "sname": "日笠町"
  },
  {
    "zip_code": 6308286,
    "pref": "奈良県",
    "city": "奈良市",
    "sname": "東包永町"
  },
  {
    "zip_code": 6308327,
    "pref": "奈良県",
    "city": "奈良市",
    "sname": "東木辻町"
  },
  {
    "zip_code": 6308305,
    "pref": "奈良県",
    "city": "奈良市",
    "sname": "東紀寺町"
  },
  {
    "zip_code": 6308288,
    "pref": "奈良県",
    "city": "奈良市",
    "sname": "東笹鉾町"
  },
  {
    "zip_code": 6308272,
    "pref": "奈良県",
    "city": "奈良市",
    "sname": "東新在家町"
  },
  {
    "zip_code": 6308344,
    "pref": "奈良県",
    "city": "奈良市",
    "sname": "東城戸町"
  },
  {
    "zip_code": 6308362,
    "pref": "奈良県",
    "city": "奈良市",
    "sname": "東寺林町"
  },
  {
    "zip_code": 6310002,
    "pref": "奈良県",
    "city": "奈良市",
    "sname": "東登美ヶ丘"
  },
  {
    "zip_code": 6301125,
    "pref": "奈良県",
    "city": "奈良市",
    "sname": "東鳴川町"
  },
  {
    "zip_code": 6308203,
    "pref": "奈良県",
    "city": "奈良市",
    "sname": "東之阪町"
  },
  {
    "zip_code": 6308215,
    "pref": "奈良県",
    "city": "奈良市",
    "sname": "東向中町"
  },
  {
    "zip_code": 6308216,
    "pref": "奈良県",
    "city": "奈良市",
    "sname": "東向南町"
  },
  {
    "zip_code": 6308214,
    "pref": "奈良県",
    "city": "奈良市",
    "sname": "東向北町"
  },
  {
    "zip_code": 6310843,
    "pref": "奈良県",
    "city": "奈良市",
    "sname": "疋田町"
  },
  {
    "zip_code": 6308383,
    "pref": "奈良県",
    "city": "奈良市",
    "sname": "毘沙門町"
  },
  {
    "zip_code": 6308302,
    "pref": "奈良県",
    "city": "奈良市",
    "sname": "白毫寺町"
  },
  {
    "zip_code": 6310024,
    "pref": "奈良県",
    "city": "奈良市",
    "sname": "百楽園"
  },
  {
    "zip_code": 6301122,
    "pref": "奈良県",
    "city": "奈良市",
    "sname": "平清水町"
  },
  {
    "zip_code": 6310846,
    "pref": "奈良県",
    "city": "奈良市",
    "sname": "平松"
  },
  {
    "zip_code": 6301101,
    "pref": "奈良県",
    "city": "奈良市",
    "sname": "広岡町"
  },
  {
    "zip_code": 6308381,
    "pref": "奈良県",
    "city": "奈良市",
    "sname": "福智院町"
  },
  {
    "zip_code": 6308394,
    "pref": "奈良県",
    "city": "奈良市",
    "sname": "不審ヶ辻子町"
  },
  {
    "zip_code": 6310044,
    "pref": "奈良県",
    "city": "奈良市",
    "sname": "藤ノ木台"
  },
  {
    "zip_code": 6308421,
    "pref": "奈良県",
    "city": "奈良市",
    "sname": "藤原町"
  },
  {
    "zip_code": 6308258,
    "pref": "奈良県",
    "city": "奈良市",
    "sname": "船橋町"
  },
  {
    "zip_code": 6308424,
    "pref": "奈良県",
    "city": "奈良市",
    "sname": "古市町"
  },
  {
    "zip_code": 6301123,
    "pref": "奈良県",
    "city": "奈良市",
    "sname": "生琉里町"
  },
  {
    "zip_code": 6302153,
    "pref": "奈良県",
    "city": "奈良市",
    "sname": "別所町"
  },
  {
    "zip_code": 6301126,
    "pref": "奈良県",
    "city": "奈良市",
    "sname": "法用町"
  },
  {
    "zip_code": 6310845,
    "pref": "奈良県",
    "city": "奈良市",
    "sname": "宝来"
  },
  {
    "zip_code": 6310844,
    "pref": "奈良県",
    "city": "奈良市",
    "sname": "宝来町"
  },
  {
    "zip_code": 6308108,
    "pref": "奈良県",
    "city": "奈良市",
    "sname": "法蓮佐保山"
  },
  {
    "zip_code": 6308113,
    "pref": "奈良県",
    "city": "奈良市",
    "sname": "法蓮町"
  },
  {
    "zip_code": 6308001,
    "pref": "奈良県",
    "city": "奈良市",
    "sname": "法華寺町"
  },
  {
    "zip_code": 6308231,
    "pref": "奈良県",
    "city": "奈良市",
    "sname": "本子守町"
  },
  {
    "zip_code": 6308271,
    "pref": "奈良県",
    "city": "奈良市",
    "sname": "坊屋敷町"
  },
  {
    "zip_code": 6302168,
    "pref": "奈良県",
    "city": "奈良市",
    "sname": "菩提山町"
  },
  {
    "zip_code": 6308413,
    "pref": "奈良県",
    "city": "奈良市",
    "sname": "菩提山町"
  },
  {
    "zip_code": 6308402,
    "pref": "奈良県",
    "city": "奈良市",
    "sname": "米谷町"
  },
  {
    "zip_code": 6308268,
    "pref": "奈良県",
    "city": "奈良市",
    "sname": "大豆山町"
  },
  {
    "zip_code": 6308267,
    "pref": "奈良県",
    "city": "奈良市",
    "sname": "大豆山突抜町"
  },
  {
    "zip_code": 6310056,
    "pref": "奈良県",
    "city": "奈良市",
    "sname": "丸山"
  },
  {
    "zip_code": 6310803,
    "pref": "奈良県",
    "city": "奈良市",
    "sname": "山陵町"
  },
  {
    "zip_code": 6310061,
    "pref": "奈良県",
    "city": "奈良市",
    "sname": "三碓"
  },
  {
    "zip_code": 6310061,
    "pref": "奈良県",
    "city": "奈良市",
    "sname": "三碓町"
  },
  {
    "zip_code": 6308331,
    "pref": "奈良県",
    "city": "奈良市",
    "sname": "三棟町"
  },
  {
    "zip_code": 6308373,
    "pref": "奈良県",
    "city": "奈良市",
    "sname": "南市町"
  },
  {
    "zip_code": 6308355,
    "pref": "奈良県",
    "city": "奈良市",
    "sname": "南魚屋町"
  },
  {
    "zip_code": 6308304,
    "pref": "奈良県",
    "city": "奈良市",
    "sname": "南肘塚町"
  },
  {
    "zip_code": 6308303,
    "pref": "奈良県",
    "city": "奈良市",
    "sname": "南紀寺町"
  },
  {
    "zip_code": 6308141,
    "pref": "奈良県",
    "city": "奈良市",
    "sname": "南京終町"
  },
  {
    "zip_code": 6301112,
    "pref": "奈良県",
    "city": "奈良市",
    "sname": "南庄町"
  },
  {
    "zip_code": 6308356,
    "pref": "奈良県",
    "city": "奈良市",
    "sname": "南新町"
  },
  {
    "zip_code": 6308016,
    "pref": "奈良県",
    "city": "奈良市",
    "sname": "南新町"
  },
  {
    "zip_code": 6308341,
    "pref": "奈良県",
    "city": "奈良市",
    "sname": "南城戸町"
  },
  {
    "zip_code": 6302164,
    "pref": "奈良県",
    "city": "奈良市",
    "sname": "南田原町"
  },
  {
    "zip_code": 6308404,
    "pref": "奈良県",
    "city": "奈良市",
    "sname": "南椿尾町"
  },
  {
    "zip_code": 6310023,
    "pref": "奈良県",
    "city": "奈良市",
    "sname": "南登美ヶ丘"
  },
  {
    "zip_code": 6308347,
    "pref": "奈良県",
    "city": "奈良市",
    "sname": "南中町"
  },
  {
    "zip_code": 6308443,
    "pref": "奈良県",
    "city": "奈良市",
    "sname": "南永井町"
  },
  {
    "zip_code": 6308281,
    "pref": "奈良県",
    "city": "奈良市",
    "sname": "南半田中町"
  },
  {
    "zip_code": 6308277,
    "pref": "奈良県",
    "city": "奈良市",
    "sname": "南半田東町"
  },
  {
    "zip_code": 6308282,
    "pref": "奈良県",
    "city": "奈良市",
    "sname": "南半田西町"
  },
  {
    "zip_code": 6308342,
    "pref": "奈良県",
    "city": "奈良市",
    "sname": "南袋町"
  },
  {
    "zip_code": 6308351,
    "pref": "奈良県",
    "city": "奈良市",
    "sname": "南風呂町"
  },
  {
    "zip_code": 6302151,
    "pref": "奈良県",
    "city": "奈良市",
    "sname": "水間町"
  },
  {
    "zip_code": 6310074,
    "pref": "奈良県",
    "city": "奈良市",
    "sname": "三松"
  },
  {
    "zip_code": 6310075,
    "pref": "奈良県",
    "city": "奈良市",
    "sname": "三松ヶ丘"
  },
  {
    "zip_code": 6302175,
    "pref": "奈良県",
    "city": "奈良市",
    "sname": "茗荷町"
  },
  {
    "zip_code": 6308222,
    "pref": "奈良県",
    "city": "奈良市",
    "sname": "餅飯殿町"
  },
  {
    "zip_code": 6301231,
    "pref": "奈良県",
    "city": "奈良市",
    "sname": "柳生下町"
  },
  {
    "zip_code": 6301237,
    "pref": "奈良県",
    "city": "奈良市",
    "sname": "柳生町"
  },
  {
    "zip_code": 6308321,
    "pref": "奈良県",
    "city": "奈良市",
    "sname": "薬師堂町"
  },
  {
    "zip_code": 6308435,
    "pref": "奈良県",
    "city": "奈良市",
    "sname": "八島町"
  },
  {
    "zip_code": 6302166,
    "pref": "奈良県",
    "city": "奈良市",
    "sname": "矢田原町"
  },
  {
    "zip_code": 6308353,
    "pref": "奈良県",
    "city": "奈良市",
    "sname": "柳町"
  },
  {
    "zip_code": 6308434,
    "pref": "奈良県",
    "city": "奈良市",
    "sname": "山町"
  },
  {
    "zip_code": 6308283,
    "pref": "奈良県",
    "city": "奈良市",
    "sname": "油留木町"
  },
  {
    "zip_code": 6308422,
    "pref": "奈良県",
    "city": "奈良市",
    "sname": "横井"
  },
  {
    "zip_code": 6308422,
    "pref": "奈良県",
    "city": "奈良市",
    "sname": "横井町"
  },
  {
    "zip_code": 6302174,
    "pref": "奈良県",
    "city": "奈良市",
    "sname": "横田町"
  },
  {
    "zip_code": 6320244,
    "pref": "奈良県",
    "city": "奈良市",
    "sname": "来迎寺町"
  },
  {
    "zip_code": 6308043,
    "pref": "奈良県",
    "city": "奈良市",
    "sname": "六条"
  },
  {
    "zip_code": 6308045,
    "pref": "奈良県",
    "city": "奈良市",
    "sname": "六条緑町"
  },
  {
    "zip_code": 6308044,
    "pref": "奈良県",
    "city": "奈良市",
    "sname": "六条西"
  },
  {
    "zip_code": 6308041,
    "pref": "奈良県",
    "city": "奈良市",
    "sname": "六条町"
  },
  {
    "zip_code": 6308425,
    "pref": "奈良県",
    "city": "奈良市",
    "sname": "鹿野園町"
  },
  {
    "zip_code": 6310837,
    "pref": "奈良県",
    "city": "奈良市",
    "sname": "若葉台"
  },
  {
    "zip_code": 6308337,
    "pref": "奈良県",
    "city": "奈良市",
    "sname": "脇戸町"
  },
  {
    "zip_code": 6302176,
    "pref": "奈良県",
    "city": "奈良市",
    "sname": "和田町"
  },
  {
    "zip_code": 6350000,
    "pref": "奈良県",
    "city": "大和高田市",
    "sname": ""
  },
  {
    "zip_code": 6350053,
    "pref": "奈良県",
    "city": "大和高田市",
    "sname": "秋吉"
  },
  {
    "zip_code": 6350012,
    "pref": "奈良県",
    "city": "大和高田市",
    "sname": "曙町"
  },
  {
    "zip_code": 6350035,
    "pref": "奈良県",
    "city": "大和高田市",
    "sname": "旭南町"
  },
  {
    "zip_code": 6350036,
    "pref": "奈良県",
    "city": "大和高田市",
    "sname": "旭北町"
  },
  {
    "zip_code": 6350072,
    "pref": "奈良県",
    "city": "大和高田市",
    "sname": "有井"
  },
  {
    "zip_code": 6350021,
    "pref": "奈良県",
    "city": "大和高田市",
    "sname": "池尻"
  },
  {
    "zip_code": 6350077,
    "pref": "奈良県",
    "city": "大和高田市",
    "sname": "池田"
  },
  {
    "zip_code": 6350093,
    "pref": "奈良県",
    "city": "大和高田市",
    "sname": "礒野"
  },
  {
    "zip_code": 6350063,
    "pref": "奈良県",
    "city": "大和高田市",
    "sname": "礒野新町"
  },
  {
    "zip_code": 6350061,
    "pref": "奈良県",
    "city": "大和高田市",
    "sname": "礒野東町"
  },
  {
    "zip_code": 6350062,
    "pref": "奈良県",
    "city": "大和高田市",
    "sname": "礒野南町"
  },
  {
    "zip_code": 6350094,
    "pref": "奈良県",
    "city": "大和高田市",
    "sname": "礒野北町"
  },
  {
    "zip_code": 6350093,
    "pref": "奈良県",
    "city": "大和高田市",
    "sname": "礒野町"
  },
  {
    "zip_code": 6350074,
    "pref": "奈良県",
    "city": "大和高田市",
    "sname": "市場"
  },
  {
    "zip_code": 6350043,
    "pref": "奈良県",
    "city": "大和高田市",
    "sname": "出"
  },
  {
    "zip_code": 6350031,
    "pref": "奈良県",
    "city": "大和高田市",
    "sname": "今里"
  },
  {
    "zip_code": 6350032,
    "pref": "奈良県",
    "city": "大和高田市",
    "sname": "今里川合方"
  },
  {
    "zip_code": 6350031,
    "pref": "奈良県",
    "city": "大和高田市",
    "sname": "今里町"
  },
  {
    "zip_code": 6350087,
    "pref": "奈良県",
    "city": "大和高田市",
    "sname": "内本町"
  },
  {
    "zip_code": 6350083,
    "pref": "奈良県",
    "city": "大和高田市",
    "sname": "永和町"
  },
  {
    "zip_code": 6350076,
    "pref": "奈良県",
    "city": "大和高田市",
    "sname": "大谷"
  },
  {
    "zip_code": 6350095,
    "pref": "奈良県",
    "city": "大和高田市",
    "sname": "大中"
  },
  {
    "zip_code": 6350091,
    "pref": "奈良県",
    "city": "大和高田市",
    "sname": "大中東町"
  },
  {
    "zip_code": 6350092,
    "pref": "奈良県",
    "city": "大和高田市",
    "sname": "大中南町"
  },
  {
    "zip_code": 6350016,
    "pref": "奈良県",
    "city": "大和高田市",
    "sname": "大東町"
  },
  {
    "zip_code": 6350073,
    "pref": "奈良県",
    "city": "大和高田市",
    "sname": "岡崎"
  },
  {
    "zip_code": 6350052,
    "pref": "奈良県",
    "city": "大和高田市",
    "sname": "奥田"
  },
  {
    "zip_code": 6350042,
    "pref": "奈良県",
    "city": "大和高田市",
    "sname": "勝目"
  },
  {
    "zip_code": 6350067,
    "pref": "奈良県",
    "city": "大和高田市",
    "sname": "春日町"
  },
  {
    "zip_code": 6350085,
    "pref": "奈良県",
    "city": "大和高田市",
    "sname": "片塩町"
  },
  {
    "zip_code": 6350056,
    "pref": "奈良県",
    "city": "大和高田市",
    "sname": "甘田町"
  },
  {
    "zip_code": 6350084,
    "pref": "奈良県",
    "city": "大和高田市",
    "sname": "北片塩町"
  },
  {
    "zip_code": 6350097,
    "pref": "奈良県",
    "city": "大和高田市",
    "sname": "北本町"
  },
  {
    "zip_code": 6350044,
    "pref": "奈良県",
    "city": "大和高田市",
    "sname": "蔵之宮町"
  },
  {
    "zip_code": 6350011,
    "pref": "奈良県",
    "city": "大和高田市",
    "sname": "材木町"
  },
  {
    "zip_code": 6350015,
    "pref": "奈良県",
    "city": "大和高田市",
    "sname": "幸町"
  },
  {
    "zip_code": 6350064,
    "pref": "奈良県",
    "city": "大和高田市",
    "sname": "栄町"
  },
  {
    "zip_code": 6350014,
    "pref": "奈良県",
    "city": "大和高田市",
    "sname": "三和町"
  },
  {
    "zip_code": 6350017,
    "pref": "奈良県",
    "city": "大和高田市",
    "sname": "東雲町"
  },
  {
    "zip_code": 6350013,
    "pref": "奈良県",
    "city": "大和高田市",
    "sname": "昭和町"
  },
  {
    "zip_code": 6350025,
    "pref": "奈良県",
    "city": "大和高田市",
    "sname": "神楽"
  },
  {
    "zip_code": 6350026,
    "pref": "奈良県",
    "city": "大和高田市",
    "sname": "神楽"
  },
  {
    "zip_code": 6350055,
    "pref": "奈良県",
    "city": "大和高田市",
    "sname": "曽大根"
  },
  {
    "zip_code": 6350054,
    "pref": "奈良県",
    "city": "大和高田市",
    "sname": "曽大根"
  },
  {
    "zip_code": 6350041,
    "pref": "奈良県",
    "city": "大和高田市",
    "sname": "田井"
  },
  {
    "zip_code": 6350047,
    "pref": "奈良県",
    "city": "大和高田市",
    "sname": "田井新町"
  },
  {
    "zip_code": 6350081,
    "pref": "奈良県",
    "city": "大和高田市",
    "sname": "高砂町"
  },
  {
    "zip_code": 6350022,
    "pref": "奈良県",
    "city": "大和高田市",
    "sname": "高田"
  },
  {
    "zip_code": 6350071,
    "pref": "奈良県",
    "city": "大和高田市",
    "sname": "築山"
  },
  {
    "zip_code": 6350002,
    "pref": "奈良県",
    "city": "大和高田市",
    "sname": "土庫"
  },
  {
    "zip_code": 6350003,
    "pref": "奈良県",
    "city": "大和高田市",
    "sname": "土庫"
  },
  {
    "zip_code": 6350037,
    "pref": "奈良県",
    "city": "大和高田市",
    "sname": "中今里町"
  },
  {
    "zip_code": 6350045,
    "pref": "奈良県",
    "city": "大和高田市",
    "sname": "中三倉堂"
  },
  {
    "zip_code": 6350057,
    "pref": "奈良県",
    "city": "大和高田市",
    "sname": "南陽町"
  },
  {
    "zip_code": 6350058,
    "pref": "奈良県",
    "city": "大和高田市",
    "sname": "西坊城"
  },
  {
    "zip_code": 6350096,
    "pref": "奈良県",
    "city": "大和高田市",
    "sname": "西町"
  },
  {
    "zip_code": 6350046,
    "pref": "奈良県",
    "city": "大和高田市",
    "sname": "西三倉堂"
  },
  {
    "zip_code": 6350051,
    "pref": "奈良県",
    "city": "大和高田市",
    "sname": "根成柿"
  },
  {
    "zip_code": 6350075,
    "pref": "奈良県",
    "city": "大和高田市",
    "sname": "野口"
  },
  {
    "zip_code": 6350065,
    "pref": "奈良県",
    "city": "大和高田市",
    "sname": "東中"
  },
  {
    "zip_code": 6350066,
    "pref": "奈良県",
    "city": "大和高田市",
    "sname": "東中"
  },
  {
    "zip_code": 6350034,
    "pref": "奈良県",
    "city": "大和高田市",
    "sname": "東三倉堂町"
  },
  {
    "zip_code": 6350022,
    "pref": "奈良県",
    "city": "大和高田市",
    "sname": "日之出町"
  },
  {
    "zip_code": 6350023,
    "pref": "奈良県",
    "city": "大和高田市",
    "sname": "日之出東本町"
  },
  {
    "zip_code": 6350024,
    "pref": "奈良県",
    "city": "大和高田市",
    "sname": "日之出西本町"
  },
  {
    "zip_code": 6350004,
    "pref": "奈良県",
    "city": "大和高田市",
    "sname": "藤森"
  },
  {
    "zip_code": 6350082,
    "pref": "奈良県",
    "city": "大和高田市",
    "sname": "本郷町"
  },
  {
    "zip_code": 6350001,
    "pref": "奈良県",
    "city": "大和高田市",
    "sname": "松塚"
  },
  {
    "zip_code": 6350033,
    "pref": "奈良県",
    "city": "大和高田市",
    "sname": "南今里町"
  },
  {
    "zip_code": 6350086,
    "pref": "奈良県",
    "city": "大和高田市",
    "sname": "南本町"
  },
  {
    "zip_code": 6350059,
    "pref": "奈良県",
    "city": "大和高田市",
    "sname": "吉井"
  },
  {
    "zip_code": 6391100,
    "pref": "奈良県",
    "city": "大和郡山市",
    "sname": ""
  },
  {
    "zip_code": 6391013,
    "pref": "奈良県",
    "city": "大和郡山市",
    "sname": "朝日町"
  },
  {
    "zip_code": 6391032,
    "pref": "奈良県",
    "city": "大和郡山市",
    "sname": "池沢町"
  },
  {
    "zip_code": 6391027,
    "pref": "奈良県",
    "city": "大和郡山市",
    "sname": "池之内町"
  },
  {
    "zip_code": 6391111,
    "pref": "奈良県",
    "city": "大和郡山市",
    "sname": "石川町"
  },
  {
    "zip_code": 6391116,
    "pref": "奈良県",
    "city": "大和郡山市",
    "sname": "伊豆七条町"
  },
  {
    "zip_code": 6391056,
    "pref": "奈良県",
    "city": "大和郡山市",
    "sname": "泉原町"
  },
  {
    "zip_code": 6391113,
    "pref": "奈良県",
    "city": "大和郡山市",
    "sname": "櫟枝町"
  },
  {
    "zip_code": 6391104,
    "pref": "奈良県",
    "city": "大和郡山市",
    "sname": "井戸野町"
  },
  {
    "zip_code": 6391158,
    "pref": "奈良県",
    "city": "大和郡山市",
    "sname": "藺町"
  },
  {
    "zip_code": 6391155,
    "pref": "奈良県",
    "city": "大和郡山市",
    "sname": "今井町"
  },
  {
    "zip_code": 6391031,
    "pref": "奈良県",
    "city": "大和郡山市",
    "sname": "今国府町"
  },
  {
    "zip_code": 6391005,
    "pref": "奈良県",
    "city": "大和郡山市",
    "sname": "植槻町"
  },
  {
    "zip_code": 6391168,
    "pref": "奈良県",
    "city": "大和郡山市",
    "sname": "魚町"
  },
  {
    "zip_code": 6391019,
    "pref": "奈良県",
    "city": "大和郡山市",
    "sname": "永慶寺町"
  },
  {
    "zip_code": 6391106,
    "pref": "奈良県",
    "city": "大和郡山市",
    "sname": "大江町"
  },
  {
    "zip_code": 6391138,
    "pref": "奈良県",
    "city": "大和郡山市",
    "sname": "大宮町"
  },
  {
    "zip_code": 6391034,
    "pref": "奈良県",
    "city": "大和郡山市",
    "sname": "柏木町"
  },
  {
    "zip_code": 6391102,
    "pref": "奈良県",
    "city": "大和郡山市",
    "sname": "上三橋町"
  },
  {
    "zip_code": 6391018,
    "pref": "奈良県",
    "city": "大和郡山市",
    "sname": "冠山町"
  },
  {
    "zip_code": 6391161,
    "pref": "奈良県",
    "city": "大和郡山市",
    "sname": "観音寺町"
  },
  {
    "zip_code": 6391165,
    "pref": "奈良県",
    "city": "大和郡山市",
    "sname": "北鍛冶町"
  },
  {
    "zip_code": 6391160,
    "pref": "奈良県",
    "city": "大和郡山市",
    "sname": "北郡山町"
  },
  {
    "zip_code": 6391146,
    "pref": "奈良県",
    "city": "大和郡山市",
    "sname": "北大工町"
  },
  {
    "zip_code": 6391025,
    "pref": "奈良県",
    "city": "大和郡山市",
    "sname": "北西町"
  },
  {
    "zip_code": 6391001,
    "pref": "奈良県",
    "city": "大和郡山市",
    "sname": "九条町"
  },
  {
    "zip_code": 6391002,
    "pref": "奈良県",
    "city": "大和郡山市",
    "sname": "九条平野町"
  },
  {
    "zip_code": 6391147,
    "pref": "奈良県",
    "city": "大和郡山市",
    "sname": "車町"
  },
  {
    "zip_code": 6391042,
    "pref": "奈良県",
    "city": "大和郡山市",
    "sname": "小泉町"
  },
  {
    "zip_code": 6391044,
    "pref": "奈良県",
    "city": "大和郡山市",
    "sname": "小泉町東"
  },
  {
    "zip_code": 6391026,
    "pref": "奈良県",
    "city": "大和郡山市",
    "sname": "小林町"
  },
  {
    "zip_code": 6391045,
    "pref": "奈良県",
    "city": "大和郡山市",
    "sname": "小林町西"
  },
  {
    "zip_code": 6391023,
    "pref": "奈良県",
    "city": "大和郡山市",
    "sname": "小南町"
  },
  {
    "zip_code": 6391148,
    "pref": "奈良県",
    "city": "大和郡山市",
    "sname": "紺屋町"
  },
  {
    "zip_code": 6391156,
    "pref": "奈良県",
    "city": "大和郡山市",
    "sname": "堺町"
  },
  {
    "zip_code": 6391141,
    "pref": "奈良県",
    "city": "大和郡山市",
    "sname": "材木町"
  },
  {
    "zip_code": 6391150,
    "pref": "奈良県",
    "city": "大和郡山市",
    "sname": "雑穀町"
  },
  {
    "zip_code": 6391169,
    "pref": "奈良県",
    "city": "大和郡山市",
    "sname": "塩町"
  },
  {
    "zip_code": 6391039,
    "pref": "奈良県",
    "city": "大和郡山市",
    "sname": "椎木町"
  },
  {
    "zip_code": 6391101,
    "pref": "奈良県",
    "city": "大和郡山市",
    "sname": "下三橋町"
  },
  {
    "zip_code": 6391051,
    "pref": "奈良県",
    "city": "大和郡山市",
    "sname": "城町"
  },
  {
    "zip_code": 6391011,
    "pref": "奈良県",
    "city": "大和郡山市",
    "sname": "城内町"
  },
  {
    "zip_code": 6391016,
    "pref": "奈良県",
    "city": "大和郡山市",
    "sname": "城南町"
  },
  {
    "zip_code": 6391004,
    "pref": "奈良県",
    "city": "大和郡山市",
    "sname": "城北町"
  },
  {
    "zip_code": 6391033,
    "pref": "奈良県",
    "city": "大和郡山市",
    "sname": "昭和町"
  },
  {
    "zip_code": 6391112,
    "pref": "奈良県",
    "city": "大和郡山市",
    "sname": "白土町"
  },
  {
    "zip_code": 6391008,
    "pref": "奈良県",
    "city": "大和郡山市",
    "sname": "城の台町"
  },
  {
    "zip_code": 6391012,
    "pref": "奈良県",
    "city": "大和郡山市",
    "sname": "城見町"
  },
  {
    "zip_code": 6391143,
    "pref": "奈良県",
    "city": "大和郡山市",
    "sname": "新紺屋町"
  },
  {
    "zip_code": 6391114,
    "pref": "奈良県",
    "city": "大和郡山市",
    "sname": "新庄町"
  },
  {
    "zip_code": 6391157,
    "pref": "奈良県",
    "city": "大和郡山市",
    "sname": "新中町"
  },
  {
    "zip_code": 6391054,
    "pref": "奈良県",
    "city": "大和郡山市",
    "sname": "新町"
  },
  {
    "zip_code": 6391121,
    "pref": "奈良県",
    "city": "大和郡山市",
    "sname": "杉町"
  },
  {
    "zip_code": 6391053,
    "pref": "奈良県",
    "city": "大和郡山市",
    "sname": "千日町"
  },
  {
    "zip_code": 6391003,
    "pref": "奈良県",
    "city": "大和郡山市",
    "sname": "代官町"
  },
  {
    "zip_code": 6391133,
    "pref": "奈良県",
    "city": "大和郡山市",
    "sname": "高田口町"
  },
  {
    "zip_code": 6391132,
    "pref": "奈良県",
    "city": "大和郡山市",
    "sname": "高田町"
  },
  {
    "zip_code": 6391028,
    "pref": "奈良県",
    "city": "大和郡山市",
    "sname": "田中町"
  },
  {
    "zip_code": 6391122,
    "pref": "奈良県",
    "city": "大和郡山市",
    "sname": "丹後庄町"
  },
  {
    "zip_code": 6391152,
    "pref": "奈良県",
    "city": "大和郡山市",
    "sname": "茶町"
  },
  {
    "zip_code": 6391127,
    "pref": "奈良県",
    "city": "大和郡山市",
    "sname": "長安寺町"
  },
  {
    "zip_code": 6391123,
    "pref": "奈良県",
    "city": "大和郡山市",
    "sname": "筒井町"
  },
  {
    "zip_code": 6391135,
    "pref": "奈良県",
    "city": "大和郡山市",
    "sname": "天井町"
  },
  {
    "zip_code": 6391006,
    "pref": "奈良県",
    "city": "大和郡山市",
    "sname": "天理町"
  },
  {
    "zip_code": 6391144,
    "pref": "奈良県",
    "city": "大和郡山市",
    "sname": "洞泉寺町"
  },
  {
    "zip_code": 6391149,
    "pref": "奈良県",
    "city": "大和郡山市",
    "sname": "豆腐町"
  },
  {
    "zip_code": 6391052,
    "pref": "奈良県",
    "city": "大和郡山市",
    "sname": "外川町"
  },
  {
    "zip_code": 6391022,
    "pref": "奈良県",
    "city": "大和郡山市",
    "sname": "豊浦町"
  },
  {
    "zip_code": 6391166,
    "pref": "奈良県",
    "city": "大和郡山市",
    "sname": "中鍛冶町"
  },
  {
    "zip_code": 6391118,
    "pref": "奈良県",
    "city": "大和郡山市",
    "sname": "中城町"
  },
  {
    "zip_code": 6391159,
    "pref": "奈良県",
    "city": "大和郡山市",
    "sname": "奈良町"
  },
  {
    "zip_code": 6391021,
    "pref": "奈良県",
    "city": "大和郡山市",
    "sname": "新木町"
  },
  {
    "zip_code": 6391014,
    "pref": "奈良県",
    "city": "大和郡山市",
    "sname": "西岡町"
  },
  {
    "zip_code": 6391164,
    "pref": "奈良県",
    "city": "大和郡山市",
    "sname": "西観音寺町"
  },
  {
    "zip_code": 6391043,
    "pref": "奈良県",
    "city": "大和郡山市",
    "sname": "西田中町"
  },
  {
    "zip_code": 6391163,
    "pref": "奈良県",
    "city": "大和郡山市",
    "sname": "西奈良口町"
  },
  {
    "zip_code": 6391153,
    "pref": "奈良県",
    "city": "大和郡山市",
    "sname": "西野垣内町"
  },
  {
    "zip_code": 6391038,
    "pref": "奈良県",
    "city": "大和郡山市",
    "sname": "西町"
  },
  {
    "zip_code": 6391036,
    "pref": "奈良県",
    "city": "大和郡山市",
    "sname": "額田部寺町"
  },
  {
    "zip_code": 6391035,
    "pref": "奈良県",
    "city": "大和郡山市",
    "sname": "額田部南町"
  },
  {
    "zip_code": 6391037,
    "pref": "奈良県",
    "city": "大和郡山市",
    "sname": "額田部北町"
  },
  {
    "zip_code": 6391131,
    "pref": "奈良県",
    "city": "大和郡山市",
    "sname": "野垣内町"
  },
  {
    "zip_code": 6391125,
    "pref": "奈良県",
    "city": "大和郡山市",
    "sname": "八条町"
  },
  {
    "zip_code": 6391119,
    "pref": "奈良県",
    "city": "大和郡山市",
    "sname": "発志院町"
  },
  {
    "zip_code": 6391105,
    "pref": "奈良県",
    "city": "大和郡山市",
    "sname": "番匠田中町"
  },
  {
    "zip_code": 6391117,
    "pref": "奈良県",
    "city": "大和郡山市",
    "sname": "番条町"
  },
  {
    "zip_code": 6391108,
    "pref": "奈良県",
    "city": "大和郡山市",
    "sname": "稗田町"
  },
  {
    "zip_code": 6391137,
    "pref": "奈良県",
    "city": "大和郡山市",
    "sname": "東岡町"
  },
  {
    "zip_code": 6391162,
    "pref": "奈良県",
    "city": "大和郡山市",
    "sname": "東奈良口町"
  },
  {
    "zip_code": 6391017,
    "pref": "奈良県",
    "city": "大和郡山市",
    "sname": "藤原町"
  },
  {
    "zip_code": 6391136,
    "pref": "奈良県",
    "city": "大和郡山市",
    "sname": "本庄町"
  },
  {
    "zip_code": 6391151,
    "pref": "奈良県",
    "city": "大和郡山市",
    "sname": "本町"
  },
  {
    "zip_code": 6391124,
    "pref": "奈良県",
    "city": "大和郡山市",
    "sname": "馬司町"
  },
  {
    "zip_code": 6391041,
    "pref": "奈良県",
    "city": "大和郡山市",
    "sname": "満願寺町"
  },
  {
    "zip_code": 6391024,
    "pref": "奈良県",
    "city": "大和郡山市",
    "sname": "南井町"
  },
  {
    "zip_code": 6391167,
    "pref": "奈良県",
    "city": "大和郡山市",
    "sname": "南鍛冶町"
  },
  {
    "zip_code": 6391007,
    "pref": "奈良県",
    "city": "大和郡山市",
    "sname": "南郡山町"
  },
  {
    "zip_code": 6391145,
    "pref": "奈良県",
    "city": "大和郡山市",
    "sname": "南大工町"
  },
  {
    "zip_code": 6391103,
    "pref": "奈良県",
    "city": "大和郡山市",
    "sname": "美濃庄町"
  },
  {
    "zip_code": 6391015,
    "pref": "奈良県",
    "city": "大和郡山市",
    "sname": "箕山町"
  },
  {
    "zip_code": 6391126,
    "pref": "奈良県",
    "city": "大和郡山市",
    "sname": "宮堂町"
  },
  {
    "zip_code": 6391058,
    "pref": "奈良県",
    "city": "大和郡山市",
    "sname": "矢田町"
  },
  {
    "zip_code": 6391142,
    "pref": "奈良県",
    "city": "大和郡山市",
    "sname": "矢田町通"
  },
  {
    "zip_code": 6391055,
    "pref": "奈良県",
    "city": "大和郡山市",
    "sname": "矢田山町"
  },
  {
    "zip_code": 6391134,
    "pref": "奈良県",
    "city": "大和郡山市",
    "sname": "柳"
  },
  {
    "zip_code": 6391134,
    "pref": "奈良県",
    "city": "大和郡山市",
    "sname": "柳町"
  },
  {
    "zip_code": 6391057,
    "pref": "奈良県",
    "city": "大和郡山市",
    "sname": "山田町"
  },
  {
    "zip_code": 6391115,
    "pref": "奈良県",
    "city": "大和郡山市",
    "sname": "横田町"
  },
  {
    "zip_code": 6391107,
    "pref": "奈良県",
    "city": "大和郡山市",
    "sname": "若槻町"
  },
  {
    "zip_code": 6391154,
    "pref": "奈良県",
    "city": "大和郡山市",
    "sname": "綿町"
  },
  {
    "zip_code": 6320000,
    "pref": "奈良県",
    "city": "天理市",
    "sname": ""
  },
  {
    "zip_code": 6320068,
    "pref": "奈良県",
    "city": "天理市",
    "sname": "合場町"
  },
  {
    "zip_code": 6320082,
    "pref": "奈良県",
    "city": "天理市",
    "sname": "荒蒔町"
  },
  {
    "zip_code": 6320011,
    "pref": "奈良県",
    "city": "天理市",
    "sname": "石上町"
  },
  {
    "zip_code": 6320004,
    "pref": "奈良県",
    "city": "天理市",
    "sname": "櫟本町"
  },
  {
    "zip_code": 6320083,
    "pref": "奈良県",
    "city": "天理市",
    "sname": "稲葉町"
  },
  {
    "zip_code": 6320076,
    "pref": "奈良県",
    "city": "天理市",
    "sname": "岩室町"
  },
  {
    "zip_code": 6320003,
    "pref": "奈良県",
    "city": "天理市",
    "sname": "岩屋町"
  },
  {
    "zip_code": 6320031,
    "pref": "奈良県",
    "city": "天理市",
    "sname": "内馬場町"
  },
  {
    "zip_code": 6320086,
    "pref": "奈良県",
    "city": "天理市",
    "sname": "庵治町"
  },
  {
    "zip_code": 6320047,
    "pref": "奈良県",
    "city": "天理市",
    "sname": "乙木町"
  },
  {
    "zip_code": 6320064,
    "pref": "奈良県",
    "city": "天理市",
    "sname": "海知町"
  },
  {
    "zip_code": 6320084,
    "pref": "奈良県",
    "city": "天理市",
    "sname": "嘉幡町"
  },
  {
    "zip_code": 6320024,
    "pref": "奈良県",
    "city": "天理市",
    "sname": "上仁興町"
  },
  {
    "zip_code": 6320042,
    "pref": "奈良県",
    "city": "天理市",
    "sname": "萱生町"
  },
  {
    "zip_code": 6320016,
    "pref": "奈良県",
    "city": "天理市",
    "sname": "川原城町"
  },
  {
    "zip_code": 6320091,
    "pref": "奈良県",
    "city": "天理市",
    "sname": "上総町"
  },
  {
    "zip_code": 6320056,
    "pref": "奈良県",
    "city": "天理市",
    "sname": "岸田町"
  },
  {
    "zip_code": 6320095,
    "pref": "奈良県",
    "city": "天理市",
    "sname": "喜殿町"
  },
  {
    "zip_code": 6320069,
    "pref": "奈良県",
    "city": "天理市",
    "sname": "九条町"
  },
  {
    "zip_code": 6320006,
    "pref": "奈良県",
    "city": "天理市",
    "sname": "蔵之庄町"
  },
  {
    "zip_code": 6320036,
    "pref": "奈良県",
    "city": "天理市",
    "sname": "御経野町"
  },
  {
    "zip_code": 6320085,
    "pref": "奈良県",
    "city": "天理市",
    "sname": "小島町"
  },
  {
    "zip_code": 6320092,
    "pref": "奈良県",
    "city": "天理市",
    "sname": "小田中町"
  },
  {
    "zip_code": 6320093,
    "pref": "奈良県",
    "city": "天理市",
    "sname": "指柳町"
  },
  {
    "zip_code": 6320043,
    "pref": "奈良県",
    "city": "天理市",
    "sname": "佐保庄町"
  },
  {
    "zip_code": 6320046,
    "pref": "奈良県",
    "city": "天理市",
    "sname": "三昧田町"
  },
  {
    "zip_code": 6320053,
    "pref": "奈良県",
    "city": "天理市",
    "sname": "渋谷町"
  },
  {
    "zip_code": 6320023,
    "pref": "奈良県",
    "city": "天理市",
    "sname": "下仁興町"
  },
  {
    "zip_code": 6320058,
    "pref": "奈良県",
    "city": "天理市",
    "sname": "成願寺町"
  },
  {
    "zip_code": 6320096,
    "pref": "奈良県",
    "city": "天理市",
    "sname": "小路町"
  },
  {
    "zip_code": 6320078,
    "pref": "奈良県",
    "city": "天理市",
    "sname": "杉本町"
  },
  {
    "zip_code": 6320094,
    "pref": "奈良県",
    "city": "天理市",
    "sname": "前栽町"
  },
  {
    "zip_code": 6320048,
    "pref": "奈良県",
    "city": "天理市",
    "sname": "園原町"
  },
  {
    "zip_code": 6320032,
    "pref": "奈良県",
    "city": "天理市",
    "sname": "杣之内町"
  },
  {
    "zip_code": 6320071,
    "pref": "奈良県",
    "city": "天理市",
    "sname": "田井庄町"
  },
  {
    "zip_code": 6320021,
    "pref": "奈良県",
    "city": "天理市",
    "sname": "滝本町"
  },
  {
    "zip_code": 6320041,
    "pref": "奈良県",
    "city": "天理市",
    "sname": "竹之内町"
  },
  {
    "zip_code": 6320073,
    "pref": "奈良県",
    "city": "天理市",
    "sname": "田町"
  },
  {
    "zip_code": 6320017,
    "pref": "奈良県",
    "city": "天理市",
    "sname": "田部町"
  },
  {
    "zip_code": 6320034,
    "pref": "奈良県",
    "city": "天理市",
    "sname": "丹波市町"
  },
  {
    "zip_code": 6320022,
    "pref": "奈良県",
    "city": "天理市",
    "sname": "苣原町"
  },
  {
    "zip_code": 6320055,
    "pref": "奈良県",
    "city": "天理市",
    "sname": "遠田町"
  },
  {
    "zip_code": 6320072,
    "pref": "奈良県",
    "city": "天理市",
    "sname": "富堂町"
  },
  {
    "zip_code": 6320013,
    "pref": "奈良県",
    "city": "天理市",
    "sname": "豊井町"
  },
  {
    "zip_code": 6320012,
    "pref": "奈良県",
    "city": "天理市",
    "sname": "豊田町"
  },
  {
    "zip_code": 6320097,
    "pref": "奈良県",
    "city": "天理市",
    "sname": "中町"
  },
  {
    "zip_code": 6320001,
    "pref": "奈良県",
    "city": "天理市",
    "sname": "中之庄町"
  },
  {
    "zip_code": 6320051,
    "pref": "奈良県",
    "city": "天理市",
    "sname": "中山町"
  },
  {
    "zip_code": 6320123,
    "pref": "奈良県",
    "city": "天理市",
    "sname": "長滝町"
  },
  {
    "zip_code": 6320061,
    "pref": "奈良県",
    "city": "天理市",
    "sname": "永原町"
  },
  {
    "zip_code": 6320062,
    "pref": "奈良県",
    "city": "天理市",
    "sname": "長柄町"
  },
  {
    "zip_code": 6320005,
    "pref": "奈良県",
    "city": "天理市",
    "sname": "楢町"
  },
  {
    "zip_code": 6320057,
    "pref": "奈良県",
    "city": "天理市",
    "sname": "新泉町"
  },
  {
    "zip_code": 6320081,
    "pref": "奈良県",
    "city": "天理市",
    "sname": "二階堂上ノ庄町"
  },
  {
    "zip_code": 6320087,
    "pref": "奈良県",
    "city": "天理市",
    "sname": "二階堂南菅田町"
  },
  {
    "zip_code": 6320088,
    "pref": "奈良県",
    "city": "天理市",
    "sname": "二階堂北菅田町"
  },
  {
    "zip_code": 6320075,
    "pref": "奈良県",
    "city": "天理市",
    "sname": "西井戸堂町"
  },
  {
    "zip_code": 6320063,
    "pref": "奈良県",
    "city": "天理市",
    "sname": "西長柄町"
  },
  {
    "zip_code": 6320054,
    "pref": "奈良県",
    "city": "天理市",
    "sname": "檜垣町"
  },
  {
    "zip_code": 6320074,
    "pref": "奈良県",
    "city": "天理市",
    "sname": "東井戸堂町"
  },
  {
    "zip_code": 6320044,
    "pref": "奈良県",
    "city": "天理市",
    "sname": "兵庫町"
  },
  {
    "zip_code": 6320066,
    "pref": "奈良県",
    "city": "天理市",
    "sname": "備前町"
  },
  {
    "zip_code": 6320077,
    "pref": "奈良県",
    "city": "天理市",
    "sname": "平等坊町"
  },
  {
    "zip_code": 6320122,
    "pref": "奈良県",
    "city": "天理市",
    "sname": "福住町"
  },
  {
    "zip_code": 6320045,
    "pref": "奈良県",
    "city": "天理市",
    "sname": "福知堂町"
  },
  {
    "zip_code": 6320025,
    "pref": "奈良県",
    "city": "天理市",
    "sname": "藤井町"
  },
  {
    "zip_code": 6320014,
    "pref": "奈良県",
    "city": "天理市",
    "sname": "布留町"
  },
  {
    "zip_code": 6320018,
    "pref": "奈良県",
    "city": "天理市",
    "sname": "別所町"
  },
  {
    "zip_code": 6320033,
    "pref": "奈良県",
    "city": "天理市",
    "sname": "勾田町"
  },
  {
    "zip_code": 6320015,
    "pref": "奈良県",
    "city": "天理市",
    "sname": "三島町"
  },
  {
    "zip_code": 6320098,
    "pref": "奈良県",
    "city": "天理市",
    "sname": "南六条町"
  },
  {
    "zip_code": 6320065,
    "pref": "奈良県",
    "city": "天理市",
    "sname": "武蔵町"
  },
  {
    "zip_code": 6320035,
    "pref": "奈良県",
    "city": "天理市",
    "sname": "守目堂町"
  },
  {
    "zip_code": 6320007,
    "pref": "奈良県",
    "city": "天理市",
    "sname": "森本町"
  },
  {
    "zip_code": 6320052,
    "pref": "奈良県",
    "city": "天理市",
    "sname": "柳本町"
  },
  {
    "zip_code": 6320121,
    "pref": "奈良県",
    "city": "天理市",
    "sname": "山田町"
  },
  {
    "zip_code": 6320067,
    "pref": "奈良県",
    "city": "天理市",
    "sname": "吉田町"
  },
  {
    "zip_code": 6320002,
    "pref": "奈良県",
    "city": "天理市",
    "sname": "和爾町"
  },
  {
    "zip_code": 6340000,
    "pref": "奈良県",
    "city": "橿原市",
    "sname": ""
  },
  {
    "zip_code": 6340045,
    "pref": "奈良県",
    "city": "橿原市",
    "sname": "石川町"
  },
  {
    "zip_code": 6340014,
    "pref": "奈良県",
    "city": "橿原市",
    "sname": "石原田町"
  },
  {
    "zip_code": 6340812,
    "pref": "奈良県",
    "city": "橿原市",
    "sname": "今井町"
  },
  {
    "zip_code": 6340833,
    "pref": "奈良県",
    "city": "橿原市",
    "sname": "忌部町"
  },
  {
    "zip_code": 6340834,
    "pref": "奈良県",
    "city": "橿原市",
    "sname": "雲梯町"
  },
  {
    "zip_code": 6340065,
    "pref": "奈良県",
    "city": "橿原市",
    "sname": "畝傍町"
  },
  {
    "zip_code": 6340046,
    "pref": "奈良県",
    "city": "橿原市",
    "sname": "栄和町"
  },
  {
    "zip_code": 6340075,
    "pref": "奈良県",
    "city": "橿原市",
    "sname": "小房町"
  },
  {
    "zip_code": 6340846,
    "pref": "奈良県",
    "city": "橿原市",
    "sname": "小槻町"
  },
  {
    "zip_code": 6340841,
    "pref": "奈良県",
    "city": "橿原市",
    "sname": "大垣町"
  },
  {
    "zip_code": 6340044,
    "pref": "奈良県",
    "city": "橿原市",
    "sname": "大軽町"
  },
  {
    "zip_code": 6340061,
    "pref": "奈良県",
    "city": "橿原市",
    "sname": "大久保町"
  },
  {
    "zip_code": 6340815,
    "pref": "奈良県",
    "city": "橿原市",
    "sname": "大谷町"
  },
  {
    "zip_code": 6340001,
    "pref": "奈良県",
    "city": "橿原市",
    "sname": "太田市町"
  },
  {
    "zip_code": 6340023,
    "pref": "奈良県",
    "city": "橿原市",
    "sname": "戒外町"
  },
  {
    "zip_code": 6340012,
    "pref": "奈良県",
    "city": "橿原市",
    "sname": "膳夫町"
  },
  {
    "zip_code": 6340824,
    "pref": "奈良県",
    "city": "橿原市",
    "sname": "一町"
  },
  {
    "zip_code": 6340031,
    "pref": "奈良県",
    "city": "橿原市",
    "sname": "上飛騨町"
  },
  {
    "zip_code": 6340826,
    "pref": "奈良県",
    "city": "橿原市",
    "sname": "川西町"
  },
  {
    "zip_code": 6340825,
    "pref": "奈良県",
    "city": "橿原市",
    "sname": "観音寺町"
  },
  {
    "zip_code": 6340823,
    "pref": "奈良県",
    "city": "橿原市",
    "sname": "北越智町"
  },
  {
    "zip_code": 6340843,
    "pref": "奈良県",
    "city": "橿原市",
    "sname": "北妙法寺町"
  },
  {
    "zip_code": 6340005,
    "pref": "奈良県",
    "city": "橿原市",
    "sname": "北八木町"
  },
  {
    "zip_code": 6340033,
    "pref": "奈良県",
    "city": "橿原市",
    "sname": "城殿町"
  },
  {
    "zip_code": 6340025,
    "pref": "奈良県",
    "city": "橿原市",
    "sname": "木之本町"
  },
  {
    "zip_code": 6340004,
    "pref": "奈良県",
    "city": "橿原市",
    "sname": "木原町"
  },
  {
    "zip_code": 6340007,
    "pref": "奈良県",
    "city": "橿原市",
    "sname": "葛本町"
  },
  {
    "zip_code": 6340063,
    "pref": "奈良県",
    "city": "橿原市",
    "sname": "久米町"
  },
  {
    "zip_code": 6340827,
    "pref": "奈良県",
    "city": "橿原市",
    "sname": "光陽町"
  },
  {
    "zip_code": 6340832,
    "pref": "奈良県",
    "city": "橿原市",
    "sname": "五井町"
  },
  {
    "zip_code": 6340043,
    "pref": "奈良県",
    "city": "橿原市",
    "sname": "五条野町"
  },
  {
    "zip_code": 6340062,
    "pref": "奈良県",
    "city": "橿原市",
    "sname": "御坊町"
  },
  {
    "zip_code": 6340813,
    "pref": "奈良県",
    "city": "橿原市",
    "sname": "四条町"
  },
  {
    "zip_code": 6340074,
    "pref": "奈良県",
    "city": "橿原市",
    "sname": "四分町"
  },
  {
    "zip_code": 6340029,
    "pref": "奈良県",
    "city": "橿原市",
    "sname": "下八釣町"
  },
  {
    "zip_code": 6340811,
    "pref": "奈良県",
    "city": "橿原市",
    "sname": "小綱町"
  },
  {
    "zip_code": 6340042,
    "pref": "奈良県",
    "city": "橿原市",
    "sname": "菖蒲町"
  },
  {
    "zip_code": 6340803,
    "pref": "奈良県",
    "city": "橿原市",
    "sname": "上品寺町"
  },
  {
    "zip_code": 6340051,
    "pref": "奈良県",
    "city": "橿原市",
    "sname": "白橿町"
  },
  {
    "zip_code": 6340006,
    "pref": "奈良県",
    "city": "橿原市",
    "sname": "新賀町"
  },
  {
    "zip_code": 6340836,
    "pref": "奈良県",
    "city": "橿原市",
    "sname": "新堂町"
  },
  {
    "zip_code": 6340805,
    "pref": "奈良県",
    "city": "橿原市",
    "sname": "地黄町"
  },
  {
    "zip_code": 6340816,
    "pref": "奈良県",
    "city": "橿原市",
    "sname": "慈明寺町"
  },
  {
    "zip_code": 6340831,
    "pref": "奈良県",
    "city": "橿原市",
    "sname": "曽我町"
  },
  {
    "zip_code": 6340072,
    "pref": "奈良県",
    "city": "橿原市",
    "sname": "醍醐町"
  },
  {
    "zip_code": 6340027,
    "pref": "奈良県",
    "city": "橿原市",
    "sname": "高殿町"
  },
  {
    "zip_code": 6340032,
    "pref": "奈良県",
    "city": "橿原市",
    "sname": "田中町"
  },
  {
    "zip_code": 6340844,
    "pref": "奈良県",
    "city": "橿原市",
    "sname": "土橋町"
  },
  {
    "zip_code": 6340013,
    "pref": "奈良県",
    "city": "橿原市",
    "sname": "出合町"
  },
  {
    "zip_code": 6340011,
    "pref": "奈良県",
    "city": "橿原市",
    "sname": "出垣内町"
  },
  {
    "zip_code": 6340817,
    "pref": "奈良県",
    "city": "橿原市",
    "sname": "寺田町"
  },
  {
    "zip_code": 6340008,
    "pref": "奈良県",
    "city": "橿原市",
    "sname": "十市町"
  },
  {
    "zip_code": 6340003,
    "pref": "奈良県",
    "city": "橿原市",
    "sname": "常盤町"
  },
  {
    "zip_code": 6340842,
    "pref": "奈良県",
    "city": "橿原市",
    "sname": "豊田町"
  },
  {
    "zip_code": 6340822,
    "pref": "奈良県",
    "city": "橿原市",
    "sname": "鳥屋町"
  },
  {
    "zip_code": 6340804,
    "pref": "奈良県",
    "city": "橿原市",
    "sname": "内膳町"
  },
  {
    "zip_code": 6340845,
    "pref": "奈良県",
    "city": "橿原市",
    "sname": "中曽司町"
  },
  {
    "zip_code": 6340009,
    "pref": "奈良県",
    "city": "橿原市",
    "sname": "中町"
  },
  {
    "zip_code": 6340073,
    "pref": "奈良県",
    "city": "橿原市",
    "sname": "縄手町"
  },
  {
    "zip_code": 6340821,
    "pref": "奈良県",
    "city": "橿原市",
    "sname": "西池尻町"
  },
  {
    "zip_code": 6340801,
    "pref": "奈良県",
    "city": "橿原市",
    "sname": "西新堂町"
  },
  {
    "zip_code": 6340802,
    "pref": "奈良県",
    "city": "橿原市",
    "sname": "新口町"
  },
  {
    "zip_code": 6340021,
    "pref": "奈良県",
    "city": "橿原市",
    "sname": "東池尻町"
  },
  {
    "zip_code": 6340002,
    "pref": "奈良県",
    "city": "橿原市",
    "sname": "東竹田町"
  },
  {
    "zip_code": 6340835,
    "pref": "奈良県",
    "city": "橿原市",
    "sname": "東坊城町"
  },
  {
    "zip_code": 6340847,
    "pref": "奈良県",
    "city": "橿原市",
    "sname": "飯高町"
  },
  {
    "zip_code": 6340034,
    "pref": "奈良県",
    "city": "橿原市",
    "sname": "飛騨町"
  },
  {
    "zip_code": 6340076,
    "pref": "奈良県",
    "city": "橿原市",
    "sname": "兵部町"
  },
  {
    "zip_code": 6340828,
    "pref": "奈良県",
    "city": "橿原市",
    "sname": "古川町"
  },
  {
    "zip_code": 6340026,
    "pref": "奈良県",
    "city": "橿原市",
    "sname": "別所町"
  },
  {
    "zip_code": 6340028,
    "pref": "奈良県",
    "city": "橿原市",
    "sname": "法花寺町"
  },
  {
    "zip_code": 6340837,
    "pref": "奈良県",
    "city": "橿原市",
    "sname": "曲川町"
  },
  {
    "zip_code": 6340064,
    "pref": "奈良県",
    "city": "橿原市",
    "sname": "見瀬町"
  },
  {
    "zip_code": 6340022,
    "pref": "奈良県",
    "city": "橿原市",
    "sname": "南浦町"
  },
  {
    "zip_code": 6340052,
    "pref": "奈良県",
    "city": "橿原市",
    "sname": "南妙法寺町"
  },
  {
    "zip_code": 6340077,
    "pref": "奈良県",
    "city": "橿原市",
    "sname": "南八木町"
  },
  {
    "zip_code": 6340024,
    "pref": "奈良県",
    "city": "橿原市",
    "sname": "南山町"
  },
  {
    "zip_code": 6340078,
    "pref": "奈良県",
    "city": "橿原市",
    "sname": "八木町"
  },
  {
    "zip_code": 6340071,
    "pref": "奈良県",
    "city": "橿原市",
    "sname": "山之坊町"
  },
  {
    "zip_code": 6340814,
    "pref": "奈良県",
    "city": "橿原市",
    "sname": "山本町"
  },
  {
    "zip_code": 6340829,
    "pref": "奈良県",
    "city": "橿原市",
    "sname": "吉田町"
  },
  {
    "zip_code": 6340041,
    "pref": "奈良県",
    "city": "橿原市",
    "sname": "和田町"
  },
  {
    "zip_code": 6330000,
    "pref": "奈良県",
    "city": "桜井市",
    "sname": ""
  },
  {
    "zip_code": 6330006,
    "pref": "奈良県",
    "city": "桜井市",
    "sname": "赤尾"
  },
  {
    "zip_code": 6330003,
    "pref": "奈良県",
    "city": "桜井市",
    "sname": "朝倉台東"
  },
  {
    "zip_code": 6330004,
    "pref": "奈良県",
    "city": "桜井市",
    "sname": "朝倉台西"
  },
  {
    "zip_code": 6330052,
    "pref": "奈良県",
    "city": "桜井市",
    "sname": "浅古"
  },
  {
    "zip_code": 6330071,
    "pref": "奈良県",
    "city": "桜井市",
    "sname": "穴師"
  },
  {
    "zip_code": 6330054,
    "pref": "奈良県",
    "city": "桜井市",
    "sname": "阿部"
  },
  {
    "zip_code": 6330055,
    "pref": "奈良県",
    "city": "桜井市",
    "sname": "安倍木材団地"
  },
  {
    "zip_code": 6330026,
    "pref": "奈良県",
    "city": "桜井市",
    "sname": "飯盛塚"
  },
  {
    "zip_code": 6330046,
    "pref": "奈良県",
    "city": "桜井市",
    "sname": "池之内"
  },
  {
    "zip_code": 6330122,
    "pref": "奈良県",
    "city": "桜井市",
    "sname": "出雲"
  },
  {
    "zip_code": 6330035,
    "pref": "奈良県",
    "city": "桜井市",
    "sname": "今井谷"
  },
  {
    "zip_code": 6330013,
    "pref": "奈良県",
    "city": "桜井市",
    "sname": "岩坂"
  },
  {
    "zip_code": 6330041,
    "pref": "奈良県",
    "city": "桜井市",
    "sname": "上之宮"
  },
  {
    "zip_code": 6330086,
    "pref": "奈良県",
    "city": "桜井市",
    "sname": "江包"
  },
  {
    "zip_code": 6330076,
    "pref": "奈良県",
    "city": "桜井市",
    "sname": "大泉"
  },
  {
    "zip_code": 6330048,
    "pref": "奈良県",
    "city": "桜井市",
    "sname": "生田"
  },
  {
    "zip_code": 6330084,
    "pref": "奈良県",
    "city": "桜井市",
    "sname": "太田"
  },
  {
    "zip_code": 6330062,
    "pref": "奈良県",
    "city": "桜井市",
    "sname": "粟殿"
  },
  {
    "zip_code": 6330014,
    "pref": "奈良県",
    "city": "桜井市",
    "sname": "粟原"
  },
  {
    "zip_code": 6330101,
    "pref": "奈良県",
    "city": "桜井市",
    "sname": "小夫"
  },
  {
    "zip_code": 6330103,
    "pref": "奈良県",
    "city": "桜井市",
    "sname": "小夫嵩方"
  },
  {
    "zip_code": 6330077,
    "pref": "奈良県",
    "city": "桜井市",
    "sname": "大西"
  },
  {
    "zip_code": 6330005,
    "pref": "奈良県",
    "city": "桜井市",
    "sname": "忍阪"
  },
  {
    "zip_code": 6330031,
    "pref": "奈良県",
    "city": "桜井市",
    "sname": "下居"
  },
  {
    "zip_code": 6330064,
    "pref": "奈良県",
    "city": "桜井市",
    "sname": "戒重"
  },
  {
    "zip_code": 6330133,
    "pref": "奈良県",
    "city": "桜井市",
    "sname": "笠"
  },
  {
    "zip_code": 6330002,
    "pref": "奈良県",
    "city": "桜井市",
    "sname": "金屋"
  },
  {
    "zip_code": 6330061,
    "pref": "奈良県",
    "city": "桜井市",
    "sname": "上之庄"
  },
  {
    "zip_code": 6330106,
    "pref": "奈良県",
    "city": "桜井市",
    "sname": "萱森"
  },
  {
    "zip_code": 6330063,
    "pref": "奈良県",
    "city": "桜井市",
    "sname": "川合"
  },
  {
    "zip_code": 6330051,
    "pref": "奈良県",
    "city": "桜井市",
    "sname": "河西"
  },
  {
    "zip_code": 6330022,
    "pref": "奈良県",
    "city": "桜井市",
    "sname": "北音羽"
  },
  {
    "zip_code": 6330034,
    "pref": "奈良県",
    "city": "桜井市",
    "sname": "北山"
  },
  {
    "zip_code": 6330065,
    "pref": "奈良県",
    "city": "桜井市",
    "sname": "吉備"
  },
  {
    "zip_code": 6330081,
    "pref": "奈良県",
    "city": "桜井市",
    "sname": "草川"
  },
  {
    "zip_code": 6330021,
    "pref": "奈良県",
    "city": "桜井市",
    "sname": "倉橋"
  },
  {
    "zip_code": 6330011,
    "pref": "奈良県",
    "city": "桜井市",
    "sname": "黒崎"
  },
  {
    "zip_code": 6330012,
    "pref": "奈良県",
    "city": "桜井市",
    "sname": "狛"
  },
  {
    "zip_code": 6330015,
    "pref": "奈良県",
    "city": "桜井市",
    "sname": "下り尾"
  },
  {
    "zip_code": 6330091,
    "pref": "奈良県",
    "city": "桜井市",
    "sname": "桜井"
  },
  {
    "zip_code": 6330017,
    "pref": "奈良県",
    "city": "桜井市",
    "sname": "慈恩寺"
  },
  {
    "zip_code": 6330074,
    "pref": "奈良県",
    "city": "桜井市",
    "sname": "芝"
  },
  {
    "zip_code": 6330042,
    "pref": "奈良県",
    "city": "桜井市",
    "sname": "下"
  },
  {
    "zip_code": 6330131,
    "pref": "奈良県",
    "city": "桜井市",
    "sname": "修理枝"
  },
  {
    "zip_code": 6330121,
    "pref": "奈良県",
    "city": "桜井市",
    "sname": "白河"
  },
  {
    "zip_code": 6330105,
    "pref": "奈良県",
    "city": "桜井市",
    "sname": "白木"
  },
  {
    "zip_code": 6330075,
    "pref": "奈良県",
    "city": "桜井市",
    "sname": "新屋敷"
  },
  {
    "zip_code": 6330104,
    "pref": "奈良県",
    "city": "桜井市",
    "sname": "芹井"
  },
  {
    "zip_code": 6330044,
    "pref": "奈良県",
    "city": "桜井市",
    "sname": "高家"
  },
  {
    "zip_code": 6330067,
    "pref": "奈良県",
    "city": "桜井市",
    "sname": "大福"
  },
  {
    "zip_code": 6330043,
    "pref": "奈良県",
    "city": "桜井市",
    "sname": "高田"
  },
  {
    "zip_code": 6330108,
    "pref": "奈良県",
    "city": "桜井市",
    "sname": "滝倉"
  },
  {
    "zip_code": 6330053,
    "pref": "奈良県",
    "city": "桜井市",
    "sname": "谷"
  },
  {
    "zip_code": 6330073,
    "pref": "奈良県",
    "city": "桜井市",
    "sname": "茅原"
  },
  {
    "zip_code": 6330083,
    "pref": "奈良県",
    "city": "桜井市",
    "sname": "辻"
  },
  {
    "zip_code": 6330032,
    "pref": "奈良県",
    "city": "桜井市",
    "sname": "多武峰"
  },
  {
    "zip_code": 6330007,
    "pref": "奈良県",
    "city": "桜井市",
    "sname": "外山"
  },
  {
    "zip_code": 6330079,
    "pref": "奈良県",
    "city": "桜井市",
    "sname": "豊田"
  },
  {
    "zip_code": 6330107,
    "pref": "奈良県",
    "city": "桜井市",
    "sname": "中谷"
  },
  {
    "zip_code": 6330033,
    "pref": "奈良県",
    "city": "桜井市",
    "sname": "西口"
  },
  {
    "zip_code": 6330066,
    "pref": "奈良県",
    "city": "桜井市",
    "sname": "西之宮"
  },
  {
    "zip_code": 6330072,
    "pref": "奈良県",
    "city": "桜井市",
    "sname": "箸中"
  },
  {
    "zip_code": 6330047,
    "pref": "奈良県",
    "city": "桜井市",
    "sname": "橋本"
  },
  {
    "zip_code": 6330112,
    "pref": "奈良県",
    "city": "桜井市",
    "sname": "初瀬"
  },
  {
    "zip_code": 6330024,
    "pref": "奈良県",
    "city": "桜井市",
    "sname": "針道"
  },
  {
    "zip_code": 6330068,
    "pref": "奈良県",
    "city": "桜井市",
    "sname": "東新堂"
  },
  {
    "zip_code": 6330085,
    "pref": "奈良県",
    "city": "桜井市",
    "sname": "東田"
  },
  {
    "zip_code": 6330078,
    "pref": "奈良県",
    "city": "桜井市",
    "sname": "豊前"
  },
  {
    "zip_code": 6330082,
    "pref": "奈良県",
    "city": "桜井市",
    "sname": "巻野内"
  },
  {
    "zip_code": 6330087,
    "pref": "奈良県",
    "city": "桜井市",
    "sname": "大豆越"
  },
  {
    "zip_code": 6330102,
    "pref": "奈良県",
    "city": "桜井市",
    "sname": "三谷"
  },
  {
    "zip_code": 6330023,
    "pref": "奈良県",
    "city": "桜井市",
    "sname": "南音羽"
  },
  {
    "zip_code": 6330001,
    "pref": "奈良県",
    "city": "桜井市",
    "sname": "三輪"
  },
  {
    "zip_code": 6330028,
    "pref": "奈良県",
    "city": "桜井市",
    "sname": "百市"
  },
  {
    "zip_code": 6330025,
    "pref": "奈良県",
    "city": "桜井市",
    "sname": "八井内"
  },
  {
    "zip_code": 6330045,
    "pref": "奈良県",
    "city": "桜井市",
    "sname": "山田"
  },
  {
    "zip_code": 6330036,
    "pref": "奈良県",
    "city": "桜井市",
    "sname": "横柿"
  },
  {
    "zip_code": 6330111,
    "pref": "奈良県",
    "city": "桜井市",
    "sname": "吉隠"
  },
  {
    "zip_code": 6330016,
    "pref": "奈良県",
    "city": "桜井市",
    "sname": "竜谷"
  },
  {
    "zip_code": 6330027,
    "pref": "奈良県",
    "city": "桜井市",
    "sname": "鹿路"
  },
  {
    "zip_code": 6330018,
    "pref": "奈良県",
    "city": "桜井市",
    "sname": "脇本"
  },
  {
    "zip_code": 6330132,
    "pref": "奈良県",
    "city": "桜井市",
    "sname": "和田"
  },
  {
    "zip_code": 6370000,
    "pref": "奈良県",
    "city": "五條市",
    "sname": ""
  },
  {
    "zip_code": 6370074,
    "pref": "奈良県",
    "city": "五條市",
    "sname": "相谷町"
  },
  {
    "zip_code": 6370013,
    "pref": "奈良県",
    "city": "五條市",
    "sname": "居伝町"
  },
  {
    "zip_code": 6370072,
    "pref": "奈良県",
    "city": "五條市",
    "sname": "犬飼町"
  },
  {
    "zip_code": 6370004,
    "pref": "奈良県",
    "city": "五條市",
    "sname": "今井"
  },
  {
    "zip_code": 6370004,
    "pref": "奈良県",
    "city": "五條市",
    "sname": "今井町"
  },
  {
    "zip_code": 6370003,
    "pref": "奈良県",
    "city": "五條市",
    "sname": "宇野町"
  },
  {
    "zip_code": 6370077,
    "pref": "奈良県",
    "city": "五條市",
    "sname": "大沢町"
  },
  {
    "zip_code": 6370060,
    "pref": "奈良県",
    "city": "五條市",
    "sname": "大津町"
  },
  {
    "zip_code": 6370405,
    "pref": "奈良県",
    "city": "五條市",
    "sname": "大塔町宇井"
  },
  {
    "zip_code": 6370416,
    "pref": "奈良県",
    "city": "五條市",
    "sname": "大塔町小代"
  },
  {
    "zip_code": 6370417,
    "pref": "奈良県",
    "city": "五條市",
    "sname": "大塔町阪本"
  },
  {
    "zip_code": 6370414,
    "pref": "奈良県",
    "city": "五條市",
    "sname": "大塔町猿谷"
  },
  {
    "zip_code": 6370401,
    "pref": "奈良県",
    "city": "五條市",
    "sname": "大塔町篠原"
  },
  {
    "zip_code": 6370406,
    "pref": "奈良県",
    "city": "五條市",
    "sname": "大塔町清水"
  },
  {
    "zip_code": 6370419,
    "pref": "奈良県",
    "city": "五條市",
    "sname": "大塔町簾"
  },
  {
    "zip_code": 6370402,
    "pref": "奈良県",
    "city": "五條市",
    "sname": "大塔町惣谷"
  },
  {
    "zip_code": 6370408,
    "pref": "奈良県",
    "city": "五條市",
    "sname": "大塔町辻堂"
  },
  {
    "zip_code": 6370411,
    "pref": "奈良県",
    "city": "五條市",
    "sname": "大塔町堂平"
  },
  {
    "zip_code": 6370407,
    "pref": "奈良県",
    "city": "五條市",
    "sname": "大塔町閉君"
  },
  {
    "zip_code": 6370409,
    "pref": "奈良県",
    "city": "五條市",
    "sname": "大塔町殿野"
  },
  {
    "zip_code": 6370403,
    "pref": "奈良県",
    "city": "五條市",
    "sname": "大塔町中井傍示"
  },
  {
    "zip_code": 6370415,
    "pref": "奈良県",
    "city": "五條市",
    "sname": "大塔町中原"
  },
  {
    "zip_code": 6370404,
    "pref": "奈良県",
    "city": "五條市",
    "sname": "大塔町中峯"
  },
  {
    "zip_code": 6370413,
    "pref": "奈良県",
    "city": "五條市",
    "sname": "大塔町引土"
  },
  {
    "zip_code": 6370412,
    "pref": "奈良県",
    "city": "五條市",
    "sname": "大塔町飛養曽"
  },
  {
    "zip_code": 6370015,
    "pref": "奈良県",
    "city": "五條市",
    "sname": "大野新田町"
  },
  {
    "zip_code": 6370063,
    "pref": "奈良県",
    "city": "五條市",
    "sname": "大野町"
  },
  {
    "zip_code": 6370066,
    "pref": "奈良県",
    "city": "五條市",
    "sname": "大深町"
  },
  {
    "zip_code": 6370006,
    "pref": "奈良県",
    "city": "五條市",
    "sname": "岡口"
  },
  {
    "zip_code": 6370092,
    "pref": "奈良県",
    "city": "五條市",
    "sname": "岡町"
  },
  {
    "zip_code": 6370053,
    "pref": "奈良県",
    "city": "五條市",
    "sname": "生子町"
  },
  {
    "zip_code": 6370019,
    "pref": "奈良県",
    "city": "五條市",
    "sname": "小和町"
  },
  {
    "zip_code": 6370054,
    "pref": "奈良県",
    "city": "五條市",
    "sname": "樫辻町"
  },
  {
    "zip_code": 6370084,
    "pref": "奈良県",
    "city": "五條市",
    "sname": "釜窪町"
  },
  {
    "zip_code": 6370081,
    "pref": "奈良県",
    "city": "五條市",
    "sname": "上之町"
  },
  {
    "zip_code": 6370091,
    "pref": "奈良県",
    "city": "五條市",
    "sname": "北山町"
  },
  {
    "zip_code": 6370076,
    "pref": "奈良県",
    "city": "五條市",
    "sname": "木ノ原町"
  },
  {
    "zip_code": 6370018,
    "pref": "奈良県",
    "city": "五條市",
    "sname": "久留野町"
  },
  {
    "zip_code": 6370025,
    "pref": "奈良県",
    "city": "五條市",
    "sname": "車谷町"
  },
  {
    "zip_code": 6370062,
    "pref": "奈良県",
    "city": "五條市",
    "sname": "黒駒町"
  },
  {
    "zip_code": 6370073,
    "pref": "奈良県",
    "city": "五條市",
    "sname": "上野町"
  },
  {
    "zip_code": 6370031,
    "pref": "奈良県",
    "city": "五條市",
    "sname": "小島町"
  },
  {
    "zip_code": 6370042,
    "pref": "奈良県",
    "city": "五條市",
    "sname": "五條"
  },
  {
    "zip_code": 6370012,
    "pref": "奈良県",
    "city": "五條市",
    "sname": "小山町"
  },
  {
    "zip_code": 6370065,
    "pref": "奈良県",
    "city": "五條市",
    "sname": "阪合部新田町"
  },
  {
    "zip_code": 6370002,
    "pref": "奈良県",
    "city": "五條市",
    "sname": "三在町"
  },
  {
    "zip_code": 6370027,
    "pref": "奈良県",
    "city": "五條市",
    "sname": "島野町"
  },
  {
    "zip_code": 6370083,
    "pref": "奈良県",
    "city": "五條市",
    "sname": "下之町"
  },
  {
    "zip_code": 6370043,
    "pref": "奈良県",
    "city": "五條市",
    "sname": "新町"
  },
  {
    "zip_code": 6370005,
    "pref": "奈良県",
    "city": "五條市",
    "sname": "須恵"
  },
  {
    "zip_code": 6370014,
    "pref": "奈良県",
    "city": "五條市",
    "sname": "住川町"
  },
  {
    "zip_code": 6370024,
    "pref": "奈良県",
    "city": "五條市",
    "sname": "滝町"
  },
  {
    "zip_code": 6370067,
    "pref": "奈良県",
    "city": "五條市",
    "sname": "田殿町"
  },
  {
    "zip_code": 6370052,
    "pref": "奈良県",
    "city": "五條市",
    "sname": "丹原町"
  },
  {
    "zip_code": 6370016,
    "pref": "奈良県",
    "city": "五條市",
    "sname": "近内町"
  },
  {
    "zip_code": 6370011,
    "pref": "奈良県",
    "city": "五條市",
    "sname": "出屋敷町"
  },
  {
    "zip_code": 6370093,
    "pref": "奈良県",
    "city": "五條市",
    "sname": "田園"
  },
  {
    "zip_code": 6370061,
    "pref": "奈良県",
    "city": "五條市",
    "sname": "中町"
  },
  {
    "zip_code": 6370082,
    "pref": "奈良県",
    "city": "五條市",
    "sname": "中之町"
  },
  {
    "zip_code": 6370078,
    "pref": "奈良県",
    "city": "五條市",
    "sname": "なつみ台"
  },
  {
    "zip_code": 6370020,
    "pref": "奈良県",
    "city": "五條市",
    "sname": "西阿田町"
  },
  {
    "zip_code": 6370001,
    "pref": "奈良県",
    "city": "五條市",
    "sname": "西河内町"
  },
  {
    "zip_code": 6370017,
    "pref": "奈良県",
    "city": "五條市",
    "sname": "西久留野町"
  },
  {
    "zip_code": 6380643,
    "pref": "奈良県",
    "city": "五條市",
    "sname": "西吉野町赤松"
  },
  {
    "zip_code": 6370117,
    "pref": "奈良県",
    "city": "五條市",
    "sname": "西吉野町賀名生"
  },
  {
    "zip_code": 6380652,
    "pref": "奈良県",
    "city": "五條市",
    "sname": "西吉野町尼ケ生"
  },
  {
    "zip_code": 6370221,
    "pref": "奈良県",
    "city": "五條市",
    "sname": "西吉野町永谷"
  },
  {
    "zip_code": 6370111,
    "pref": "奈良県",
    "city": "五條市",
    "sname": "西吉野町江出"
  },
  {
    "zip_code": 6370112,
    "pref": "奈良県",
    "city": "五條市",
    "sname": "西吉野町老野"
  },
  {
    "zip_code": 6370234,
    "pref": "奈良県",
    "city": "五條市",
    "sname": "西吉野町大峯"
  },
  {
    "zip_code": 6380663,
    "pref": "奈良県",
    "city": "五條市",
    "sname": "西吉野町奥谷"
  },
  {
    "zip_code": 6370101,
    "pref": "奈良県",
    "city": "五條市",
    "sname": "西吉野町大日川"
  },
  {
    "zip_code": 6380655,
    "pref": "奈良県",
    "city": "五條市",
    "sname": "西吉野町小古田"
  },
  {
    "zip_code": 6370239,
    "pref": "奈良県",
    "city": "五條市",
    "sname": "西吉野町陰地"
  },
  {
    "zip_code": 6380651,
    "pref": "奈良県",
    "city": "五條市",
    "sname": "西吉野町唐戸"
  },
  {
    "zip_code": 6370231,
    "pref": "奈良県",
    "city": "五條市",
    "sname": "西吉野町川岸"
  },
  {
    "zip_code": 6370225,
    "pref": "奈良県",
    "city": "五條市",
    "sname": "西吉野町川股"
  },
  {
    "zip_code": 6370102,
    "pref": "奈良県",
    "city": "五條市",
    "sname": "西吉野町黒淵"
  },
  {
    "zip_code": 6370113,
    "pref": "奈良県",
    "city": "五條市",
    "sname": "西吉野町神野"
  },
  {
    "zip_code": 6370236,
    "pref": "奈良県",
    "city": "五條市",
    "sname": "西吉野町阪巻"
  },
  {
    "zip_code": 6380656,
    "pref": "奈良県",
    "city": "五條市",
    "sname": "西吉野町鹿場"
  },
  {
    "zip_code": 6370230,
    "pref": "奈良県",
    "city": "五條市",
    "sname": "西吉野町城戸"
  },
  {
    "zip_code": 6370227,
    "pref": "奈良県",
    "city": "五條市",
    "sname": "西吉野町勢井"
  },
  {
    "zip_code": 6370114,
    "pref": "奈良県",
    "city": "五條市",
    "sname": "西吉野町滝"
  },
  {
    "zip_code": 6370222,
    "pref": "奈良県",
    "city": "五條市",
    "sname": "西吉野町立川渡"
  },
  {
    "zip_code": 6370232,
    "pref": "奈良県",
    "city": "五條市",
    "sname": "西吉野町津越"
  },
  {
    "zip_code": 6380653,
    "pref": "奈良県",
    "city": "五條市",
    "sname": "西吉野町十日市"
  },
  {
    "zip_code": 6370224,
    "pref": "奈良県",
    "city": "五條市",
    "sname": "西吉野町茄子原"
  },
  {
    "zip_code": 6380661,
    "pref": "奈良県",
    "city": "五條市",
    "sname": "西吉野町西新子"
  },
  {
    "zip_code": 6370238,
    "pref": "奈良県",
    "city": "五條市",
    "sname": "西吉野町西野"
  },
  {
    "zip_code": 6370226,
    "pref": "奈良県",
    "city": "五條市",
    "sname": "西吉野町西日裏"
  },
  {
    "zip_code": 6370233,
    "pref": "奈良県",
    "city": "五條市",
    "sname": "西吉野町桧川迫"
  },
  {
    "zip_code": 6370235,
    "pref": "奈良県",
    "city": "五條市",
    "sname": "西吉野町平雄"
  },
  {
    "zip_code": 6380642,
    "pref": "奈良県",
    "city": "五條市",
    "sname": "西吉野町平沼田"
  },
  {
    "zip_code": 6370115,
    "pref": "奈良県",
    "city": "五條市",
    "sname": "西吉野町北曽木"
  },
  {
    "zip_code": 6380654,
    "pref": "奈良県",
    "city": "五條市",
    "sname": "西吉野町南山"
  },
  {
    "zip_code": 6370103,
    "pref": "奈良県",
    "city": "五條市",
    "sname": "西吉野町向加名生"
  },
  {
    "zip_code": 6370237,
    "pref": "奈良県",
    "city": "五條市",
    "sname": "西吉野町宗川野"
  },
  {
    "zip_code": 6370223,
    "pref": "奈良県",
    "city": "五條市",
    "sname": "西吉野町本谷"
  },
  {
    "zip_code": 6380641,
    "pref": "奈良県",
    "city": "五條市",
    "sname": "西吉野町百谷"
  },
  {
    "zip_code": 6380657,
    "pref": "奈良県",
    "city": "五條市",
    "sname": "西吉野町八ツ川"
  },
  {
    "zip_code": 6370104,
    "pref": "奈良県",
    "city": "五條市",
    "sname": "西吉野町屋那瀬"
  },
  {
    "zip_code": 6380644,
    "pref": "奈良県",
    "city": "五條市",
    "sname": "西吉野町湯川"
  },
  {
    "zip_code": 6370105,
    "pref": "奈良県",
    "city": "五條市",
    "sname": "西吉野町湯塩"
  },
  {
    "zip_code": 6380662,
    "pref": "奈良県",
    "city": "五條市",
    "sname": "西吉野町夜中"
  },
  {
    "zip_code": 6370116,
    "pref": "奈良県",
    "city": "五條市",
    "sname": "西吉野町和田"
  },
  {
    "zip_code": 6370034,
    "pref": "奈良県",
    "city": "五條市",
    "sname": "野原町"
  },
  {
    "zip_code": 6370037,
    "pref": "奈良県",
    "city": "五條市",
    "sname": "野原中"
  },
  {
    "zip_code": 6370036,
    "pref": "奈良県",
    "city": "五條市",
    "sname": "野原西"
  },
  {
    "zip_code": 6370038,
    "pref": "奈良県",
    "city": "五條市",
    "sname": "野原東"
  },
  {
    "zip_code": 6370075,
    "pref": "奈良県",
    "city": "五條市",
    "sname": "畑田町"
  },
  {
    "zip_code": 6370022,
    "pref": "奈良県",
    "city": "五條市",
    "sname": "八田町"
  },
  {
    "zip_code": 6370028,
    "pref": "奈良県",
    "city": "五條市",
    "sname": "原町"
  },
  {
    "zip_code": 6370068,
    "pref": "奈良県",
    "city": "五條市",
    "sname": "火打町"
  },
  {
    "zip_code": 6370021,
    "pref": "奈良県",
    "city": "五條市",
    "sname": "東阿田町"
  },
  {
    "zip_code": 6370069,
    "pref": "奈良県",
    "city": "五條市",
    "sname": "表野町"
  },
  {
    "zip_code": 6370071,
    "pref": "奈良県",
    "city": "五條市",
    "sname": "二見"
  },
  {
    "zip_code": 6370041,
    "pref": "奈良県",
    "city": "五條市",
    "sname": "本町"
  },
  {
    "zip_code": 6370033,
    "pref": "奈良県",
    "city": "五條市",
    "sname": "牧町"
  },
  {
    "zip_code": 6370023,
    "pref": "奈良県",
    "city": "五條市",
    "sname": "南阿田町"
  },
  {
    "zip_code": 6370051,
    "pref": "奈良県",
    "city": "五條市",
    "sname": "御山町"
  },
  {
    "zip_code": 6370032,
    "pref": "奈良県",
    "city": "五條市",
    "sname": "六倉町"
  },
  {
    "zip_code": 6370064,
    "pref": "奈良県",
    "city": "五條市",
    "sname": "山陰町"
  },
  {
    "zip_code": 6370029,
    "pref": "奈良県",
    "city": "五條市",
    "sname": "山田町"
  },
  {
    "zip_code": 6370026,
    "pref": "奈良県",
    "city": "五條市",
    "sname": "湯谷市塚町"
  },
  {
    "zip_code": 6370035,
    "pref": "奈良県",
    "city": "五條市",
    "sname": "霊安寺町"
  },
  {
    "zip_code": 6392200,
    "pref": "奈良県",
    "city": "御所市",
    "sname": ""
  },
  {
    "zip_code": 6392341,
    "pref": "奈良県",
    "city": "御所市",
    "sname": "朝妻"
  },
  {
    "zip_code": 6392239,
    "pref": "奈良県",
    "city": "御所市",
    "sname": "旭町"
  },
  {
    "zip_code": 6392255,
    "pref": "奈良県",
    "city": "御所市",
    "sname": "朝町"
  },
  {
    "zip_code": 6392264,
    "pref": "奈良県",
    "city": "御所市",
    "sname": "五百家"
  },
  {
    "zip_code": 6392273,
    "pref": "奈良県",
    "city": "御所市",
    "sname": "池之内"
  },
  {
    "zip_code": 6392326,
    "pref": "奈良県",
    "city": "御所市",
    "sname": "井戸"
  },
  {
    "zip_code": 6392258,
    "pref": "奈良県",
    "city": "御所市",
    "sname": "稲宿"
  },
  {
    "zip_code": 6392245,
    "pref": "奈良県",
    "city": "御所市",
    "sname": "今住"
  },
  {
    "zip_code": 6392279,
    "pref": "奈良県",
    "city": "御所市",
    "sname": "今出"
  },
  {
    "zip_code": 6392207,
    "pref": "奈良県",
    "city": "御所市",
    "sname": "今城"
  },
  {
    "zip_code": 6392267,
    "pref": "奈良県",
    "city": "御所市",
    "sname": "内谷"
  },
  {
    "zip_code": 6392323,
    "pref": "奈良県",
    "city": "御所市",
    "sname": "多田"
  },
  {
    "zip_code": 6392238,
    "pref": "奈良県",
    "city": "御所市",
    "sname": "大橋通り"
  },
  {
    "zip_code": 6392304,
    "pref": "奈良県",
    "city": "御所市",
    "sname": "大広町"
  },
  {
    "zip_code": 6392257,
    "pref": "奈良県",
    "city": "御所市",
    "sname": "小殿"
  },
  {
    "zip_code": 6392231,
    "pref": "奈良県",
    "city": "御所市",
    "sname": "柿ケ坪町"
  },
  {
    "zip_code": 6392244,
    "pref": "奈良県",
    "city": "御所市",
    "sname": "柏原"
  },
  {
    "zip_code": 6392343,
    "pref": "奈良県",
    "city": "御所市",
    "sname": "鴨神"
  },
  {
    "zip_code": 6392229,
    "pref": "奈良県",
    "city": "御所市",
    "sname": "鴨口町"
  },
  {
    "zip_code": 6392334,
    "pref": "奈良県",
    "city": "御所市",
    "sname": "北窪"
  },
  {
    "zip_code": 6392203,
    "pref": "奈良県",
    "city": "御所市",
    "sname": "北十三"
  },
  {
    "zip_code": 6392312,
    "pref": "奈良県",
    "city": "御所市",
    "sname": "櫛羅"
  },
  {
    "zip_code": 6392256,
    "pref": "奈良県",
    "city": "御所市",
    "sname": "栗阪"
  },
  {
    "zip_code": 6392337,
    "pref": "奈良県",
    "city": "御所市",
    "sname": "極楽寺"
  },
  {
    "zip_code": 6392254,
    "pref": "奈良県",
    "city": "御所市",
    "sname": "古瀬"
  },
  {
    "zip_code": 6392311,
    "pref": "奈良県",
    "city": "御所市",
    "sname": "小林"
  },
  {
    "zip_code": 6392224,
    "pref": "奈良県",
    "city": "御所市",
    "sname": "西柏町"
  },
  {
    "zip_code": 6392314,
    "pref": "奈良県",
    "city": "御所市",
    "sname": "幸町"
  },
  {
    "zip_code": 6392221,
    "pref": "奈良県",
    "city": "御所市",
    "sname": "栄町"
  },
  {
    "zip_code": 6392325,
    "pref": "奈良県",
    "city": "御所市",
    "sname": "佐田"
  },
  {
    "zip_code": 6392272,
    "pref": "奈良県",
    "city": "御所市",
    "sname": "蛇穴"
  },
  {
    "zip_code": 6392211,
    "pref": "奈良県",
    "city": "御所市",
    "sname": "ＪＲ御所駅前通り"
  },
  {
    "zip_code": 6392324,
    "pref": "奈良県",
    "city": "御所市",
    "sname": "下茶屋"
  },
  {
    "zip_code": 6392276,
    "pref": "奈良県",
    "city": "御所市",
    "sname": "條"
  },
  {
    "zip_code": 6392261,
    "pref": "奈良県",
    "city": "御所市",
    "sname": "城山台"
  },
  {
    "zip_code": 6392213,
    "pref": "奈良県",
    "city": "御所市",
    "sname": "神宮町"
  },
  {
    "zip_code": 6392217,
    "pref": "奈良県",
    "city": "御所市",
    "sname": "新地町"
  },
  {
    "zip_code": 6392265,
    "pref": "奈良県",
    "city": "御所市",
    "sname": "新田"
  },
  {
    "zip_code": 6392235,
    "pref": "奈良県",
    "city": "御所市",
    "sname": "寺内町"
  },
  {
    "zip_code": 6392303,
    "pref": "奈良県",
    "city": "御所市",
    "sname": "末広町"
  },
  {
    "zip_code": 6392328,
    "pref": "奈良県",
    "city": "御所市",
    "sname": "関屋"
  },
  {
    "zip_code": 6392342,
    "pref": "奈良県",
    "city": "御所市",
    "sname": "僧堂"
  },
  {
    "zip_code": 6392236,
    "pref": "奈良県",
    "city": "御所市",
    "sname": "代官町"
  },
  {
    "zip_code": 6392336,
    "pref": "奈良県",
    "city": "御所市",
    "sname": "高天"
  },
  {
    "zip_code": 6392206,
    "pref": "奈良県",
    "city": "御所市",
    "sname": "竹田"
  },
  {
    "zip_code": 6392247,
    "pref": "奈良県",
    "city": "御所市",
    "sname": "玉手"
  },
  {
    "zip_code": 6392241,
    "pref": "奈良県",
    "city": "御所市",
    "sname": "茅原"
  },
  {
    "zip_code": 6392212,
    "pref": "奈良県",
    "city": "御所市",
    "sname": "中央通り"
  },
  {
    "zip_code": 6392275,
    "pref": "奈良県",
    "city": "御所市",
    "sname": "出走"
  },
  {
    "zip_code": 6392202,
    "pref": "奈良県",
    "city": "御所市",
    "sname": "出屋敷"
  },
  {
    "zip_code": 6392251,
    "pref": "奈良県",
    "city": "御所市",
    "sname": "戸毛"
  },
  {
    "zip_code": 6392274,
    "pref": "奈良県",
    "city": "御所市",
    "sname": "冨田"
  },
  {
    "zip_code": 6392317,
    "pref": "奈良県",
    "city": "御所市",
    "sname": "豊田"
  },
  {
    "zip_code": 6392263,
    "pref": "奈良県",
    "city": "御所市",
    "sname": "鳥井戸"
  },
  {
    "zip_code": 6392225,
    "pref": "奈良県",
    "city": "御所市",
    "sname": "中本町"
  },
  {
    "zip_code": 6392321,
    "pref": "奈良県",
    "city": "御所市",
    "sname": "名柄"
  },
  {
    "zip_code": 6392313,
    "pref": "奈良県",
    "city": "御所市",
    "sname": "楢原"
  },
  {
    "zip_code": 6392331,
    "pref": "奈良県",
    "city": "御所市",
    "sname": "南郷"
  },
  {
    "zip_code": 6392335,
    "pref": "奈良県",
    "city": "御所市",
    "sname": "西北窪"
  },
  {
    "zip_code": 6392228,
    "pref": "奈良県",
    "city": "御所市",
    "sname": "西久保本町"
  },
  {
    "zip_code": 6392345,
    "pref": "奈良県",
    "city": "御所市",
    "sname": "西佐味"
  },
  {
    "zip_code": 6392316,
    "pref": "奈良県",
    "city": "御所市",
    "sname": "西寺田"
  },
  {
    "zip_code": 6392215,
    "pref": "奈良県",
    "city": "御所市",
    "sname": "西町"
  },
  {
    "zip_code": 6392332,
    "pref": "奈良県",
    "city": "御所市",
    "sname": "西持田"
  },
  {
    "zip_code": 6392333,
    "pref": "奈良県",
    "city": "御所市",
    "sname": "林"
  },
  {
    "zip_code": 6392246,
    "pref": "奈良県",
    "city": "御所市",
    "sname": "原谷"
  },
  {
    "zip_code": 6392227,
    "pref": "奈良県",
    "city": "御所市",
    "sname": "東久保町"
  },
  {
    "zip_code": 6392344,
    "pref": "奈良県",
    "city": "御所市",
    "sname": "東佐味"
  },
  {
    "zip_code": 6392205,
    "pref": "奈良県",
    "city": "御所市",
    "sname": "東辻"
  },
  {
    "zip_code": 6392243,
    "pref": "奈良県",
    "city": "御所市",
    "sname": "東寺田"
  },
  {
    "zip_code": 6392322,
    "pref": "奈良県",
    "city": "御所市",
    "sname": "東名柄"
  },
  {
    "zip_code": 6392302,
    "pref": "奈良県",
    "city": "御所市",
    "sname": "東松本"
  },
  {
    "zip_code": 6392262,
    "pref": "奈良県",
    "city": "御所市",
    "sname": "東持田"
  },
  {
    "zip_code": 6392252,
    "pref": "奈良県",
    "city": "御所市",
    "sname": "樋野"
  },
  {
    "zip_code": 6392346,
    "pref": "奈良県",
    "city": "御所市",
    "sname": "伏見"
  },
  {
    "zip_code": 6392268,
    "pref": "奈良県",
    "city": "御所市",
    "sname": "船路"
  },
  {
    "zip_code": 6392253,
    "pref": "奈良県",
    "city": "御所市",
    "sname": "奉膳"
  },
  {
    "zip_code": 6392266,
    "pref": "奈良県",
    "city": "御所市",
    "sname": "重阪"
  },
  {
    "zip_code": 6392237,
    "pref": "奈良県",
    "city": "御所市",
    "sname": "豊年橋通り"
  },
  {
    "zip_code": 6392242,
    "pref": "奈良県",
    "city": "御所市",
    "sname": "本馬"
  },
  {
    "zip_code": 6392223,
    "pref": "奈良県",
    "city": "御所市",
    "sname": "本町"
  },
  {
    "zip_code": 6392327,
    "pref": "奈良県",
    "city": "御所市",
    "sname": "増"
  },
  {
    "zip_code": 6392232,
    "pref": "奈良県",
    "city": "御所市",
    "sname": "御門町"
  },
  {
    "zip_code": 6392216,
    "pref": "奈良県",
    "city": "御所市",
    "sname": "御国通り"
  },
  {
    "zip_code": 6392214,
    "pref": "奈良県",
    "city": "御所市",
    "sname": "御堂魚棚町"
  },
  {
    "zip_code": 6392278,
    "pref": "奈良県",
    "city": "御所市",
    "sname": "緑ケ丘"
  },
  {
    "zip_code": 6392248,
    "pref": "奈良県",
    "city": "御所市",
    "sname": "緑町"
  },
  {
    "zip_code": 6392204,
    "pref": "奈良県",
    "city": "御所市",
    "sname": "南十三"
  },
  {
    "zip_code": 6392226,
    "pref": "奈良県",
    "city": "御所市",
    "sname": "南中町"
  },
  {
    "zip_code": 6392306,
    "pref": "奈良県",
    "city": "御所市",
    "sname": "三室"
  },
  {
    "zip_code": 6392233,
    "pref": "奈良県",
    "city": "御所市",
    "sname": "都町"
  },
  {
    "zip_code": 6392315,
    "pref": "奈良県",
    "city": "御所市",
    "sname": "宮戸"
  },
  {
    "zip_code": 6392271,
    "pref": "奈良県",
    "city": "御所市",
    "sname": "宮前町"
  },
  {
    "zip_code": 6392277,
    "pref": "奈良県",
    "city": "御所市",
    "sname": "室"
  },
  {
    "zip_code": 6392262,
    "pref": "奈良県",
    "city": "御所市",
    "sname": "持田"
  },
  {
    "zip_code": 6392301,
    "pref": "奈良県",
    "city": "御所市",
    "sname": "元町"
  },
  {
    "zip_code": 6392318,
    "pref": "奈良県",
    "city": "御所市",
    "sname": "森脇"
  },
  {
    "zip_code": 6392305,
    "pref": "奈良県",
    "city": "御所市",
    "sname": "柳田町"
  },
  {
    "zip_code": 6392201,
    "pref": "奈良県",
    "city": "御所市",
    "sname": "柳原"
  },
  {
    "zip_code": 6392234,
    "pref": "奈良県",
    "city": "御所市",
    "sname": "柳町"
  },
  {
    "zip_code": 6392222,
    "pref": "奈良県",
    "city": "御所市",
    "sname": "六軒町"
  },
  {
    "zip_code": 6300200,
    "pref": "奈良県",
    "city": "生駒市",
    "sname": ""
  },
  {
    "zip_code": 6300239,
    "pref": "奈良県",
    "city": "生駒市",
    "sname": "青山台"
  },
  {
    "zip_code": 6300132,
    "pref": "奈良県",
    "city": "生駒市",
    "sname": "あすか台"
  },
  {
    "zip_code": 6300133,
    "pref": "奈良県",
    "city": "生駒市",
    "sname": "あすか野南"
  },
  {
    "zip_code": 6300134,
    "pref": "奈良県",
    "city": "生駒市",
    "sname": "あすか野北"
  },
  {
    "zip_code": 6300233,
    "pref": "奈良県",
    "city": "生駒市",
    "sname": "有里町"
  },
  {
    "zip_code": 6300202,
    "pref": "奈良県",
    "city": "生駒市",
    "sname": "生駒台南"
  },
  {
    "zip_code": 6300203,
    "pref": "奈良県",
    "city": "生駒市",
    "sname": "生駒台北"
  },
  {
    "zip_code": 6300222,
    "pref": "奈良県",
    "city": "生駒市",
    "sname": "壱分町"
  },
  {
    "zip_code": 6300232,
    "pref": "奈良県",
    "city": "生駒市",
    "sname": "小倉寺町"
  },
  {
    "zip_code": 6300223,
    "pref": "奈良県",
    "city": "生駒市",
    "sname": "小瀬町"
  },
  {
    "zip_code": 6300227,
    "pref": "奈良県",
    "city": "生駒市",
    "sname": "乙田町"
  },
  {
    "zip_code": 6300237,
    "pref": "奈良県",
    "city": "生駒市",
    "sname": "鬼取町"
  },
  {
    "zip_code": 6300131,
    "pref": "奈良県",
    "city": "生駒市",
    "sname": "上町"
  },
  {
    "zip_code": 6300138,
    "pref": "奈良県",
    "city": "生駒市",
    "sname": "上町台"
  },
  {
    "zip_code": 6300265,
    "pref": "奈良県",
    "city": "生駒市",
    "sname": "軽井沢町"
  },
  {
    "zip_code": 6300245,
    "pref": "奈良県",
    "city": "生駒市",
    "sname": "北新町"
  },
  {
    "zip_code": 6300142,
    "pref": "奈良県",
    "city": "生駒市",
    "sname": "北田原町"
  },
  {
    "zip_code": 6300121,
    "pref": "奈良県",
    "city": "生駒市",
    "sname": "北大和"
  },
  {
    "zip_code": 6300248,
    "pref": "奈良県",
    "city": "生駒市",
    "sname": "喜里が丘"
  },
  {
    "zip_code": 6300201,
    "pref": "奈良県",
    "city": "生駒市",
    "sname": "小明町"
  },
  {
    "zip_code": 6300247,
    "pref": "奈良県",
    "city": "生駒市",
    "sname": "光陽台"
  },
  {
    "zip_code": 6300226,
    "pref": "奈良県",
    "city": "生駒市",
    "sname": "小平尾町"
  },
  {
    "zip_code": 6300211,
    "pref": "奈良県",
    "city": "生駒市",
    "sname": "桜ケ丘"
  },
  {
    "zip_code": 6300221,
    "pref": "奈良県",
    "city": "生駒市",
    "sname": "さつき台"
  },
  {
    "zip_code": 6300112,
    "pref": "奈良県",
    "city": "生駒市",
    "sname": "鹿ノ台東"
  },
  {
    "zip_code": 6300114,
    "pref": "奈良県",
    "city": "生駒市",
    "sname": "鹿ノ台西"
  },
  {
    "zip_code": 6300113,
    "pref": "奈良県",
    "city": "生駒市",
    "sname": "鹿ノ台南"
  },
  {
    "zip_code": 6300111,
    "pref": "奈良県",
    "city": "生駒市",
    "sname": "鹿ノ台北"
  },
  {
    "zip_code": 6300115,
    "pref": "奈良県",
    "city": "生駒市",
    "sname": "鹿畑町"
  },
  {
    "zip_code": 6300136,
    "pref": "奈良県",
    "city": "生駒市",
    "sname": "白庭台"
  },
  {
    "zip_code": 6300253,
    "pref": "奈良県",
    "city": "生駒市",
    "sname": "新旭ケ丘"
  },
  {
    "zip_code": 6300242,
    "pref": "奈良県",
    "city": "生駒市",
    "sname": "新生駒台"
  },
  {
    "zip_code": 6300229,
    "pref": "奈良県",
    "city": "生駒市",
    "sname": "翠光台"
  },
  {
    "zip_code": 6300238,
    "pref": "奈良県",
    "city": "生駒市",
    "sname": "大門町"
  },
  {
    "zip_code": 6300101,
    "pref": "奈良県",
    "city": "生駒市",
    "sname": "高山町"
  },
  {
    "zip_code": 6300251,
    "pref": "奈良県",
    "city": "生駒市",
    "sname": "谷田町"
  },
  {
    "zip_code": 6300243,
    "pref": "奈良県",
    "city": "生駒市",
    "sname": "俵口町"
  },
  {
    "zip_code": 6300212,
    "pref": "奈良県",
    "city": "生駒市",
    "sname": "辻町"
  },
  {
    "zip_code": 6300263,
    "pref": "奈良県",
    "city": "生駒市",
    "sname": "中菜畑"
  },
  {
    "zip_code": 6300267,
    "pref": "奈良県",
    "city": "生駒市",
    "sname": "仲之町"
  },
  {
    "zip_code": 6300231,
    "pref": "奈良県",
    "city": "生駒市",
    "sname": "菜畑町"
  },
  {
    "zip_code": 6300261,
    "pref": "奈良県",
    "city": "生駒市",
    "sname": "西旭ケ丘"
  },
  {
    "zip_code": 6300137,
    "pref": "奈良県",
    "city": "生駒市",
    "sname": "西白庭台"
  },
  {
    "zip_code": 6300264,
    "pref": "奈良県",
    "city": "生駒市",
    "sname": "西菜畑町"
  },
  {
    "zip_code": 6300236,
    "pref": "奈良県",
    "city": "生駒市",
    "sname": "西畑町"
  },
  {
    "zip_code": 6300246,
    "pref": "奈良県",
    "city": "生駒市",
    "sname": "西松ケ丘"
  },
  {
    "zip_code": 6300224,
    "pref": "奈良県",
    "city": "生駒市",
    "sname": "萩の台"
  },
  {
    "zip_code": 6300234,
    "pref": "奈良県",
    "city": "生駒市",
    "sname": "萩原町"
  },
  {
    "zip_code": 6300141,
    "pref": "奈良県",
    "city": "生駒市",
    "sname": "ひかりが丘"
  },
  {
    "zip_code": 6300254,
    "pref": "奈良県",
    "city": "生駒市",
    "sname": "東旭ケ丘"
  },
  {
    "zip_code": 6300213,
    "pref": "奈良県",
    "city": "生駒市",
    "sname": "東生駒"
  },
  {
    "zip_code": 6300214,
    "pref": "奈良県",
    "city": "生駒市",
    "sname": "東生駒月見町"
  },
  {
    "zip_code": 6300258,
    "pref": "奈良県",
    "city": "生駒市",
    "sname": "東新町"
  },
  {
    "zip_code": 6300215,
    "pref": "奈良県",
    "city": "生駒市",
    "sname": "東菜畑"
  },
  {
    "zip_code": 6300244,
    "pref": "奈良県",
    "city": "生駒市",
    "sname": "東松ケ丘"
  },
  {
    "zip_code": 6300225,
    "pref": "奈良県",
    "city": "生駒市",
    "sname": "東山町"
  },
  {
    "zip_code": 6300235,
    "pref": "奈良県",
    "city": "生駒市",
    "sname": "藤尾町"
  },
  {
    "zip_code": 6300256,
    "pref": "奈良県",
    "city": "生駒市",
    "sname": "本町"
  },
  {
    "zip_code": 6300241,
    "pref": "奈良県",
    "city": "生駒市",
    "sname": "松美台"
  },
  {
    "zip_code": 6300122,
    "pref": "奈良県",
    "city": "生駒市",
    "sname": "真弓"
  },
  {
    "zip_code": 6300123,
    "pref": "奈良県",
    "city": "生駒市",
    "sname": "真弓南"
  },
  {
    "zip_code": 6300116,
    "pref": "奈良県",
    "city": "生駒市",
    "sname": "美鹿の台"
  },
  {
    "zip_code": 6300262,
    "pref": "奈良県",
    "city": "生駒市",
    "sname": "緑ケ丘"
  },
  {
    "zip_code": 6300135,
    "pref": "奈良県",
    "city": "生駒市",
    "sname": "南田原町"
  },
  {
    "zip_code": 6300228,
    "pref": "奈良県",
    "city": "生駒市",
    "sname": "南山手台"
  },
  {
    "zip_code": 6300257,
    "pref": "奈良県",
    "city": "生駒市",
    "sname": "元町"
  },
  {
    "zip_code": 6300266,
    "pref": "奈良県",
    "city": "生駒市",
    "sname": "門前町"
  },
  {
    "zip_code": 6300255,
    "pref": "奈良県",
    "city": "生駒市",
    "sname": "山崎新町"
  },
  {
    "zip_code": 6300252,
    "pref": "奈良県",
    "city": "生駒市",
    "sname": "山崎町"
  },
  {
    "zip_code": 6390200,
    "pref": "奈良県",
    "city": "香芝市",
    "sname": ""
  },
  {
    "zip_code": 6390266,
    "pref": "奈良県",
    "city": "香芝市",
    "sname": "旭ケ丘"
  },
  {
    "zip_code": 6390252,
    "pref": "奈良県",
    "city": "香芝市",
    "sname": "穴虫"
  },
  {
    "zip_code": 6390236,
    "pref": "奈良県",
    "city": "香芝市",
    "sname": "磯壁"
  },
  {
    "zip_code": 6390264,
    "pref": "奈良県",
    "city": "香芝市",
    "sname": "今泉"
  },
  {
    "zip_code": 6390251,
    "pref": "奈良県",
    "city": "香芝市",
    "sname": "逢坂"
  },
  {
    "zip_code": 6390227,
    "pref": "奈良県",
    "city": "香芝市",
    "sname": "鎌田"
  },
  {
    "zip_code": 6390265,
    "pref": "奈良県",
    "city": "香芝市",
    "sname": "上中"
  },
  {
    "zip_code": 6390225,
    "pref": "奈良県",
    "city": "香芝市",
    "sname": "瓦口"
  },
  {
    "zip_code": 6390242,
    "pref": "奈良県",
    "city": "香芝市",
    "sname": "北今市"
  },
  {
    "zip_code": 6390234,
    "pref": "奈良県",
    "city": "香芝市",
    "sname": "狐井"
  },
  {
    "zip_code": 6390226,
    "pref": "奈良県",
    "city": "香芝市",
    "sname": "五位堂"
  },
  {
    "zip_code": 6390221,
    "pref": "奈良県",
    "city": "香芝市",
    "sname": "五ケ所"
  },
  {
    "zip_code": 6390233,
    "pref": "奈良県",
    "city": "香芝市",
    "sname": "下田"
  },
  {
    "zip_code": 6390232,
    "pref": "奈良県",
    "city": "香芝市",
    "sname": "下田東"
  },
  {
    "zip_code": 6390231,
    "pref": "奈良県",
    "city": "香芝市",
    "sname": "下田西"
  },
  {
    "zip_code": 6390237,
    "pref": "奈良県",
    "city": "香芝市",
    "sname": "すみれ野"
  },
  {
    "zip_code": 6390255,
    "pref": "奈良県",
    "city": "香芝市",
    "sname": "関屋"
  },
  {
    "zip_code": 6390254,
    "pref": "奈良県",
    "city": "香芝市",
    "sname": "関屋北"
  },
  {
    "zip_code": 6390241,
    "pref": "奈良県",
    "city": "香芝市",
    "sname": "高"
  },
  {
    "zip_code": 6390256,
    "pref": "奈良県",
    "city": "香芝市",
    "sname": "高山台"
  },
  {
    "zip_code": 6390253,
    "pref": "奈良県",
    "city": "香芝市",
    "sname": "田尻"
  },
  {
    "zip_code": 6390222,
    "pref": "奈良県",
    "city": "香芝市",
    "sname": "西真美"
  },
  {
    "zip_code": 6390261,
    "pref": "奈良県",
    "city": "香芝市",
    "sname": "尼寺"
  },
  {
    "zip_code": 6390262,
    "pref": "奈良県",
    "city": "香芝市",
    "sname": "白鳳台"
  },
  {
    "zip_code": 6390245,
    "pref": "奈良県",
    "city": "香芝市",
    "sname": "畑"
  },
  {
    "zip_code": 6390263,
    "pref": "奈良県",
    "city": "香芝市",
    "sname": "平野"
  },
  {
    "zip_code": 6390243,
    "pref": "奈良県",
    "city": "香芝市",
    "sname": "藤山"
  },
  {
    "zip_code": 6390224,
    "pref": "奈良県",
    "city": "香芝市",
    "sname": "別所"
  },
  {
    "zip_code": 6390244,
    "pref": "奈良県",
    "city": "香芝市",
    "sname": "本町"
  },
  {
    "zip_code": 6390223,
    "pref": "奈良県",
    "city": "香芝市",
    "sname": "真美ケ丘"
  },
  {
    "zip_code": 6390235,
    "pref": "奈良県",
    "city": "香芝市",
    "sname": "良福寺"
  },
  {
    "zip_code": 6392100,
    "pref": "奈良県",
    "city": "葛城市",
    "sname": ""
  },
  {
    "zip_code": 6390274,
    "pref": "奈良県",
    "city": "葛城市",
    "sname": "今在家"
  },
  {
    "zip_code": 6392133,
    "pref": "奈良県",
    "city": "葛城市",
    "sname": "梅室"
  },
  {
    "zip_code": 6392153,
    "pref": "奈良県",
    "city": "葛城市",
    "sname": "太田"
  },
  {
    "zip_code": 6392145,
    "pref": "奈良県",
    "city": "葛城市",
    "sname": "大屋"
  },
  {
    "zip_code": 6392123,
    "pref": "奈良県",
    "city": "葛城市",
    "sname": "忍海"
  },
  {
    "zip_code": 6392152,
    "pref": "奈良県",
    "city": "葛城市",
    "sname": "大畑"
  },
  {
    "zip_code": 6392111,
    "pref": "奈良県",
    "city": "葛城市",
    "sname": "柿本"
  },
  {
    "zip_code": 6390275,
    "pref": "奈良県",
    "city": "葛城市",
    "sname": "勝根"
  },
  {
    "zip_code": 6392144,
    "pref": "奈良県",
    "city": "葛城市",
    "sname": "葛木"
  },
  {
    "zip_code": 6390271,
    "pref": "奈良県",
    "city": "葛城市",
    "sname": "加守"
  },
  {
    "zip_code": 6392113,
    "pref": "奈良県",
    "city": "葛城市",
    "sname": "北花内"
  },
  {
    "zip_code": 6392142,
    "pref": "奈良県",
    "city": "葛城市",
    "sname": "北道穂"
  },
  {
    "zip_code": 6392161,
    "pref": "奈良県",
    "city": "葛城市",
    "sname": "木戸"
  },
  {
    "zip_code": 6392121,
    "pref": "奈良県",
    "city": "葛城市",
    "sname": "新村"
  },
  {
    "zip_code": 6392162,
    "pref": "奈良県",
    "city": "葛城市",
    "sname": "尺土"
  },
  {
    "zip_code": 6390272,
    "pref": "奈良県",
    "city": "葛城市",
    "sname": "新在家"
  },
  {
    "zip_code": 6392147,
    "pref": "奈良県",
    "city": "葛城市",
    "sname": "新庄"
  },
  {
    "zip_code": 6392127,
    "pref": "奈良県",
    "city": "葛城市",
    "sname": "新町"
  },
  {
    "zip_code": 6390273,
    "pref": "奈良県",
    "city": "葛城市",
    "sname": "染野"
  },
  {
    "zip_code": 6390276,
    "pref": "奈良県",
    "city": "葛城市",
    "sname": "當麻"
  },
  {
    "zip_code": 6392155,
    "pref": "奈良県",
    "city": "葛城市",
    "sname": "竹内"
  },
  {
    "zip_code": 6392135,
    "pref": "奈良県",
    "city": "葛城市",
    "sname": "寺口"
  },
  {
    "zip_code": 6392164,
    "pref": "奈良県",
    "city": "葛城市",
    "sname": "長尾"
  },
  {
    "zip_code": 6392146,
    "pref": "奈良県",
    "city": "葛城市",
    "sname": "中戸"
  },
  {
    "zip_code": 6392125,
    "pref": "奈良県",
    "city": "葛城市",
    "sname": "西辻"
  },
  {
    "zip_code": 6392103,
    "pref": "奈良県",
    "city": "葛城市",
    "sname": "西室"
  },
  {
    "zip_code": 6392122,
    "pref": "奈良県",
    "city": "葛城市",
    "sname": "薑"
  },
  {
    "zip_code": 6392163,
    "pref": "奈良県",
    "city": "葛城市",
    "sname": "八川"
  },
  {
    "zip_code": 6392131,
    "pref": "奈良県",
    "city": "葛城市",
    "sname": "林堂"
  },
  {
    "zip_code": 6392102,
    "pref": "奈良県",
    "city": "葛城市",
    "sname": "東室"
  },
  {
    "zip_code": 6392101,
    "pref": "奈良県",
    "city": "葛城市",
    "sname": "疋田"
  },
  {
    "zip_code": 6392154,
    "pref": "奈良県",
    "city": "葛城市",
    "sname": "兵家"
  },
  {
    "zip_code": 6392136,
    "pref": "奈良県",
    "city": "葛城市",
    "sname": "平岡"
  },
  {
    "zip_code": 6392112,
    "pref": "奈良県",
    "city": "葛城市",
    "sname": "笛堂"
  },
  {
    "zip_code": 6392132,
    "pref": "奈良県",
    "city": "葛城市",
    "sname": "笛吹"
  },
  {
    "zip_code": 6392141,
    "pref": "奈良県",
    "city": "葛城市",
    "sname": "弁之庄"
  },
  {
    "zip_code": 6392151,
    "pref": "奈良県",
    "city": "葛城市",
    "sname": "南今市"
  },
  {
    "zip_code": 6392123,
    "pref": "奈良県",
    "city": "葛城市",
    "sname": "南新町"
  },
  {
    "zip_code": 6392126,
    "pref": "奈良県",
    "city": "葛城市",
    "sname": "南花内"
  },
  {
    "zip_code": 6392137,
    "pref": "奈良県",
    "city": "葛城市",
    "sname": "南藤井"
  },
  {
    "zip_code": 6392143,
    "pref": "奈良県",
    "city": "葛城市",
    "sname": "南道穂"
  },
  {
    "zip_code": 6392134,
    "pref": "奈良県",
    "city": "葛城市",
    "sname": "山口"
  },
  {
    "zip_code": 6392138,
    "pref": "奈良県",
    "city": "葛城市",
    "sname": "山田"
  },
  {
    "zip_code": 6392124,
    "pref": "奈良県",
    "city": "葛城市",
    "sname": "脇田"
  },
  {
    "zip_code": 6330200,
    "pref": "奈良県",
    "city": "宇陀市",
    "sname": ""
  },
  {
    "zip_code": 6332225,
    "pref": "奈良県",
    "city": "宇陀市",
    "sname": "菟田野稲戸"
  },
  {
    "zip_code": 6332227,
    "pref": "奈良県",
    "city": "宇陀市",
    "sname": "菟田野岩崎"
  },
  {
    "zip_code": 6332214,
    "pref": "奈良県",
    "city": "宇陀市",
    "sname": "菟田野岩端"
  },
  {
    "zip_code": 6332223,
    "pref": "奈良県",
    "city": "宇陀市",
    "sname": "菟田野宇賀志"
  },
  {
    "zip_code": 6332202,
    "pref": "奈良県",
    "city": "宇陀市",
    "sname": "菟田野大神"
  },
  {
    "zip_code": 6332204,
    "pref": "奈良県",
    "city": "宇陀市",
    "sname": "菟田野大澤"
  },
  {
    "zip_code": 6332213,
    "pref": "奈良県",
    "city": "宇陀市",
    "sname": "菟田野上芳野"
  },
  {
    "zip_code": 6332222,
    "pref": "奈良県",
    "city": "宇陀市",
    "sname": "菟田野駒帰"
  },
  {
    "zip_code": 6332224,
    "pref": "奈良県",
    "city": "宇陀市",
    "sname": "菟田野佐倉"
  },
  {
    "zip_code": 6332212,
    "pref": "奈良県",
    "city": "宇陀市",
    "sname": "菟田野下芳野"
  },
  {
    "zip_code": 6332215,
    "pref": "奈良県",
    "city": "宇陀市",
    "sname": "菟田野東郷"
  },
  {
    "zip_code": 6332211,
    "pref": "奈良県",
    "city": "宇陀市",
    "sname": "菟田野入谷"
  },
  {
    "zip_code": 6332201,
    "pref": "奈良県",
    "city": "宇陀市",
    "sname": "菟田野平井"
  },
  {
    "zip_code": 6332226,
    "pref": "奈良県",
    "city": "宇陀市",
    "sname": "菟田野古市場"
  },
  {
    "zip_code": 6332205,
    "pref": "奈良県",
    "city": "宇陀市",
    "sname": "菟田野別所"
  },
  {
    "zip_code": 6332221,
    "pref": "奈良県",
    "city": "宇陀市",
    "sname": "菟田野松井"
  },
  {
    "zip_code": 6332203,
    "pref": "奈良県",
    "city": "宇陀市",
    "sname": "菟田野見田"
  },
  {
    "zip_code": 6332105,
    "pref": "奈良県",
    "city": "宇陀市",
    "sname": "大宇陀麻生田"
  },
  {
    "zip_code": 6332101,
    "pref": "奈良県",
    "city": "宇陀市",
    "sname": "大宇陀五津"
  },
  {
    "zip_code": 6332162,
    "pref": "奈良県",
    "city": "宇陀市",
    "sname": "大宇陀出新"
  },
  {
    "zip_code": 6332126,
    "pref": "奈良県",
    "city": "宇陀市",
    "sname": "大宇陀岩清水"
  },
  {
    "zip_code": 6332116,
    "pref": "奈良県",
    "city": "宇陀市",
    "sname": "大宇陀岩室"
  },
  {
    "zip_code": 6332111,
    "pref": "奈良県",
    "city": "宇陀市",
    "sname": "大宇陀内原"
  },
  {
    "zip_code": 6332107,
    "pref": "奈良県",
    "city": "宇陀市",
    "sname": "大宇陀嬉河原"
  },
  {
    "zip_code": 6332136,
    "pref": "奈良県",
    "city": "宇陀市",
    "sname": "大宇陀大熊"
  },
  {
    "zip_code": 6332114,
    "pref": "奈良県",
    "city": "宇陀市",
    "sname": "大宇陀春日"
  },
  {
    "zip_code": 6332174,
    "pref": "奈良県",
    "city": "宇陀市",
    "sname": "大宇陀上"
  },
  {
    "zip_code": 6332141,
    "pref": "奈良県",
    "city": "宇陀市",
    "sname": "大宇陀上片岡"
  },
  {
    "zip_code": 6332133,
    "pref": "奈良県",
    "city": "宇陀市",
    "sname": "大宇陀上品"
  },
  {
    "zip_code": 6332161,
    "pref": "奈良県",
    "city": "宇陀市",
    "sname": "大宇陀上新"
  },
  {
    "zip_code": 6332171,
    "pref": "奈良県",
    "city": "宇陀市",
    "sname": "大宇陀上茶"
  },
  {
    "zip_code": 6332173,
    "pref": "奈良県",
    "city": "宇陀市",
    "sname": "大宇陀上中"
  },
  {
    "zip_code": 6332172,
    "pref": "奈良県",
    "city": "宇陀市",
    "sname": "大宇陀上本"
  },
  {
    "zip_code": 6332104,
    "pref": "奈良県",
    "city": "宇陀市",
    "sname": "大宇陀口今井"
  },
  {
    "zip_code": 6332144,
    "pref": "奈良県",
    "city": "宇陀市",
    "sname": "大宇陀栗野"
  },
  {
    "zip_code": 6332155,
    "pref": "奈良県",
    "city": "宇陀市",
    "sname": "大宇陀黒木"
  },
  {
    "zip_code": 6332176,
    "pref": "奈良県",
    "city": "宇陀市",
    "sname": "大宇陀小出口"
  },
  {
    "zip_code": 6332112,
    "pref": "奈良県",
    "city": "宇陀市",
    "sname": "大宇陀小附"
  },
  {
    "zip_code": 6332134,
    "pref": "奈良県",
    "city": "宇陀市",
    "sname": "大宇陀小和田"
  },
  {
    "zip_code": 6332124,
    "pref": "奈良県",
    "city": "宇陀市",
    "sname": "大宇陀才ケ辻"
  },
  {
    "zip_code": 6332117,
    "pref": "奈良県",
    "city": "宇陀市",
    "sname": "大宇陀芝生"
  },
  {
    "zip_code": 6332137,
    "pref": "奈良県",
    "city": "宇陀市",
    "sname": "大宇陀下片岡"
  },
  {
    "zip_code": 6332132,
    "pref": "奈良県",
    "city": "宇陀市",
    "sname": "大宇陀下品"
  },
  {
    "zip_code": 6332113,
    "pref": "奈良県",
    "city": "宇陀市",
    "sname": "大宇陀下竹"
  },
  {
    "zip_code": 6332170,
    "pref": "奈良県",
    "city": "宇陀市",
    "sname": "大宇陀下茶"
  },
  {
    "zip_code": 6332177,
    "pref": "奈良県",
    "city": "宇陀市",
    "sname": "大宇陀下出口"
  },
  {
    "zip_code": 6332178,
    "pref": "奈良県",
    "city": "宇陀市",
    "sname": "大宇陀下中"
  },
  {
    "zip_code": 6332179,
    "pref": "奈良県",
    "city": "宇陀市",
    "sname": "大宇陀下本"
  },
  {
    "zip_code": 6332153,
    "pref": "奈良県",
    "city": "宇陀市",
    "sname": "大宇陀下宮奥"
  },
  {
    "zip_code": 6332138,
    "pref": "奈良県",
    "city": "宇陀市",
    "sname": "大宇陀白鳥居"
  },
  {
    "zip_code": 6332152,
    "pref": "奈良県",
    "city": "宇陀市",
    "sname": "大宇陀関戸"
  },
  {
    "zip_code": 6332151,
    "pref": "奈良県",
    "city": "宇陀市",
    "sname": "大宇陀大東"
  },
  {
    "zip_code": 6332142,
    "pref": "奈良県",
    "city": "宇陀市",
    "sname": "大宇陀田原"
  },
  {
    "zip_code": 6332122,
    "pref": "奈良県",
    "city": "宇陀市",
    "sname": "大宇陀調子"
  },
  {
    "zip_code": 6332121,
    "pref": "奈良県",
    "city": "宇陀市",
    "sname": "大宇陀塚脇"
  },
  {
    "zip_code": 6332175,
    "pref": "奈良県",
    "city": "宇陀市",
    "sname": "大宇陀中新"
  },
  {
    "zip_code": 6332165,
    "pref": "奈良県",
    "city": "宇陀市",
    "sname": "大宇陀中庄"
  },
  {
    "zip_code": 6332115,
    "pref": "奈良県",
    "city": "宇陀市",
    "sname": "大宇陀西山"
  },
  {
    "zip_code": 6332103,
    "pref": "奈良県",
    "city": "宇陀市",
    "sname": "大宇陀野依"
  },
  {
    "zip_code": 6332166,
    "pref": "奈良県",
    "city": "宇陀市",
    "sname": "大宇陀迫間"
  },
  {
    "zip_code": 6332108,
    "pref": "奈良県",
    "city": "宇陀市",
    "sname": "大宇陀半阪"
  },
  {
    "zip_code": 6332135,
    "pref": "奈良県",
    "city": "宇陀市",
    "sname": "大宇陀東平尾"
  },
  {
    "zip_code": 6332102,
    "pref": "奈良県",
    "city": "宇陀市",
    "sname": "大宇陀平尾"
  },
  {
    "zip_code": 6332164,
    "pref": "奈良県",
    "city": "宇陀市",
    "sname": "大宇陀拾生"
  },
  {
    "zip_code": 6332123,
    "pref": "奈良県",
    "city": "宇陀市",
    "sname": "大宇陀藤井"
  },
  {
    "zip_code": 6332156,
    "pref": "奈良県",
    "city": "宇陀市",
    "sname": "大宇陀本郷"
  },
  {
    "zip_code": 6332143,
    "pref": "奈良県",
    "city": "宇陀市",
    "sname": "大宇陀牧"
  },
  {
    "zip_code": 6332106,
    "pref": "奈良県",
    "city": "宇陀市",
    "sname": "大宇陀馬取柿"
  },
  {
    "zip_code": 6332163,
    "pref": "奈良県",
    "city": "宇陀市",
    "sname": "大宇陀万六"
  },
  {
    "zip_code": 6332154,
    "pref": "奈良県",
    "city": "宇陀市",
    "sname": "大宇陀宮奥"
  },
  {
    "zip_code": 6332125,
    "pref": "奈良県",
    "city": "宇陀市",
    "sname": "大宇陀守道"
  },
  {
    "zip_code": 6332139,
    "pref": "奈良県",
    "city": "宇陀市",
    "sname": "大宇陀山口"
  },
  {
    "zip_code": 6332131,
    "pref": "奈良県",
    "city": "宇陀市",
    "sname": "大宇陀和田"
  },
  {
    "zip_code": 6330207,
    "pref": "奈良県",
    "city": "宇陀市",
    "sname": "榛原赤瀬"
  },
  {
    "zip_code": 6330256,
    "pref": "奈良県",
    "city": "宇陀市",
    "sname": "榛原あかね台"
  },
  {
    "zip_code": 6330213,
    "pref": "奈良県",
    "city": "宇陀市",
    "sname": "榛原赤埴"
  },
  {
    "zip_code": 6330231,
    "pref": "奈良県",
    "city": "宇陀市",
    "sname": "榛原足立"
  },
  {
    "zip_code": 6330243,
    "pref": "奈良県",
    "city": "宇陀市",
    "sname": "榛原雨師"
  },
  {
    "zip_code": 6330232,
    "pref": "奈良県",
    "city": "宇陀市",
    "sname": "榛原池上"
  },
  {
    "zip_code": 6330223,
    "pref": "奈良県",
    "city": "宇陀市",
    "sname": "榛原石田"
  },
  {
    "zip_code": 6330215,
    "pref": "奈良県",
    "city": "宇陀市",
    "sname": "榛原内牧"
  },
  {
    "zip_code": 6330225,
    "pref": "奈良県",
    "city": "宇陀市",
    "sname": "榛原大貝"
  },
  {
    "zip_code": 6330201,
    "pref": "奈良県",
    "city": "宇陀市",
    "sname": "榛原戒場"
  },
  {
    "zip_code": 6330245,
    "pref": "奈良県",
    "city": "宇陀市",
    "sname": "榛原笠間"
  },
  {
    "zip_code": 6330222,
    "pref": "奈良県",
    "city": "宇陀市",
    "sname": "榛原上井足"
  },
  {
    "zip_code": 6330228,
    "pref": "奈良県",
    "city": "宇陀市",
    "sname": "榛原栗谷"
  },
  {
    "zip_code": 6330252,
    "pref": "奈良県",
    "city": "宇陀市",
    "sname": "榛原桜が丘"
  },
  {
    "zip_code": 6330242,
    "pref": "奈良県",
    "city": "宇陀市",
    "sname": "榛原篠楽"
  },
  {
    "zip_code": 6330226,
    "pref": "奈良県",
    "city": "宇陀市",
    "sname": "榛原澤"
  },
  {
    "zip_code": 6330227,
    "pref": "奈良県",
    "city": "宇陀市",
    "sname": "榛原三宮寺"
  },
  {
    "zip_code": 6330217,
    "pref": "奈良県",
    "city": "宇陀市",
    "sname": "榛原自明"
  },
  {
    "zip_code": 6330241,
    "pref": "奈良県",
    "city": "宇陀市",
    "sname": "榛原下井足"
  },
  {
    "zip_code": 6330212,
    "pref": "奈良県",
    "city": "宇陀市",
    "sname": "榛原高井"
  },
  {
    "zip_code": 6330234,
    "pref": "奈良県",
    "city": "宇陀市",
    "sname": "榛原高塚"
  },
  {
    "zip_code": 6330254,
    "pref": "奈良県",
    "city": "宇陀市",
    "sname": "榛原高萩台"
  },
  {
    "zip_code": 6330255,
    "pref": "奈良県",
    "city": "宇陀市",
    "sname": "榛原角柄"
  },
  {
    "zip_code": 6330206,
    "pref": "奈良県",
    "city": "宇陀市",
    "sname": "榛原天満台西"
  },
  {
    "zip_code": 6330205,
    "pref": "奈良県",
    "city": "宇陀市",
    "sname": "榛原天満台東"
  },
  {
    "zip_code": 6330203,
    "pref": "奈良県",
    "city": "宇陀市",
    "sname": "榛原長峯"
  },
  {
    "zip_code": 6330211,
    "pref": "奈良県",
    "city": "宇陀市",
    "sname": "榛原荷阪"
  },
  {
    "zip_code": 6330208,
    "pref": "奈良県",
    "city": "宇陀市",
    "sname": "榛原額井"
  },
  {
    "zip_code": 6330221,
    "pref": "奈良県",
    "city": "宇陀市",
    "sname": "榛原萩乃里"
  },
  {
    "zip_code": 6330253,
    "pref": "奈良県",
    "city": "宇陀市",
    "sname": "榛原萩原"
  },
  {
    "zip_code": 6330257,
    "pref": "奈良県",
    "city": "宇陀市",
    "sname": "榛原榛見が丘"
  },
  {
    "zip_code": 6330251,
    "pref": "奈良県",
    "city": "宇陀市",
    "sname": "榛原ひのき坂"
  },
  {
    "zip_code": 6330218,
    "pref": "奈良県",
    "city": "宇陀市",
    "sname": "榛原檜牧"
  },
  {
    "zip_code": 6330235,
    "pref": "奈良県",
    "city": "宇陀市",
    "sname": "榛原比布"
  },
  {
    "zip_code": 6330204,
    "pref": "奈良県",
    "city": "宇陀市",
    "sname": "榛原福地"
  },
  {
    "zip_code": 6330233,
    "pref": "奈良県",
    "city": "宇陀市",
    "sname": "榛原福西"
  },
  {
    "zip_code": 6330236,
    "pref": "奈良県",
    "city": "宇陀市",
    "sname": "榛原母里"
  },
  {
    "zip_code": 6330214,
    "pref": "奈良県",
    "city": "宇陀市",
    "sname": "榛原諸木野"
  },
  {
    "zip_code": 6330244,
    "pref": "奈良県",
    "city": "宇陀市",
    "sname": "榛原安田"
  },
  {
    "zip_code": 6330216,
    "pref": "奈良県",
    "city": "宇陀市",
    "sname": "榛原八滝"
  },
  {
    "zip_code": 6330246,
    "pref": "奈良県",
    "city": "宇陀市",
    "sname": "榛原柳"
  },
  {
    "zip_code": 6330224,
    "pref": "奈良県",
    "city": "宇陀市",
    "sname": "榛原山路"
  },
  {
    "zip_code": 6330202,
    "pref": "奈良県",
    "city": "宇陀市",
    "sname": "榛原山辺三"
  },
  {
    "zip_code": 6330421,
    "pref": "奈良県",
    "city": "宇陀市",
    "sname": "室生"
  },
  {
    "zip_code": 6330315,
    "pref": "奈良県",
    "city": "宇陀市",
    "sname": "室生大野"
  },
  {
    "zip_code": 6320204,
    "pref": "奈良県",
    "city": "宇陀市",
    "sname": "室生小原"
  },
  {
    "zip_code": 6320202,
    "pref": "奈良県",
    "city": "宇陀市",
    "sname": "室生上笠間"
  },
  {
    "zip_code": 6330425,
    "pref": "奈良県",
    "city": "宇陀市",
    "sname": "室生黒岩"
  },
  {
    "zip_code": 6330317,
    "pref": "奈良県",
    "city": "宇陀市",
    "sname": "室生三本松"
  },
  {
    "zip_code": 6320201,
    "pref": "奈良県",
    "city": "宇陀市",
    "sname": "室生下笠間"
  },
  {
    "zip_code": 6330422,
    "pref": "奈良県",
    "city": "宇陀市",
    "sname": "室生下田口"
  },
  {
    "zip_code": 6320205,
    "pref": "奈良県",
    "city": "宇陀市",
    "sname": "室生染田"
  },
  {
    "zip_code": 6330313,
    "pref": "奈良県",
    "city": "宇陀市",
    "sname": "室生瀧谷"
  },
  {
    "zip_code": 6330424,
    "pref": "奈良県",
    "city": "宇陀市",
    "sname": "室生田口元上田口"
  },
  {
    "zip_code": 6330423,
    "pref": "奈良県",
    "city": "宇陀市",
    "sname": "室生田口元角川"
  },
  {
    "zip_code": 6320206,
    "pref": "奈良県",
    "city": "宇陀市",
    "sname": "室生多田"
  },
  {
    "zip_code": 6330314,
    "pref": "奈良県",
    "city": "宇陀市",
    "sname": "室生砥取"
  },
  {
    "zip_code": 6330312,
    "pref": "奈良県",
    "city": "宇陀市",
    "sname": "室生西谷"
  },
  {
    "zip_code": 6320203,
    "pref": "奈良県",
    "city": "宇陀市",
    "sname": "室生深野"
  },
  {
    "zip_code": 6330316,
    "pref": "奈良県",
    "city": "宇陀市",
    "sname": "室生向渕"
  },
  {
    "zip_code": 6320207,
    "pref": "奈良県",
    "city": "宇陀市",
    "sname": "室生無山"
  },
  {
    "zip_code": 6330311,
    "pref": "奈良県",
    "city": "宇陀市",
    "sname": "室生龍口"
  },
  {
    "zip_code": 6300000,
    "pref": "奈良県",
    "city": "山添村",
    "sname": ""
  },
  {
    "zip_code": 6302232,
    "pref": "奈良県",
    "city": "山添村",
    "sname": "岩屋"
  },
  {
    "zip_code": 6302355,
    "pref": "奈良県",
    "city": "山添村",
    "sname": "鵜山"
  },
  {
    "zip_code": 6302212,
    "pref": "奈良県",
    "city": "山添村",
    "sname": "大塩"
  },
  {
    "zip_code": 6302344,
    "pref": "奈良県",
    "city": "山添村",
    "sname": "大西"
  },
  {
    "zip_code": 6302341,
    "pref": "奈良県",
    "city": "山添村",
    "sname": "遅瀬"
  },
  {
    "zip_code": 6302343,
    "pref": "奈良県",
    "city": "山添村",
    "sname": "春日"
  },
  {
    "zip_code": 6302356,
    "pref": "奈良県",
    "city": "山添村",
    "sname": "片平"
  },
  {
    "zip_code": 6302231,
    "pref": "奈良県",
    "city": "山添村",
    "sname": "勝原"
  },
  {
    "zip_code": 6302211,
    "pref": "奈良県",
    "city": "山添村",
    "sname": "北野"
  },
  {
    "zip_code": 6302234,
    "pref": "奈良県",
    "city": "山添村",
    "sname": "切幡"
  },
  {
    "zip_code": 6302205,
    "pref": "奈良県",
    "city": "山添村",
    "sname": "桐山"
  },
  {
    "zip_code": 6302357,
    "pref": "奈良県",
    "city": "山添村",
    "sname": "葛尾"
  },
  {
    "zip_code": 6302233,
    "pref": "奈良県",
    "city": "山添村",
    "sname": "毛原"
  },
  {
    "zip_code": 6302345,
    "pref": "奈良県",
    "city": "山添村",
    "sname": "菅生"
  },
  {
    "zip_code": 6302224,
    "pref": "奈良県",
    "city": "山添村",
    "sname": "助命"
  },
  {
    "zip_code": 6302351,
    "pref": "奈良県",
    "city": "山添村",
    "sname": "中峰山"
  },
  {
    "zip_code": 6302222,
    "pref": "奈良県",
    "city": "山添村",
    "sname": "堂前"
  },
  {
    "zip_code": 6302352,
    "pref": "奈良県",
    "city": "山添村",
    "sname": "中之庄"
  },
  {
    "zip_code": 6302346,
    "pref": "奈良県",
    "city": "山添村",
    "sname": "西波多"
  },
  {
    "zip_code": 6302354,
    "pref": "奈良県",
    "city": "山添村",
    "sname": "広瀬"
  },
  {
    "zip_code": 6302342,
    "pref": "奈良県",
    "city": "山添村",
    "sname": "広代"
  },
  {
    "zip_code": 6302225,
    "pref": "奈良県",
    "city": "山添村",
    "sname": "伏拝"
  },
  {
    "zip_code": 6302203,
    "pref": "奈良県",
    "city": "山添村",
    "sname": "松尾"
  },
  {
    "zip_code": 6302202,
    "pref": "奈良県",
    "city": "山添村",
    "sname": "的野"
  },
  {
    "zip_code": 6302223,
    "pref": "奈良県",
    "city": "山添村",
    "sname": "三ケ谷"
  },
  {
    "zip_code": 6302201,
    "pref": "奈良県",
    "city": "山添村",
    "sname": "峰寺"
  },
  {
    "zip_code": 6302221,
    "pref": "奈良県",
    "city": "山添村",
    "sname": "箕輪"
  },
  {
    "zip_code": 6302204,
    "pref": "奈良県",
    "city": "山添村",
    "sname": "室津"
  },
  {
    "zip_code": 6302353,
    "pref": "奈良県",
    "city": "山添村",
    "sname": "吉田"
  },
  {
    "zip_code": 6360000,
    "pref": "奈良県",
    "city": "平群町",
    "sname": ""
  },
  {
    "zip_code": 6360944,
    "pref": "奈良県",
    "city": "平群町",
    "sname": "櫟原"
  },
  {
    "zip_code": 6360915,
    "pref": "奈良県",
    "city": "平群町",
    "sname": "春日丘"
  },
  {
    "zip_code": 6360905,
    "pref": "奈良県",
    "city": "平群町",
    "sname": "上庄"
  },
  {
    "zip_code": 6360906,
    "pref": "奈良県",
    "city": "平群町",
    "sname": "菊美台"
  },
  {
    "zip_code": 6360913,
    "pref": "奈良県",
    "city": "平群町",
    "sname": "北信貴ケ丘"
  },
  {
    "zip_code": 6360924,
    "pref": "奈良県",
    "city": "平群町",
    "sname": "久安寺"
  },
  {
    "zip_code": 6360925,
    "pref": "奈良県",
    "city": "平群町",
    "sname": "越木塚"
  },
  {
    "zip_code": 6360923,
    "pref": "奈良県",
    "city": "平群町",
    "sname": "信貴山"
  },
  {
    "zip_code": 6360922,
    "pref": "奈良県",
    "city": "平群町",
    "sname": "信貴畑"
  },
  {
    "zip_code": 6360901,
    "pref": "奈良県",
    "city": "平群町",
    "sname": "椣原"
  },
  {
    "zip_code": 6360933,
    "pref": "奈良県",
    "city": "平群町",
    "sname": "下垣内"
  },
  {
    "zip_code": 6360902,
    "pref": "奈良県",
    "city": "平群町",
    "sname": "白石畑"
  },
  {
    "zip_code": 6360912,
    "pref": "奈良県",
    "city": "平群町",
    "sname": "竜田川"
  },
  {
    "zip_code": 6360911,
    "pref": "奈良県",
    "city": "平群町",
    "sname": "椿井"
  },
  {
    "zip_code": 6360943,
    "pref": "奈良県",
    "city": "平群町",
    "sname": "椿台"
  },
  {
    "zip_code": 6360931,
    "pref": "奈良県",
    "city": "平群町",
    "sname": "梨本"
  },
  {
    "zip_code": 6360945,
    "pref": "奈良県",
    "city": "平群町",
    "sname": "鳴川"
  },
  {
    "zip_code": 6360914,
    "pref": "奈良県",
    "city": "平群町",
    "sname": "西宮"
  },
  {
    "zip_code": 6360942,
    "pref": "奈良県",
    "city": "平群町",
    "sname": "西向"
  },
  {
    "zip_code": 6360934,
    "pref": "奈良県",
    "city": "平群町",
    "sname": "初香台"
  },
  {
    "zip_code": 6360935,
    "pref": "奈良県",
    "city": "平群町",
    "sname": "光ケ丘"
  },
  {
    "zip_code": 6360903,
    "pref": "奈良県",
    "city": "平群町",
    "sname": "平等寺"
  },
  {
    "zip_code": 6360936,
    "pref": "奈良県",
    "city": "平群町",
    "sname": "福貴"
  },
  {
    "zip_code": 6360937,
    "pref": "奈良県",
    "city": "平群町",
    "sname": "福貴畑"
  },
  {
    "zip_code": 6360921,
    "pref": "奈良県",
    "city": "平群町",
    "sname": "椹原"
  },
  {
    "zip_code": 6360904,
    "pref": "奈良県",
    "city": "平群町",
    "sname": "三里"
  },
  {
    "zip_code": 6360941,
    "pref": "奈良県",
    "city": "平群町",
    "sname": "緑ケ丘"
  },
  {
    "zip_code": 6360932,
    "pref": "奈良県",
    "city": "平群町",
    "sname": "吉新"
  },
  {
    "zip_code": 6360916,
    "pref": "奈良県",
    "city": "平群町",
    "sname": "若井"
  },
  {
    "zip_code": 6360938,
    "pref": "奈良県",
    "city": "平群町",
    "sname": "若葉台"
  },
  {
    "zip_code": 6360000,
    "pref": "奈良県",
    "city": "三郷町",
    "sname": ""
  },
  {
    "zip_code": 6360813,
    "pref": "奈良県",
    "city": "三郷町",
    "sname": "信貴ケ丘"
  },
  {
    "zip_code": 6360831,
    "pref": "奈良県",
    "city": "三郷町",
    "sname": "信貴山東"
  },
  {
    "zip_code": 6360832,
    "pref": "奈良県",
    "city": "三郷町",
    "sname": "信貴山西"
  },
  {
    "zip_code": 6360833,
    "pref": "奈良県",
    "city": "三郷町",
    "sname": "信貴南畑"
  },
  {
    "zip_code": 6360824,
    "pref": "奈良県",
    "city": "三郷町",
    "sname": "城山台"
  },
  {
    "zip_code": 6360814,
    "pref": "奈良県",
    "city": "三郷町",
    "sname": "勢野"
  },
  {
    "zip_code": 6360815,
    "pref": "奈良県",
    "city": "三郷町",
    "sname": "勢野北"
  },
  {
    "zip_code": 6360811,
    "pref": "奈良県",
    "city": "三郷町",
    "sname": "勢野東"
  },
  {
    "zip_code": 6360812,
    "pref": "奈良県",
    "city": "三郷町",
    "sname": "勢野西"
  },
  {
    "zip_code": 6360823,
    "pref": "奈良県",
    "city": "三郷町",
    "sname": "立野"
  },
  {
    "zip_code": 6360822,
    "pref": "奈良県",
    "city": "三郷町",
    "sname": "立野南"
  },
  {
    "zip_code": 6360821,
    "pref": "奈良県",
    "city": "三郷町",
    "sname": "立野北"
  },
  {
    "zip_code": 6360803,
    "pref": "奈良県",
    "city": "三郷町",
    "sname": "東信貴ケ丘"
  },
  {
    "zip_code": 6360834,
    "pref": "奈良県",
    "city": "三郷町",
    "sname": "南畑"
  },
  {
    "zip_code": 6360805,
    "pref": "奈良県",
    "city": "三郷町",
    "sname": "美松ケ丘東"
  },
  {
    "zip_code": 6360804,
    "pref": "奈良県",
    "city": "三郷町",
    "sname": "美松ケ丘西"
  },
  {
    "zip_code": 6360802,
    "pref": "奈良県",
    "city": "三郷町",
    "sname": "三室"
  },
  {
    "zip_code": 6360801,
    "pref": "奈良県",
    "city": "三郷町",
    "sname": "夕陽ケ丘"
  },
  {
    "zip_code": 6360100,
    "pref": "奈良県",
    "city": "斑鳩町",
    "sname": ""
  },
  {
    "zip_code": 6360122,
    "pref": "奈良県",
    "city": "斑鳩町",
    "sname": "阿波"
  },
  {
    "zip_code": 6360124,
    "pref": "奈良県",
    "city": "斑鳩町",
    "sname": "五百井"
  },
  {
    "zip_code": 6360144,
    "pref": "奈良県",
    "city": "斑鳩町",
    "sname": "稲葉西"
  },
  {
    "zip_code": 6360141,
    "pref": "奈良県",
    "city": "斑鳩町",
    "sname": "稲葉車瀬"
  },
  {
    "zip_code": 6360102,
    "pref": "奈良県",
    "city": "斑鳩町",
    "sname": "岡本"
  },
  {
    "zip_code": 6360123,
    "pref": "奈良県",
    "city": "斑鳩町",
    "sname": "興留"
  },
  {
    "zip_code": 6360121,
    "pref": "奈良県",
    "city": "斑鳩町",
    "sname": "興留東"
  },
  {
    "zip_code": 6360103,
    "pref": "奈良県",
    "city": "斑鳩町",
    "sname": "幸前"
  },
  {
    "zip_code": 6360142,
    "pref": "奈良県",
    "city": "斑鳩町",
    "sname": "小吉田"
  },
  {
    "zip_code": 6360143,
    "pref": "奈良県",
    "city": "斑鳩町",
    "sname": "神南"
  },
  {
    "zip_code": 6360104,
    "pref": "奈良県",
    "city": "斑鳩町",
    "sname": "高安"
  },
  {
    "zip_code": 6360106,
    "pref": "奈良県",
    "city": "斑鳩町",
    "sname": "高安西"
  },
  {
    "zip_code": 6360152,
    "pref": "奈良県",
    "city": "斑鳩町",
    "sname": "龍田"
  },
  {
    "zip_code": 6360154,
    "pref": "奈良県",
    "city": "斑鳩町",
    "sname": "龍田西"
  },
  {
    "zip_code": 6360153,
    "pref": "奈良県",
    "city": "斑鳩町",
    "sname": "龍田南"
  },
  {
    "zip_code": 6360151,
    "pref": "奈良県",
    "city": "斑鳩町",
    "sname": "龍田北"
  },
  {
    "zip_code": 6360105,
    "pref": "奈良県",
    "city": "斑鳩町",
    "sname": "東福寺"
  },
  {
    "zip_code": 6360131,
    "pref": "奈良県",
    "city": "斑鳩町",
    "sname": "服部"
  },
  {
    "zip_code": 6360116,
    "pref": "奈良県",
    "city": "斑鳩町",
    "sname": "法隆寺"
  },
  {
    "zip_code": 6360115,
    "pref": "奈良県",
    "city": "斑鳩町",
    "sname": "法隆寺山内"
  },
  {
    "zip_code": 6360112,
    "pref": "奈良県",
    "city": "斑鳩町",
    "sname": "法隆寺東"
  },
  {
    "zip_code": 6360114,
    "pref": "奈良県",
    "city": "斑鳩町",
    "sname": "法隆寺西"
  },
  {
    "zip_code": 6360113,
    "pref": "奈良県",
    "city": "斑鳩町",
    "sname": "法隆寺南"
  },
  {
    "zip_code": 6360111,
    "pref": "奈良県",
    "city": "斑鳩町",
    "sname": "法隆寺北"
  },
  {
    "zip_code": 6360101,
    "pref": "奈良県",
    "city": "斑鳩町",
    "sname": "三井"
  },
  {
    "zip_code": 6360132,
    "pref": "奈良県",
    "city": "斑鳩町",
    "sname": "目安"
  },
  {
    "zip_code": 6360133,
    "pref": "奈良県",
    "city": "斑鳩町",
    "sname": "目安北"
  },
  {
    "zip_code": 6391100,
    "pref": "奈良県",
    "city": "安堵町",
    "sname": ""
  },
  {
    "zip_code": 6391062,
    "pref": "奈良県",
    "city": "安堵町",
    "sname": "岡崎"
  },
  {
    "zip_code": 6391065,
    "pref": "奈良県",
    "city": "安堵町",
    "sname": "笠目"
  },
  {
    "zip_code": 6391063,
    "pref": "奈良県",
    "city": "安堵町",
    "sname": "かしの木台"
  },
  {
    "zip_code": 6391064,
    "pref": "奈良県",
    "city": "安堵町",
    "sname": "窪田"
  },
  {
    "zip_code": 6391066,
    "pref": "奈良県",
    "city": "安堵町",
    "sname": "西安堵"
  },
  {
    "zip_code": 6391061,
    "pref": "奈良県",
    "city": "安堵町",
    "sname": "東安堵"
  },
  {
    "zip_code": 6360300,
    "pref": "奈良県",
    "city": "川西町",
    "sname": ""
  },
  {
    "zip_code": 6360203,
    "pref": "奈良県",
    "city": "川西町",
    "sname": "梅戸"
  },
  {
    "zip_code": 6360201,
    "pref": "奈良県",
    "city": "川西町",
    "sname": "下永"
  },
  {
    "zip_code": 6360204,
    "pref": "奈良県",
    "city": "川西町",
    "sname": "唐院"
  },
  {
    "zip_code": 6360206,
    "pref": "奈良県",
    "city": "川西町",
    "sname": "吐田"
  },
  {
    "zip_code": 6360205,
    "pref": "奈良県",
    "city": "川西町",
    "sname": "保田"
  },
  {
    "zip_code": 6360202,
    "pref": "奈良県",
    "city": "川西町",
    "sname": "結崎"
  },
  {
    "zip_code": 6360300,
    "pref": "奈良県",
    "city": "三宅町",
    "sname": ""
  },
  {
    "zip_code": 6360212,
    "pref": "奈良県",
    "city": "三宅町",
    "sname": "石見"
  },
  {
    "zip_code": 6360216,
    "pref": "奈良県",
    "city": "三宅町",
    "sname": "小柳"
  },
  {
    "zip_code": 6360215,
    "pref": "奈良県",
    "city": "三宅町",
    "sname": "上但馬"
  },
  {
    "zip_code": 6360214,
    "pref": "奈良県",
    "city": "三宅町",
    "sname": "但馬"
  },
  {
    "zip_code": 6360213,
    "pref": "奈良県",
    "city": "三宅町",
    "sname": "伴堂"
  },
  {
    "zip_code": 6360217,
    "pref": "奈良県",
    "city": "三宅町",
    "sname": "屏風"
  },
  {
    "zip_code": 6360211,
    "pref": "奈良県",
    "city": "三宅町",
    "sname": "三河"
  },
  {
    "zip_code": 6360300,
    "pref": "奈良県",
    "city": "田原本町",
    "sname": ""
  },
  {
    "zip_code": 6360313,
    "pref": "奈良県",
    "city": "田原本町",
    "sname": "旭町"
  },
  {
    "zip_code": 6360245,
    "pref": "奈良県",
    "city": "田原本町",
    "sname": "味間"
  },
  {
    "zip_code": 6360329,
    "pref": "奈良県",
    "city": "田原本町",
    "sname": "味間町"
  },
  {
    "zip_code": 6360332,
    "pref": "奈良県",
    "city": "田原本町",
    "sname": "市町"
  },
  {
    "zip_code": 6360224,
    "pref": "奈良県",
    "city": "田原本町",
    "sname": "今里"
  },
  {
    "zip_code": 6360243,
    "pref": "奈良県",
    "city": "田原本町",
    "sname": "伊与戸"
  },
  {
    "zip_code": 6360331,
    "pref": "奈良県",
    "city": "田原本町",
    "sname": "魚町"
  },
  {
    "zip_code": 6360314,
    "pref": "奈良県",
    "city": "田原本町",
    "sname": "戎通"
  },
  {
    "zip_code": 6360345,
    "pref": "奈良県",
    "city": "田原本町",
    "sname": "多"
  },
  {
    "zip_code": 6360353,
    "pref": "奈良県",
    "city": "田原本町",
    "sname": "大網"
  },
  {
    "zip_code": 6360242,
    "pref": "奈良県",
    "city": "田原本町",
    "sname": "大木"
  },
  {
    "zip_code": 6360223,
    "pref": "奈良県",
    "city": "田原本町",
    "sname": "鍵"
  },
  {
    "zip_code": 6360322,
    "pref": "奈良県",
    "city": "田原本町",
    "sname": "郭内"
  },
  {
    "zip_code": 6360244,
    "pref": "奈良県",
    "city": "田原本町",
    "sname": "笠形"
  },
  {
    "zip_code": 6360232,
    "pref": "奈良県",
    "city": "田原本町",
    "sname": "金沢"
  },
  {
    "zip_code": 6360226,
    "pref": "奈良県",
    "city": "田原本町",
    "sname": "唐古"
  },
  {
    "zip_code": 6360333,
    "pref": "奈良県",
    "city": "田原本町",
    "sname": "祗園町"
  },
  {
    "zip_code": 6360234,
    "pref": "奈良県",
    "city": "田原本町",
    "sname": "蔵堂"
  },
  {
    "zip_code": 6360301,
    "pref": "奈良県",
    "city": "田原本町",
    "sname": "黒田"
  },
  {
    "zip_code": 6360237,
    "pref": "奈良県",
    "city": "田原本町",
    "sname": "小阪"
  },
  {
    "zip_code": 6360339,
    "pref": "奈良県",
    "city": "田原本町",
    "sname": "小室"
  },
  {
    "zip_code": 6360352,
    "pref": "奈良県",
    "city": "田原本町",
    "sname": "金剛寺"
  },
  {
    "zip_code": 6360328,
    "pref": "奈良県",
    "city": "田原本町",
    "sname": "材木町"
  },
  {
    "zip_code": 6360315,
    "pref": "奈良県",
    "city": "田原本町",
    "sname": "幸町"
  },
  {
    "zip_code": 6360327,
    "pref": "奈良県",
    "city": "田原本町",
    "sname": "堺町"
  },
  {
    "zip_code": 6360247,
    "pref": "奈良県",
    "city": "田原本町",
    "sname": "阪手"
  },
  {
    "zip_code": 6360355,
    "pref": "奈良県",
    "city": "田原本町",
    "sname": "佐味"
  },
  {
    "zip_code": 6360304,
    "pref": "奈良県",
    "city": "田原本町",
    "sname": "十六面"
  },
  {
    "zip_code": 6360326,
    "pref": "奈良県",
    "city": "田原本町",
    "sname": "新地"
  },
  {
    "zip_code": 6360312,
    "pref": "奈良県",
    "city": "田原本町",
    "sname": "新町"
  },
  {
    "zip_code": 6360233,
    "pref": "奈良県",
    "city": "田原本町",
    "sname": "為川南方"
  },
  {
    "zip_code": 6360231,
    "pref": "奈良県",
    "city": "田原本町",
    "sname": "為川北方"
  },
  {
    "zip_code": 6360248,
    "pref": "奈良県",
    "city": "田原本町",
    "sname": "大安寺"
  },
  {
    "zip_code": 6360336,
    "pref": "奈良県",
    "city": "田原本町",
    "sname": "大門中"
  },
  {
    "zip_code": 6360335,
    "pref": "奈良県",
    "city": "田原本町",
    "sname": "大門東"
  },
  {
    "zip_code": 6360337,
    "pref": "奈良県",
    "city": "田原本町",
    "sname": "大門西"
  },
  {
    "zip_code": 6360246,
    "pref": "奈良県",
    "city": "田原本町",
    "sname": "千代"
  },
  {
    "zip_code": 6360338,
    "pref": "奈良県",
    "city": "田原本町",
    "sname": "茶町"
  },
  {
    "zip_code": 6360317,
    "pref": "奈良県",
    "city": "田原本町",
    "sname": "殿町"
  },
  {
    "zip_code": 6360307,
    "pref": "奈良県",
    "city": "田原本町",
    "sname": "富本"
  },
  {
    "zip_code": 6360347,
    "pref": "奈良県",
    "city": "田原本町",
    "sname": "新木"
  },
  {
    "zip_code": 6360236,
    "pref": "奈良県",
    "city": "田原本町",
    "sname": "西井上"
  },
  {
    "zip_code": 6360306,
    "pref": "奈良県",
    "city": "田原本町",
    "sname": "西竹田"
  },
  {
    "zip_code": 6360225,
    "pref": "奈良県",
    "city": "田原本町",
    "sname": "西代"
  },
  {
    "zip_code": 6360323,
    "pref": "奈良県",
    "city": "田原本町",
    "sname": "根太口"
  },
  {
    "zip_code": 6360343,
    "pref": "奈良県",
    "city": "田原本町",
    "sname": "秦庄"
  },
  {
    "zip_code": 6360221,
    "pref": "奈良県",
    "city": "田原本町",
    "sname": "八田"
  },
  {
    "zip_code": 6360235,
    "pref": "奈良県",
    "city": "田原本町",
    "sname": "東井上"
  },
  {
    "zip_code": 6360241,
    "pref": "奈良県",
    "city": "田原本町",
    "sname": "平田"
  },
  {
    "zip_code": 6360305,
    "pref": "奈良県",
    "city": "田原本町",
    "sname": "平野"
  },
  {
    "zip_code": 6360222,
    "pref": "奈良県",
    "city": "田原本町",
    "sname": "法貴寺"
  },
  {
    "zip_code": 6360303,
    "pref": "奈良県",
    "city": "田原本町",
    "sname": "保津"
  },
  {
    "zip_code": 6360334,
    "pref": "奈良県",
    "city": "田原本町",
    "sname": "本町"
  },
  {
    "zip_code": 6360351,
    "pref": "奈良県",
    "city": "田原本町",
    "sname": "松本"
  },
  {
    "zip_code": 6360354,
    "pref": "奈良県",
    "city": "田原本町",
    "sname": "満田"
  },
  {
    "zip_code": 6360342,
    "pref": "奈良県",
    "city": "田原本町",
    "sname": "三笠"
  },
  {
    "zip_code": 6360325,
    "pref": "奈良県",
    "city": "田原本町",
    "sname": "南町"
  },
  {
    "zip_code": 6360302,
    "pref": "奈良県",
    "city": "田原本町",
    "sname": "宮古"
  },
  {
    "zip_code": 6360344,
    "pref": "奈良県",
    "city": "田原本町",
    "sname": "宮森"
  },
  {
    "zip_code": 6360324,
    "pref": "奈良県",
    "city": "田原本町",
    "sname": "三輪町"
  },
  {
    "zip_code": 6360316,
    "pref": "奈良県",
    "city": "田原本町",
    "sname": "室町"
  },
  {
    "zip_code": 6360311,
    "pref": "奈良県",
    "city": "田原本町",
    "sname": "八尾"
  },
  {
    "zip_code": 6360341,
    "pref": "奈良県",
    "city": "田原本町",
    "sname": "薬王寺"
  },
  {
    "zip_code": 6360321,
    "pref": "奈良県",
    "city": "田原本町",
    "sname": "八幡町"
  },
  {
    "zip_code": 6360346,
    "pref": "奈良県",
    "city": "田原本町",
    "sname": "矢部"
  },
  {
    "zip_code": 6331200,
    "pref": "奈良県",
    "city": "曽爾村",
    "sname": ""
  },
  {
    "zip_code": 6331201,
    "pref": "奈良県",
    "city": "曽爾村",
    "sname": "伊賀見"
  },
  {
    "zip_code": 6331212,
    "pref": "奈良県",
    "city": "曽爾村",
    "sname": "今井"
  },
  {
    "zip_code": 6331215,
    "pref": "奈良県",
    "city": "曽爾村",
    "sname": "掛"
  },
  {
    "zip_code": 6331203,
    "pref": "奈良県",
    "city": "曽爾村",
    "sname": "葛"
  },
  {
    "zip_code": 6331213,
    "pref": "奈良県",
    "city": "曽爾村",
    "sname": "小長尾"
  },
  {
    "zip_code": 6331211,
    "pref": "奈良県",
    "city": "曽爾村",
    "sname": "塩井"
  },
  {
    "zip_code": 6331202,
    "pref": "奈良県",
    "city": "曽爾村",
    "sname": "太良路"
  },
  {
    "zip_code": 6331214,
    "pref": "奈良県",
    "city": "曽爾村",
    "sname": "長野"
  },
  {
    "zip_code": 6331216,
    "pref": "奈良県",
    "city": "曽爾村",
    "sname": "山粕"
  },
  {
    "zip_code": 6331300,
    "pref": "奈良県",
    "city": "御杖村",
    "sname": ""
  },
  {
    "zip_code": 6331301,
    "pref": "奈良県",
    "city": "御杖村",
    "sname": "神末"
  },
  {
    "zip_code": 6331302,
    "pref": "奈良県",
    "city": "御杖村",
    "sname": "菅野"
  },
  {
    "zip_code": 6331303,
    "pref": "奈良県",
    "city": "御杖村",
    "sname": "土屋原"
  },
  {
    "zip_code": 6331304,
    "pref": "奈良県",
    "city": "御杖村",
    "sname": "桃俣"
  },
  {
    "zip_code": 6350100,
    "pref": "奈良県",
    "city": "高取町",
    "sname": ""
  },
  {
    "zip_code": 6350123,
    "pref": "奈良県",
    "city": "高取町",
    "sname": "市尾"
  },
  {
    "zip_code": 6350144,
    "pref": "奈良県",
    "city": "高取町",
    "sname": "越智"
  },
  {
    "zip_code": 6350104,
    "pref": "奈良県",
    "city": "高取町",
    "sname": "上子島"
  },
  {
    "zip_code": 6350152,
    "pref": "奈良県",
    "city": "高取町",
    "sname": "上土佐"
  },
  {
    "zip_code": 6350154,
    "pref": "奈良県",
    "city": "高取町",
    "sname": "観覚寺"
  },
  {
    "zip_code": 6350133,
    "pref": "奈良県",
    "city": "高取町",
    "sname": "吉備"
  },
  {
    "zip_code": 6350143,
    "pref": "奈良県",
    "city": "高取町",
    "sname": "車木"
  },
  {
    "zip_code": 6350131,
    "pref": "奈良県",
    "city": "高取町",
    "sname": "佐田"
  },
  {
    "zip_code": 6350134,
    "pref": "奈良県",
    "city": "高取町",
    "sname": "薩摩"
  },
  {
    "zip_code": 6350103,
    "pref": "奈良県",
    "city": "高取町",
    "sname": "清水谷"
  },
  {
    "zip_code": 6350151,
    "pref": "奈良県",
    "city": "高取町",
    "sname": "下子島"
  },
  {
    "zip_code": 6350153,
    "pref": "奈良県",
    "city": "高取町",
    "sname": "下土佐"
  },
  {
    "zip_code": 6350135,
    "pref": "奈良県",
    "city": "高取町",
    "sname": "田井庄"
  },
  {
    "zip_code": 6350101,
    "pref": "奈良県",
    "city": "高取町",
    "sname": "高取"
  },
  {
    "zip_code": 6350102,
    "pref": "奈良県",
    "city": "高取町",
    "sname": "壺阪"
  },
  {
    "zip_code": 6350142,
    "pref": "奈良県",
    "city": "高取町",
    "sname": "寺崎"
  },
  {
    "zip_code": 6350121,
    "pref": "奈良県",
    "city": "高取町",
    "sname": "丹生谷"
  },
  {
    "zip_code": 6350136,
    "pref": "奈良県",
    "city": "高取町",
    "sname": "兵庫"
  },
  {
    "zip_code": 6350112,
    "pref": "奈良県",
    "city": "高取町",
    "sname": "藤井"
  },
  {
    "zip_code": 6350113,
    "pref": "奈良県",
    "city": "高取町",
    "sname": "羽内"
  },
  {
    "zip_code": 6350111,
    "pref": "奈良県",
    "city": "高取町",
    "sname": "松山"
  },
  {
    "zip_code": 6350132,
    "pref": "奈良県",
    "city": "高取町",
    "sname": "森"
  },
  {
    "zip_code": 6350122,
    "pref": "奈良県",
    "city": "高取町",
    "sname": "谷田"
  },
  {
    "zip_code": 6350141,
    "pref": "奈良県",
    "city": "高取町",
    "sname": "与楽"
  },
  {
    "zip_code": 6340100,
    "pref": "奈良県",
    "city": "明日香村",
    "sname": ""
  },
  {
    "zip_code": 6340103,
    "pref": "奈良県",
    "city": "明日香村",
    "sname": "飛鳥"
  },
  {
    "zip_code": 6340134,
    "pref": "奈良県",
    "city": "明日香村",
    "sname": "阿部山"
  },
  {
    "zip_code": 6340108,
    "pref": "奈良県",
    "city": "明日香村",
    "sname": "雷"
  },
  {
    "zip_code": 6340123,
    "pref": "奈良県",
    "city": "明日香村",
    "sname": "稲渕"
  },
  {
    "zip_code": 6340121,
    "pref": "奈良県",
    "city": "明日香村",
    "sname": "祝戸"
  },
  {
    "zip_code": 6340116,
    "pref": "奈良県",
    "city": "明日香村",
    "sname": "尾曽"
  },
  {
    "zip_code": 6340133,
    "pref": "奈良県",
    "city": "明日香村",
    "sname": "大根田"
  },
  {
    "zip_code": 6340111,
    "pref": "奈良県",
    "city": "明日香村",
    "sname": "岡"
  },
  {
    "zip_code": 6340102,
    "pref": "奈良県",
    "city": "明日香村",
    "sname": "奥山"
  },
  {
    "zip_code": 6340106,
    "pref": "奈良県",
    "city": "明日香村",
    "sname": "小原"
  },
  {
    "zip_code": 6340115,
    "pref": "奈良県",
    "city": "明日香村",
    "sname": "上"
  },
  {
    "zip_code": 6340124,
    "pref": "奈良県",
    "city": "明日香村",
    "sname": "栢森"
  },
  {
    "zip_code": 6340141,
    "pref": "奈良県",
    "city": "明日香村",
    "sname": "川原"
  },
  {
    "zip_code": 6340132,
    "pref": "奈良県",
    "city": "明日香村",
    "sname": "栗原"
  },
  {
    "zip_code": 6340138,
    "pref": "奈良県",
    "city": "明日香村",
    "sname": "越"
  },
  {
    "zip_code": 6340101,
    "pref": "奈良県",
    "city": "明日香村",
    "sname": "小山"
  },
  {
    "zip_code": 6340122,
    "pref": "奈良県",
    "city": "明日香村",
    "sname": "阪田"
  },
  {
    "zip_code": 6340136,
    "pref": "奈良県",
    "city": "明日香村",
    "sname": "地ノ窪"
  },
  {
    "zip_code": 6340112,
    "pref": "奈良県",
    "city": "明日香村",
    "sname": "島庄"
  },
  {
    "zip_code": 6340113,
    "pref": "奈良県",
    "city": "明日香村",
    "sname": "上居"
  },
  {
    "zip_code": 6340142,
    "pref": "奈良県",
    "city": "明日香村",
    "sname": "橘"
  },
  {
    "zip_code": 6340143,
    "pref": "奈良県",
    "city": "明日香村",
    "sname": "立部"
  },
  {
    "zip_code": 6340107,
    "pref": "奈良県",
    "city": "明日香村",
    "sname": "豊浦"
  },
  {
    "zip_code": 6340125,
    "pref": "奈良県",
    "city": "明日香村",
    "sname": "入谷"
  },
  {
    "zip_code": 6340145,
    "pref": "奈良県",
    "city": "明日香村",
    "sname": "野口"
  },
  {
    "zip_code": 6340118,
    "pref": "奈良県",
    "city": "明日香村",
    "sname": "畑"
  },
  {
    "zip_code": 6340105,
    "pref": "奈良県",
    "city": "明日香村",
    "sname": "東山"
  },
  {
    "zip_code": 6340135,
    "pref": "奈良県",
    "city": "明日香村",
    "sname": "檜前"
  },
  {
    "zip_code": 6340144,
    "pref": "奈良県",
    "city": "明日香村",
    "sname": "平田"
  },
  {
    "zip_code": 6340117,
    "pref": "奈良県",
    "city": "明日香村",
    "sname": "冬野"
  },
  {
    "zip_code": 6340114,
    "pref": "奈良県",
    "city": "明日香村",
    "sname": "細川"
  },
  {
    "zip_code": 6340137,
    "pref": "奈良県",
    "city": "明日香村",
    "sname": "真弓"
  },
  {
    "zip_code": 6340131,
    "pref": "奈良県",
    "city": "明日香村",
    "sname": "御園"
  },
  {
    "zip_code": 6340104,
    "pref": "奈良県",
    "city": "明日香村",
    "sname": "八釣"
  },
  {
    "zip_code": 6390200,
    "pref": "奈良県",
    "city": "上牧町",
    "sname": ""
  },
  {
    "zip_code": 6390201,
    "pref": "奈良県",
    "city": "上牧町",
    "sname": "片岡台"
  },
  {
    "zip_code": 6390215,
    "pref": "奈良県",
    "city": "上牧町",
    "sname": "葛城台"
  },
  {
    "zip_code": 6390214,
    "pref": "奈良県",
    "city": "上牧町",
    "sname": "上牧"
  },
  {
    "zip_code": 6390202,
    "pref": "奈良県",
    "city": "上牧町",
    "sname": "桜ケ丘"
  },
  {
    "zip_code": 6390218,
    "pref": "奈良県",
    "city": "上牧町",
    "sname": "ささゆり台"
  },
  {
    "zip_code": 6390205,
    "pref": "奈良県",
    "city": "上牧町",
    "sname": "下牧"
  },
  {
    "zip_code": 6390216,
    "pref": "奈良県",
    "city": "上牧町",
    "sname": "松里園"
  },
  {
    "zip_code": 6390211,
    "pref": "奈良県",
    "city": "上牧町",
    "sname": "滝川台"
  },
  {
    "zip_code": 6390203,
    "pref": "奈良県",
    "city": "上牧町",
    "sname": "友が丘"
  },
  {
    "zip_code": 6390217,
    "pref": "奈良県",
    "city": "上牧町",
    "sname": "中筋出作"
  },
  {
    "zip_code": 6390212,
    "pref": "奈良県",
    "city": "上牧町",
    "sname": "服部台"
  },
  {
    "zip_code": 6390204,
    "pref": "奈良県",
    "city": "上牧町",
    "sname": "緑ケ丘"
  },
  {
    "zip_code": 6390206,
    "pref": "奈良県",
    "city": "上牧町",
    "sname": "ゆりが丘"
  },
  {
    "zip_code": 6390213,
    "pref": "奈良県",
    "city": "上牧町",
    "sname": "米山台"
  },
  {
    "zip_code": 6360000,
    "pref": "奈良県",
    "city": "王寺町",
    "sname": ""
  },
  {
    "zip_code": 6360002,
    "pref": "奈良県",
    "city": "王寺町",
    "sname": "王寺"
  },
  {
    "zip_code": 6360011,
    "pref": "奈良県",
    "city": "王寺町",
    "sname": "葛下"
  },
  {
    "zip_code": 6360003,
    "pref": "奈良県",
    "city": "王寺町",
    "sname": "久度"
  },
  {
    "zip_code": 6360023,
    "pref": "奈良県",
    "city": "王寺町",
    "sname": "太子"
  },
  {
    "zip_code": 6360021,
    "pref": "奈良県",
    "city": "王寺町",
    "sname": "畠田"
  },
  {
    "zip_code": 6360014,
    "pref": "奈良県",
    "city": "王寺町",
    "sname": "藤井"
  },
  {
    "zip_code": 6360001,
    "pref": "奈良県",
    "city": "王寺町",
    "sname": "舟戸"
  },
  {
    "zip_code": 6360012,
    "pref": "奈良県",
    "city": "王寺町",
    "sname": "本町"
  },
  {
    "zip_code": 6360015,
    "pref": "奈良県",
    "city": "王寺町",
    "sname": "南元町"
  },
  {
    "zip_code": 6360022,
    "pref": "奈良県",
    "city": "王寺町",
    "sname": "明神"
  },
  {
    "zip_code": 6360013,
    "pref": "奈良県",
    "city": "王寺町",
    "sname": "元町"
  },
  {
    "zip_code": 6350000,
    "pref": "奈良県",
    "city": "広陵町",
    "sname": ""
  },
  {
    "zip_code": 6350825,
    "pref": "奈良県",
    "city": "広陵町",
    "sname": "安部"
  },
  {
    "zip_code": 6350831,
    "pref": "奈良県",
    "city": "広陵町",
    "sname": "馬見北"
  },
  {
    "zip_code": 6350832,
    "pref": "奈良県",
    "city": "広陵町",
    "sname": "馬見中"
  },
  {
    "zip_code": 6350833,
    "pref": "奈良県",
    "city": "広陵町",
    "sname": "馬見南"
  },
  {
    "zip_code": 6350834,
    "pref": "奈良県",
    "city": "広陵町",
    "sname": "大塚"
  },
  {
    "zip_code": 6350803,
    "pref": "奈良県",
    "city": "広陵町",
    "sname": "大野"
  },
  {
    "zip_code": 6350801,
    "pref": "奈良県",
    "city": "広陵町",
    "sname": "大場"
  },
  {
    "zip_code": 6350821,
    "pref": "奈良県",
    "city": "広陵町",
    "sname": "笠"
  },
  {
    "zip_code": 6350805,
    "pref": "奈良県",
    "city": "広陵町",
    "sname": "萱野"
  },
  {
    "zip_code": 6350813,
    "pref": "奈良県",
    "city": "広陵町",
    "sname": "百済"
  },
  {
    "zip_code": 6350815,
    "pref": "奈良県",
    "city": "広陵町",
    "sname": "古寺"
  },
  {
    "zip_code": 6350804,
    "pref": "奈良県",
    "city": "広陵町",
    "sname": "沢"
  },
  {
    "zip_code": 6350817,
    "pref": "奈良県",
    "city": "広陵町",
    "sname": "寺戸"
  },
  {
    "zip_code": 6350816,
    "pref": "奈良県",
    "city": "広陵町",
    "sname": "中"
  },
  {
    "zip_code": 6350814,
    "pref": "奈良県",
    "city": "広陵町",
    "sname": "南郷"
  },
  {
    "zip_code": 6350824,
    "pref": "奈良県",
    "city": "広陵町",
    "sname": "疋相"
  },
  {
    "zip_code": 6350822,
    "pref": "奈良県",
    "city": "広陵町",
    "sname": "平尾"
  },
  {
    "zip_code": 6350812,
    "pref": "奈良県",
    "city": "広陵町",
    "sname": "広瀬"
  },
  {
    "zip_code": 6350811,
    "pref": "奈良県",
    "city": "広陵町",
    "sname": "弁財天"
  },
  {
    "zip_code": 6350802,
    "pref": "奈良県",
    "city": "広陵町",
    "sname": "的場"
  },
  {
    "zip_code": 6350835,
    "pref": "奈良県",
    "city": "広陵町",
    "sname": "みささぎ台"
  },
  {
    "zip_code": 6350823,
    "pref": "奈良県",
    "city": "広陵町",
    "sname": "三吉"
  },
  {
    "zip_code": 6350818,
    "pref": "奈良県",
    "city": "広陵町",
    "sname": "南"
  },
  {
    "zip_code": 6360000,
    "pref": "奈良県",
    "city": "河合町",
    "sname": ""
  },
  {
    "zip_code": 6360053,
    "pref": "奈良県",
    "city": "河合町",
    "sname": "池部"
  },
  {
    "zip_code": 6360091,
    "pref": "奈良県",
    "city": "河合町",
    "sname": "泉台"
  },
  {
    "zip_code": 6360057,
    "pref": "奈良県",
    "city": "河合町",
    "sname": "彩りの杜"
  },
  {
    "zip_code": 6360093,
    "pref": "奈良県",
    "city": "河合町",
    "sname": "大輪田"
  },
  {
    "zip_code": 6360051,
    "pref": "奈良県",
    "city": "河合町",
    "sname": "川合"
  },
  {
    "zip_code": 6360082,
    "pref": "奈良県",
    "city": "河合町",
    "sname": "薬井"
  },
  {
    "zip_code": 6360063,
    "pref": "奈良県",
    "city": "河合町",
    "sname": "久美ケ丘"
  },
  {
    "zip_code": 6360062,
    "pref": "奈良県",
    "city": "河合町",
    "sname": "佐味田"
  },
  {
    "zip_code": 6360092,
    "pref": "奈良県",
    "city": "河合町",
    "sname": "城内"
  },
  {
    "zip_code": 6360081,
    "pref": "奈良県",
    "city": "河合町",
    "sname": "星和台"
  },
  {
    "zip_code": 6360071,
    "pref": "奈良県",
    "city": "河合町",
    "sname": "高塚台"
  },
  {
    "zip_code": 6360052,
    "pref": "奈良県",
    "city": "河合町",
    "sname": "長楽"
  },
  {
    "zip_code": 6360072,
    "pref": "奈良県",
    "city": "河合町",
    "sname": "中山台"
  },
  {
    "zip_code": 6360054,
    "pref": "奈良県",
    "city": "河合町",
    "sname": "穴闇"
  },
  {
    "zip_code": 6360055,
    "pref": "奈良県",
    "city": "河合町",
    "sname": "西穴闇"
  },
  {
    "zip_code": 6360056,
    "pref": "奈良県",
    "city": "河合町",
    "sname": "西山台"
  },
  {
    "zip_code": 6360073,
    "pref": "奈良県",
    "city": "河合町",
    "sname": "広瀬台"
  },
  {
    "zip_code": 6360061,
    "pref": "奈良県",
    "city": "河合町",
    "sname": "山坊"
  },
  {
    "zip_code": 6393100,
    "pref": "奈良県",
    "city": "吉野町",
    "sname": ""
  },
  {
    "zip_code": 6393433,
    "pref": "奈良県",
    "city": "吉野町",
    "sname": "新子"
  },
  {
    "zip_code": 6393113,
    "pref": "奈良県",
    "city": "吉野町",
    "sname": "飯貝"
  },
  {
    "zip_code": 6393323,
    "pref": "奈良県",
    "city": "吉野町",
    "sname": "色生"
  },
  {
    "zip_code": 6393436,
    "pref": "奈良県",
    "city": "吉野町",
    "sname": "樫尾"
  },
  {
    "zip_code": 6393111,
    "pref": "奈良県",
    "city": "吉野町",
    "sname": "上市"
  },
  {
    "zip_code": 6393102,
    "pref": "奈良県",
    "city": "吉野町",
    "sname": "河原屋"
  },
  {
    "zip_code": 6393442,
    "pref": "奈良県",
    "city": "吉野町",
    "sname": "喜佐谷"
  },
  {
    "zip_code": 6393434,
    "pref": "奈良県",
    "city": "吉野町",
    "sname": "国栖"
  },
  {
    "zip_code": 6393432,
    "pref": "奈良県",
    "city": "吉野町",
    "sname": "窪垣内"
  },
  {
    "zip_code": 6393324,
    "pref": "奈良県",
    "city": "吉野町",
    "sname": "香束"
  },
  {
    "zip_code": 6393322,
    "pref": "奈良県",
    "city": "吉野町",
    "sname": "小名"
  },
  {
    "zip_code": 6393107,
    "pref": "奈良県",
    "city": "吉野町",
    "sname": "佐々羅"
  },
  {
    "zip_code": 6393117,
    "pref": "奈良県",
    "city": "吉野町",
    "sname": "左曽"
  },
  {
    "zip_code": 6393431,
    "pref": "奈良県",
    "city": "吉野町",
    "sname": "入野"
  },
  {
    "zip_code": 6393106,
    "pref": "奈良県",
    "city": "吉野町",
    "sname": "志賀"
  },
  {
    "zip_code": 6393106,
    "pref": "奈良県",
    "city": "吉野町",
    "sname": "滝畑"
  },
  {
    "zip_code": 6393112,
    "pref": "奈良県",
    "city": "吉野町",
    "sname": "立野"
  },
  {
    "zip_code": 6393114,
    "pref": "奈良県",
    "city": "吉野町",
    "sname": "丹治"
  },
  {
    "zip_code": 6393105,
    "pref": "奈良県",
    "city": "吉野町",
    "sname": "千股"
  },
  {
    "zip_code": 6393102,
    "pref": "奈良県",
    "city": "吉野町",
    "sname": "津風呂"
  },
  {
    "zip_code": 6393446,
    "pref": "奈良県",
    "city": "吉野町",
    "sname": "菜摘"
  },
  {
    "zip_code": 6393445,
    "pref": "奈良県",
    "city": "吉野町",
    "sname": "楢井"
  },
  {
    "zip_code": 6393108,
    "pref": "奈良県",
    "city": "吉野町",
    "sname": "西谷"
  },
  {
    "zip_code": 6393118,
    "pref": "奈良県",
    "city": "吉野町",
    "sname": "橋屋"
  },
  {
    "zip_code": 6393103,
    "pref": "奈良県",
    "city": "吉野町",
    "sname": "平尾"
  },
  {
    "zip_code": 6393444,
    "pref": "奈良県",
    "city": "吉野町",
    "sname": "御園"
  },
  {
    "zip_code": 6393321,
    "pref": "奈良県",
    "city": "吉野町",
    "sname": "三茶屋"
  },
  {
    "zip_code": 6393108,
    "pref": "奈良県",
    "city": "吉野町",
    "sname": "三津"
  },
  {
    "zip_code": 6393437,
    "pref": "奈良県",
    "city": "吉野町",
    "sname": "南大野"
  },
  {
    "zip_code": 6393435,
    "pref": "奈良県",
    "city": "吉野町",
    "sname": "南国栖"
  },
  {
    "zip_code": 6393104,
    "pref": "奈良県",
    "city": "吉野町",
    "sname": "峰寺"
  },
  {
    "zip_code": 6393443,
    "pref": "奈良県",
    "city": "吉野町",
    "sname": "宮滝"
  },
  {
    "zip_code": 6393116,
    "pref": "奈良県",
    "city": "吉野町",
    "sname": "六田"
  },
  {
    "zip_code": 6393441,
    "pref": "奈良県",
    "city": "吉野町",
    "sname": "矢治"
  },
  {
    "zip_code": 6393325,
    "pref": "奈良県",
    "city": "吉野町",
    "sname": "柳"
  },
  {
    "zip_code": 6393101,
    "pref": "奈良県",
    "city": "吉野町",
    "sname": "山口"
  },
  {
    "zip_code": 6393115,
    "pref": "奈良県",
    "city": "吉野町",
    "sname": "吉野山"
  },
  {
    "zip_code": 6380000,
    "pref": "奈良県",
    "city": "大淀町",
    "sname": ""
  },
  {
    "zip_code": 6380801,
    "pref": "奈良県",
    "city": "大淀町",
    "sname": "芦原"
  },
  {
    "zip_code": 6380841,
    "pref": "奈良県",
    "city": "大淀町",
    "sname": "今木"
  },
  {
    "zip_code": 6380851,
    "pref": "奈良県",
    "city": "大淀町",
    "sname": "岩壺"
  },
  {
    "zip_code": 6380842,
    "pref": "奈良県",
    "city": "大淀町",
    "sname": "大岩"
  },
  {
    "zip_code": 6393125,
    "pref": "奈良県",
    "city": "大淀町",
    "sname": "北野"
  },
  {
    "zip_code": 6393124,
    "pref": "奈良県",
    "city": "大淀町",
    "sname": "北六田"
  },
  {
    "zip_code": 6380832,
    "pref": "奈良県",
    "city": "大淀町",
    "sname": "薬水"
  },
  {
    "zip_code": 6380803,
    "pref": "奈良県",
    "city": "大淀町",
    "sname": "越部"
  },
  {
    "zip_code": 6380831,
    "pref": "奈良県",
    "city": "大淀町",
    "sname": "佐名伝"
  },
  {
    "zip_code": 6380821,
    "pref": "奈良県",
    "city": "大淀町",
    "sname": "下渕"
  },
  {
    "zip_code": 6380811,
    "pref": "奈良県",
    "city": "大淀町",
    "sname": "土田"
  },
  {
    "zip_code": 6393122,
    "pref": "奈良県",
    "city": "大淀町",
    "sname": "中増"
  },
  {
    "zip_code": 6393121,
    "pref": "奈良県",
    "city": "大淀町",
    "sname": "西増"
  },
  {
    "zip_code": 6393126,
    "pref": "奈良県",
    "city": "大淀町",
    "sname": "新野"
  },
  {
    "zip_code": 6393127,
    "pref": "奈良県",
    "city": "大淀町",
    "sname": "馬佐"
  },
  {
    "zip_code": 6380802,
    "pref": "奈良県",
    "city": "大淀町",
    "sname": "畑屋"
  },
  {
    "zip_code": 6380812,
    "pref": "奈良県",
    "city": "大淀町",
    "sname": "桧垣本"
  },
  {
    "zip_code": 6393128,
    "pref": "奈良県",
    "city": "大淀町",
    "sname": "比曽"
  },
  {
    "zip_code": 6380833,
    "pref": "奈良県",
    "city": "大淀町",
    "sname": "福神"
  },
  {
    "zip_code": 6380843,
    "pref": "奈良県",
    "city": "大淀町",
    "sname": "鉾立"
  },
  {
    "zip_code": 6393123,
    "pref": "奈良県",
    "city": "大淀町",
    "sname": "増口"
  },
  {
    "zip_code": 6380852,
    "pref": "奈良県",
    "city": "大淀町",
    "sname": "持尾"
  },
  {
    "zip_code": 6380853,
    "pref": "奈良県",
    "city": "大淀町",
    "sname": "矢走"
  },
  {
    "zip_code": 6380000,
    "pref": "奈良県",
    "city": "下市町",
    "sname": ""
  },
  {
    "zip_code": 6380045,
    "pref": "奈良県",
    "city": "下市町",
    "sname": "新住"
  },
  {
    "zip_code": 6380001,
    "pref": "奈良県",
    "city": "下市町",
    "sname": "阿知賀"
  },
  {
    "zip_code": 6380012,
    "pref": "奈良県",
    "city": "下市町",
    "sname": "岩森"
  },
  {
    "zip_code": 6380043,
    "pref": "奈良県",
    "city": "下市町",
    "sname": "大峯"
  },
  {
    "zip_code": 6380024,
    "pref": "奈良県",
    "city": "下市町",
    "sname": "貝原"
  },
  {
    "zip_code": 6380023,
    "pref": "奈良県",
    "city": "下市町",
    "sname": "黒木"
  },
  {
    "zip_code": 6380014,
    "pref": "奈良県",
    "city": "下市町",
    "sname": "才谷"
  },
  {
    "zip_code": 6380042,
    "pref": "奈良県",
    "city": "下市町",
    "sname": "栄町"
  },
  {
    "zip_code": 6380041,
    "pref": "奈良県",
    "city": "下市町",
    "sname": "下市"
  },
  {
    "zip_code": 6380002,
    "pref": "奈良県",
    "city": "下市町",
    "sname": "小路"
  },
  {
    "zip_code": 6380003,
    "pref": "奈良県",
    "city": "下市町",
    "sname": "善城"
  },
  {
    "zip_code": 6380013,
    "pref": "奈良県",
    "city": "下市町",
    "sname": "立石"
  },
  {
    "zip_code": 6380044,
    "pref": "奈良県",
    "city": "下市町",
    "sname": "田中"
  },
  {
    "zip_code": 6380025,
    "pref": "奈良県",
    "city": "下市町",
    "sname": "谷"
  },
  {
    "zip_code": 6380035,
    "pref": "奈良県",
    "city": "下市町",
    "sname": "栃原"
  },
  {
    "zip_code": 6380031,
    "pref": "奈良県",
    "city": "下市町",
    "sname": "栃本"
  },
  {
    "zip_code": 6380021,
    "pref": "奈良県",
    "city": "下市町",
    "sname": "長谷"
  },
  {
    "zip_code": 6380033,
    "pref": "奈良県",
    "city": "下市町",
    "sname": "梨子堂"
  },
  {
    "zip_code": 6380022,
    "pref": "奈良県",
    "city": "下市町",
    "sname": "丹生"
  },
  {
    "zip_code": 6380026,
    "pref": "奈良県",
    "city": "下市町",
    "sname": "西山"
  },
  {
    "zip_code": 6380032,
    "pref": "奈良県",
    "city": "下市町",
    "sname": "原谷"
  },
  {
    "zip_code": 6380015,
    "pref": "奈良県",
    "city": "下市町",
    "sname": "広橋"
  },
  {
    "zip_code": 6380034,
    "pref": "奈良県",
    "city": "下市町",
    "sname": "平原"
  },
  {
    "zip_code": 6380011,
    "pref": "奈良県",
    "city": "下市町",
    "sname": "よ邑"
  },
  {
    "zip_code": 6380200,
    "pref": "奈良県",
    "city": "黒滝村",
    "sname": ""
  },
  {
    "zip_code": 6380211,
    "pref": "奈良県",
    "city": "黒滝村",
    "sname": "赤滝"
  },
  {
    "zip_code": 6380241,
    "pref": "奈良県",
    "city": "黒滝村",
    "sname": "粟飯谷"
  },
  {
    "zip_code": 6380231,
    "pref": "奈良県",
    "city": "黒滝村",
    "sname": "笠木"
  },
  {
    "zip_code": 6380232,
    "pref": "奈良県",
    "city": "黒滝村",
    "sname": "桂原"
  },
  {
    "zip_code": 6380251,
    "pref": "奈良県",
    "city": "黒滝村",
    "sname": "寺戸"
  },
  {
    "zip_code": 6380243,
    "pref": "奈良県",
    "city": "黒滝村",
    "sname": "堂原"
  },
  {
    "zip_code": 6380203,
    "pref": "奈良県",
    "city": "黒滝村",
    "sname": "鳥住"
  },
  {
    "zip_code": 6380221,
    "pref": "奈良県",
    "city": "黒滝村",
    "sname": "中戸"
  },
  {
    "zip_code": 6380233,
    "pref": "奈良県",
    "city": "黒滝村",
    "sname": "長瀬"
  },
  {
    "zip_code": 6380201,
    "pref": "奈良県",
    "city": "黒滝村",
    "sname": "槇尾"
  },
  {
    "zip_code": 6380242,
    "pref": "奈良県",
    "city": "黒滝村",
    "sname": "御吉野"
  },
  {
    "zip_code": 6380202,
    "pref": "奈良県",
    "city": "黒滝村",
    "sname": "脇川"
  },
  {
    "zip_code": 6380300,
    "pref": "奈良県",
    "city": "天川村",
    "sname": ""
  },
  {
    "zip_code": 6380552,
    "pref": "奈良県",
    "city": "天川村",
    "sname": "庵住"
  },
  {
    "zip_code": 6380311,
    "pref": "奈良県",
    "city": "天川村",
    "sname": "沖金"
  },
  {
    "zip_code": 6380301,
    "pref": "奈良県",
    "city": "天川村",
    "sname": "川合"
  },
  {
    "zip_code": 6380313,
    "pref": "奈良県",
    "city": "天川村",
    "sname": "北小原"
  },
  {
    "zip_code": 6380303,
    "pref": "奈良県",
    "city": "天川村",
    "sname": "北角"
  },
  {
    "zip_code": 6380314,
    "pref": "奈良県",
    "city": "天川村",
    "sname": "五色"
  },
  {
    "zip_code": 6380551,
    "pref": "奈良県",
    "city": "天川村",
    "sname": "籠山"
  },
  {
    "zip_code": 6380305,
    "pref": "奈良県",
    "city": "天川村",
    "sname": "沢谷"
  },
  {
    "zip_code": 6380315,
    "pref": "奈良県",
    "city": "天川村",
    "sname": "沢原"
  },
  {
    "zip_code": 6380564,
    "pref": "奈良県",
    "city": "天川村",
    "sname": "塩谷"
  },
  {
    "zip_code": 6380563,
    "pref": "奈良県",
    "city": "天川村",
    "sname": "塩野"
  },
  {
    "zip_code": 6380562,
    "pref": "奈良県",
    "city": "天川村",
    "sname": "滝尾"
  },
  {
    "zip_code": 6380541,
    "pref": "奈良県",
    "city": "天川村",
    "sname": "九尾"
  },
  {
    "zip_code": 6380321,
    "pref": "奈良県",
    "city": "天川村",
    "sname": "坪内"
  },
  {
    "zip_code": 6380542,
    "pref": "奈良県",
    "city": "天川村",
    "sname": "栃尾"
  },
  {
    "zip_code": 6380431,
    "pref": "奈良県",
    "city": "天川村",
    "sname": "洞川"
  },
  {
    "zip_code": 6380302,
    "pref": "奈良県",
    "city": "天川村",
    "sname": "中越"
  },
  {
    "zip_code": 6380312,
    "pref": "奈良県",
    "city": "天川村",
    "sname": "中谷"
  },
  {
    "zip_code": 6380561,
    "pref": "奈良県",
    "city": "天川村",
    "sname": "広瀬"
  },
  {
    "zip_code": 6380322,
    "pref": "奈良県",
    "city": "天川村",
    "sname": "南日裏"
  },
  {
    "zip_code": 6380304,
    "pref": "奈良県",
    "city": "天川村",
    "sname": "南角"
  },
  {
    "zip_code": 6380553,
    "pref": "奈良県",
    "city": "天川村",
    "sname": "山西"
  },
  {
    "zip_code": 6380543,
    "pref": "奈良県",
    "city": "天川村",
    "sname": "和田"
  },
  {
    "zip_code": 6480300,
    "pref": "奈良県",
    "city": "野迫川村",
    "sname": ""
  },
  {
    "zip_code": 6480301,
    "pref": "奈良県",
    "city": "野迫川村",
    "sname": "池津川"
  },
  {
    "zip_code": 6370421,
    "pref": "奈良県",
    "city": "野迫川村",
    "sname": "今井"
  },
  {
    "zip_code": 6370425,
    "pref": "奈良県",
    "city": "野迫川村",
    "sname": "上"
  },
  {
    "zip_code": 6480307,
    "pref": "奈良県",
    "city": "野迫川村",
    "sname": "北今西"
  },
  {
    "zip_code": 6480305,
    "pref": "奈良県",
    "city": "野迫川村",
    "sname": "北股"
  },
  {
    "zip_code": 6480302,
    "pref": "奈良県",
    "city": "野迫川村",
    "sname": "紫園"
  },
  {
    "zip_code": 6480306,
    "pref": "奈良県",
    "city": "野迫川村",
    "sname": "平"
  },
  {
    "zip_code": 6480304,
    "pref": "奈良県",
    "city": "野迫川村",
    "sname": "立里"
  },
  {
    "zip_code": 6370424,
    "pref": "奈良県",
    "city": "野迫川村",
    "sname": "中"
  },
  {
    "zip_code": 6480303,
    "pref": "奈良県",
    "city": "野迫川村",
    "sname": "中津川"
  },
  {
    "zip_code": 6480308,
    "pref": "奈良県",
    "city": "野迫川村",
    "sname": "桧股"
  },
  {
    "zip_code": 6370422,
    "pref": "奈良県",
    "city": "野迫川村",
    "sname": "平川"
  },
  {
    "zip_code": 6370423,
    "pref": "奈良県",
    "city": "野迫川村",
    "sname": "柞原"
  },
  {
    "zip_code": 6480309,
    "pref": "奈良県",
    "city": "野迫川村",
    "sname": "弓手原"
  },
  {
    "zip_code": 6371500,
    "pref": "奈良県",
    "city": "十津川村",
    "sname": ""
  },
  {
    "zip_code": 6371102,
    "pref": "奈良県",
    "city": "十津川村",
    "sname": "旭"
  },
  {
    "zip_code": 6371215,
    "pref": "奈良県",
    "city": "十津川村",
    "sname": "池穴"
  },
  {
    "zip_code": 6371664,
    "pref": "奈良県",
    "city": "十津川村",
    "sname": "今西"
  },
  {
    "zip_code": 6371224,
    "pref": "奈良県",
    "city": "十津川村",
    "sname": "五百瀬"
  },
  {
    "zip_code": 6371103,
    "pref": "奈良県",
    "city": "十津川村",
    "sname": "上野地"
  },
  {
    "zip_code": 6371107,
    "pref": "奈良県",
    "city": "十津川村",
    "sname": "宇宮原"
  },
  {
    "zip_code": 6371221,
    "pref": "奈良県",
    "city": "十津川村",
    "sname": "内野"
  },
  {
    "zip_code": 6371331,
    "pref": "奈良県",
    "city": "十津川村",
    "sname": "大野"
  },
  {
    "zip_code": 6371441,
    "pref": "奈良県",
    "city": "十津川村",
    "sname": "小川"
  },
  {
    "zip_code": 6371333,
    "pref": "奈良県",
    "city": "十津川村",
    "sname": "小原"
  },
  {
    "zip_code": 6371443,
    "pref": "奈良県",
    "city": "十津川村",
    "sname": "折立"
  },
  {
    "zip_code": 6371446,
    "pref": "奈良県",
    "city": "十津川村",
    "sname": "樫原"
  },
  {
    "zip_code": 6371217,
    "pref": "奈良県",
    "city": "十津川村",
    "sname": "風屋"
  },
  {
    "zip_code": 6471584,
    "pref": "奈良県",
    "city": "十津川村",
    "sname": "上葛川"
  },
  {
    "zip_code": 6371559,
    "pref": "奈良県",
    "city": "十津川村",
    "sname": "上湯川"
  },
  {
    "zip_code": 6371216,
    "pref": "奈良県",
    "city": "十津川村",
    "sname": "川津"
  },
  {
    "zip_code": 6371556,
    "pref": "奈良県",
    "city": "十津川村",
    "sname": "桑畑"
  },
  {
    "zip_code": 6371336,
    "pref": "奈良県",
    "city": "十津川村",
    "sname": "小井"
  },
  {
    "zip_code": 6471581,
    "pref": "奈良県",
    "city": "十津川村",
    "sname": "神下"
  },
  {
    "zip_code": 6371667,
    "pref": "奈良県",
    "city": "十津川村",
    "sname": "小坪瀬"
  },
  {
    "zip_code": 6371445,
    "pref": "奈良県",
    "city": "十津川村",
    "sname": "込之上"
  },
  {
    "zip_code": 6371334,
    "pref": "奈良県",
    "city": "十津川村",
    "sname": "小森"
  },
  {
    "zip_code": 6371666,
    "pref": "奈良県",
    "city": "十津川村",
    "sname": "小山手"
  },
  {
    "zip_code": 6371555,
    "pref": "奈良県",
    "city": "十津川村",
    "sname": "猿飼"
  },
  {
    "zip_code": 6371661,
    "pref": "奈良県",
    "city": "十津川村",
    "sname": "重里"
  },
  {
    "zip_code": 6371225,
    "pref": "奈良県",
    "city": "十津川村",
    "sname": "杉清"
  },
  {
    "zip_code": 6371668,
    "pref": "奈良県",
    "city": "十津川村",
    "sname": "迫西川"
  },
  {
    "zip_code": 6371442,
    "pref": "奈良県",
    "city": "十津川村",
    "sname": "高滝"
  },
  {
    "zip_code": 6371211,
    "pref": "奈良県",
    "city": "十津川村",
    "sname": "滝川"
  },
  {
    "zip_code": 6471271,
    "pref": "奈良県",
    "city": "十津川村",
    "sname": "竹筒"
  },
  {
    "zip_code": 6371104,
    "pref": "奈良県",
    "city": "十津川村",
    "sname": "高津"
  },
  {
    "zip_code": 6371552,
    "pref": "奈良県",
    "city": "十津川村",
    "sname": "谷垣内"
  },
  {
    "zip_code": 6371106,
    "pref": "奈良県",
    "city": "十津川村",
    "sname": "谷瀬"
  },
  {
    "zip_code": 6471582,
    "pref": "奈良県",
    "city": "十津川村",
    "sname": "玉置川"
  },
  {
    "zip_code": 6371663,
    "pref": "奈良県",
    "city": "十津川村",
    "sname": "玉垣内"
  },
  {
    "zip_code": 6371558,
    "pref": "奈良県",
    "city": "十津川村",
    "sname": "出谷"
  },
  {
    "zip_code": 6371212,
    "pref": "奈良県",
    "city": "十津川村",
    "sname": "内原"
  },
  {
    "zip_code": 6371662,
    "pref": "奈良県",
    "city": "十津川村",
    "sname": "永井"
  },
  {
    "zip_code": 6371108,
    "pref": "奈良県",
    "city": "十津川村",
    "sname": "長殿"
  },
  {
    "zip_code": 6371551,
    "pref": "奈良県",
    "city": "十津川村",
    "sname": "那知合"
  },
  {
    "zip_code": 6371557,
    "pref": "奈良県",
    "city": "十津川村",
    "sname": "七色"
  },
  {
    "zip_code": 6371665,
    "pref": "奈良県",
    "city": "十津川村",
    "sname": "西中"
  },
  {
    "zip_code": 6371101,
    "pref": "奈良県",
    "city": "十津川村",
    "sname": "沼田原"
  },
  {
    "zip_code": 6371213,
    "pref": "奈良県",
    "city": "十津川村",
    "sname": "野尻"
  },
  {
    "zip_code": 6371105,
    "pref": "奈良県",
    "city": "十津川村",
    "sname": "林"
  },
  {
    "zip_code": 6471583,
    "pref": "奈良県",
    "city": "十津川村",
    "sname": "東中"
  },
  {
    "zip_code": 6371554,
    "pref": "奈良県",
    "city": "十津川村",
    "sname": "平谷"
  },
  {
    "zip_code": 6371223,
    "pref": "奈良県",
    "city": "十津川村",
    "sname": "三浦"
  },
  {
    "zip_code": 6371332,
    "pref": "奈良県",
    "city": "十津川村",
    "sname": "武蔵"
  },
  {
    "zip_code": 6371214,
    "pref": "奈良県",
    "city": "十津川村",
    "sname": "山崎"
  },
  {
    "zip_code": 6371553,
    "pref": "奈良県",
    "city": "十津川村",
    "sname": "山手"
  },
  {
    "zip_code": 6371444,
    "pref": "奈良県",
    "city": "十津川村",
    "sname": "山手谷"
  },
  {
    "zip_code": 6371222,
    "pref": "奈良県",
    "city": "十津川村",
    "sname": "山天"
  },
  {
    "zip_code": 6371335,
    "pref": "奈良県",
    "city": "十津川村",
    "sname": "湯之原"
  },
  {
    "zip_code": 6393800,
    "pref": "奈良県",
    "city": "下北山村",
    "sname": ""
  },
  {
    "zip_code": 6393804,
    "pref": "奈良県",
    "city": "下北山村",
    "sname": "池峰"
  },
  {
    "zip_code": 6393802,
    "pref": "奈良県",
    "city": "下北山村",
    "sname": "浦向"
  },
  {
    "zip_code": 6393805,
    "pref": "奈良県",
    "city": "下北山村",
    "sname": "上池原"
  },
  {
    "zip_code": 6393808,
    "pref": "奈良県",
    "city": "下北山村",
    "sname": "上桑原"
  },
  {
    "zip_code": 6393801,
    "pref": "奈良県",
    "city": "下北山村",
    "sname": "佐田"
  },
  {
    "zip_code": 6393806,
    "pref": "奈良県",
    "city": "下北山村",
    "sname": "下池原"
  },
  {
    "zip_code": 6393807,
    "pref": "奈良県",
    "city": "下北山村",
    "sname": "下桑原"
  },
  {
    "zip_code": 6393809,
    "pref": "奈良県",
    "city": "下北山村",
    "sname": "前鬼"
  },
  {
    "zip_code": 6393803,
    "pref": "奈良県",
    "city": "下北山村",
    "sname": "寺垣内"
  },
  {
    "zip_code": 6393700,
    "pref": "奈良県",
    "city": "上北山村",
    "sname": ""
  },
  {
    "zip_code": 6393701,
    "pref": "奈良県",
    "city": "上北山村",
    "sname": "河合"
  },
  {
    "zip_code": 6393702,
    "pref": "奈良県",
    "city": "上北山村",
    "sname": "小橡"
  },
  {
    "zip_code": 6393703,
    "pref": "奈良県",
    "city": "上北山村",
    "sname": "白川"
  },
  {
    "zip_code": 6393704,
    "pref": "奈良県",
    "city": "上北山村",
    "sname": "西原"
  },
  {
    "zip_code": 6393705,
    "pref": "奈良県",
    "city": "上北山村",
    "sname": "東ノ川"
  },
  {
    "zip_code": 6393500,
    "pref": "奈良県",
    "city": "川上村",
    "sname": ""
  },
  {
    "zip_code": 6393623,
    "pref": "奈良県",
    "city": "川上村",
    "sname": "井光"
  },
  {
    "zip_code": 6393622,
    "pref": "奈良県",
    "city": "川上村",
    "sname": "井戸"
  },
  {
    "zip_code": 6393622,
    "pref": "奈良県",
    "city": "川上村",
    "sname": "井戸ネジ畑"
  },
  {
    "zip_code": 6393558,
    "pref": "奈良県",
    "city": "川上村",
    "sname": "井戸"
  },
  {
    "zip_code": 6393541,
    "pref": "奈良県",
    "city": "川上村",
    "sname": "東川"
  },
  {
    "zip_code": 6393612,
    "pref": "奈良県",
    "city": "川上村",
    "sname": "大迫"
  },
  {
    "zip_code": 6393543,
    "pref": "奈良県",
    "city": "川上村",
    "sname": "大滝"
  },
  {
    "zip_code": 6393613,
    "pref": "奈良県",
    "city": "川上村",
    "sname": "伯母谷"
  },
  {
    "zip_code": 6393601,
    "pref": "奈良県",
    "city": "川上村",
    "sname": "柏木"
  },
  {
    "zip_code": 6393552,
    "pref": "奈良県",
    "city": "川上村",
    "sname": "北塩谷"
  },
  {
    "zip_code": 6393603,
    "pref": "奈良県",
    "city": "川上村",
    "sname": "北和田"
  },
  {
    "zip_code": 6393602,
    "pref": "奈良県",
    "city": "川上村",
    "sname": "上多古"
  },
  {
    "zip_code": 6393604,
    "pref": "奈良県",
    "city": "川上村",
    "sname": "上谷"
  },
  {
    "zip_code": 6393635,
    "pref": "奈良県",
    "city": "川上村",
    "sname": "神之谷"
  },
  {
    "zip_code": 6393553,
    "pref": "奈良県",
    "city": "川上村",
    "sname": "迫"
  },
  {
    "zip_code": 6393611,
    "pref": "奈良県",
    "city": "川上村",
    "sname": "入之波"
  },
  {
    "zip_code": 6393621,
    "pref": "奈良県",
    "city": "川上村",
    "sname": "下多古"
  },
  {
    "zip_code": 6393631,
    "pref": "奈良県",
    "city": "川上村",
    "sname": "白川渡"
  },
  {
    "zip_code": 6393555,
    "pref": "奈良県",
    "city": "川上村",
    "sname": "白屋"
  },
  {
    "zip_code": 6393634,
    "pref": "奈良県",
    "city": "川上村",
    "sname": "瀬戸"
  },
  {
    "zip_code": 6393632,
    "pref": "奈良県",
    "city": "川上村",
    "sname": "枌尾"
  },
  {
    "zip_code": 6393554,
    "pref": "奈良県",
    "city": "川上村",
    "sname": "高原"
  },
  {
    "zip_code": 6393556,
    "pref": "奈良県",
    "city": "川上村",
    "sname": "高原土場"
  },
  {
    "zip_code": 6393622,
    "pref": "奈良県",
    "city": "川上村",
    "sname": "武木"
  },
  {
    "zip_code": 6393551,
    "pref": "奈良県",
    "city": "川上村",
    "sname": "寺尾"
  },
  {
    "zip_code": 6393633,
    "pref": "奈良県",
    "city": "川上村",
    "sname": "中奥"
  },
  {
    "zip_code": 6393542,
    "pref": "奈良県",
    "city": "川上村",
    "sname": "西河"
  },
  {
    "zip_code": 6393557,
    "pref": "奈良県",
    "city": "川上村",
    "sname": "人知"
  },
  {
    "zip_code": 6332400,
    "pref": "奈良県",
    "city": "東吉野村",
    "sname": ""
  },
  {
    "zip_code": 6332312,
    "pref": "奈良県",
    "city": "東吉野村",
    "sname": "伊豆尾"
  },
  {
    "zip_code": 6332444,
    "pref": "奈良県",
    "city": "東吉野村",
    "sname": "大又"
  },
  {
    "zip_code": 6332421,
    "pref": "奈良県",
    "city": "東吉野村",
    "sname": "小川"
  },
  {
    "zip_code": 6332431,
    "pref": "奈良県",
    "city": "東吉野村",
    "sname": "小"
  },
  {
    "zip_code": 6332423,
    "pref": "奈良県",
    "city": "東吉野村",
    "sname": "小栗栖"
  },
  {
    "zip_code": 6332311,
    "pref": "奈良県",
    "city": "東吉野村",
    "sname": "木津"
  },
  {
    "zip_code": 6332432,
    "pref": "奈良県",
    "city": "東吉野村",
    "sname": "木津川"
  },
  {
    "zip_code": 6332304,
    "pref": "奈良県",
    "city": "東吉野村",
    "sname": "杉谷"
  },
  {
    "zip_code": 6332441,
    "pref": "奈良県",
    "city": "東吉野村",
    "sname": "狭戸"
  },
  {
    "zip_code": 6332301,
    "pref": "奈良県",
    "city": "東吉野村",
    "sname": "滝野"
  },
  {
    "zip_code": 6332302,
    "pref": "奈良県",
    "city": "東吉野村",
    "sname": "谷尻"
  },
  {
    "zip_code": 6332424,
    "pref": "奈良県",
    "city": "東吉野村",
    "sname": "中黒"
  },
  {
    "zip_code": 6332314,
    "pref": "奈良県",
    "city": "東吉野村",
    "sname": "萩原"
  },
  {
    "zip_code": 6332313,
    "pref": "奈良県",
    "city": "東吉野村",
    "sname": "日裏"
  },
  {
    "zip_code": 6332303,
    "pref": "奈良県",
    "city": "東吉野村",
    "sname": "平野"
  },
  {
    "zip_code": 6332442,
    "pref": "奈良県",
    "city": "東吉野村",
    "sname": "大豆生"
  },
  {
    "zip_code": 6332433,
    "pref": "奈良県",
    "city": "東吉野村",
    "sname": "三尾"
  },
  {
    "zip_code": 6332443,
    "pref": "奈良県",
    "city": "東吉野村",
    "sname": "麦谷"
  },
  {
    "zip_code": 6332422,
    "pref": "奈良県",
    "city": "東吉野村",
    "sname": "鷲家"
  }
]